{"type":"FeatureCollection","features":[
{"type":"Feature","geometry":{"type":"Point","coordinates":[-3.4887917,53.3181979]},"properties":{"name":"Rhyl","naptan:AtcoCode":"9100RHYL","network":"National Rail","public_transport":"station","railway":"station","ref:crs":"RHL","source":"NPE","wikidata":"Q2043736","wikipedia":"en:Rhyl railway station"}},
{"type":"Feature","geometry":{"type":"Point","coordinates":[-3.8090412,53.2840536]},"properties":{"name":"Llandudno Junction","name:cy":"Cyffordd Llandudno","name:en":"Llandudno Junction","network":"National Rail","railway":"station","ref:crs":"LLJ","wikidata":"Q2344848","wikipedia":"en:Llandudno Junction railway station","naptan:AtcoCode":"9100LANDUDJ"}},
{"type":"Feature","geometry":{"type":"Point","coordinates":[-3.1322555,53.249742]},"properties":{"name":"Flint","source":"NPE","name:cy":"Y Fflint","name:en":"Flint","network":"National Rail","railway":"station","ref:crs":"FLN","wikidata":"Q2110992","wikipedia":"en:Flint railway station","naptan:AtcoCode":"9100FLINT"}},
{"type":"Feature","geometry":{"type":"Point","coordinates":[-3.0376554,53.2139622]},"properties":{"addr:city":"Shotton","addr:postcode":"CH5 1BX","addr:street":"Chester Road West","internet_access":"no","name":"Shotton Low Level","naptan:AtcoCode":"9100SHOTTON","network":"National Rail","public_transport":"station","railway":"station","ref:crs_2":"SHT","wheelchair":"yes"}},
{"type":"Feature","geometry":{"type":"Point","coordinates":[-2.7597619,51.5845207]},"properties":{"name":"Caldicot","source":"Landsat photo","network":"National Rail","railway":"station","ref:crs":"CDT","wikidata":"Q2431706","wikipedia":"en:Caldicot railway station","internet_access":"no","naptan:AtcoCode":"9100CDCOT","public_transport":"station"}},
{"type":"Feature","geometry":{"type":"Point","coordinates":[-5.0413458,51.7149818]},"properties":{"name":"Milford Haven","name:cy":"Aberdaugleddau","name:en":"Milford Haven","network":"National Rail","railway":"station","ref:crs":"MFH","operator":"Trafnidiaeth Cymru","wikidata":"Q3400252","wikipedia":"en:Milford Haven railway station","operator:cy":"Trafnidiaeth Cymru","operator:en":"Transport for Wales","naptan:AtcoCode":"9100MLFDHVN"}},
{"type":"Feature","geometry":{"type":"Point","coordinates":[-4.9968031,51.7565565]},"properties":{"name":"Johnston","train":"yes","network":"National Rail","railway":"station","ref:crs":"JOH","wikidata":"Q1812881","wikipedia":"en:Johnston railway station","request_stop":"yes","naptan:AtcoCode":"9100JHNSTND","public_transport":"station"}},
{"type":"Feature","geometry":{"type":"Point","coordinates":[-4.9602736,51.8026826]},"properties":{"name":"Haverfordwest","name:cy":"Hwlffordd","network":"National Rail","railway":"station","ref:crs":"HVF","operator":"Trafnidiaeth Cymru","wikidata":"Q1931357","wikipedia":"en:Haverfordwest railway station","operator:cy":"Trafnidiaeth Cymru","operator:en":"Transport for Wales","naptan:AtcoCode":"9100HAVRFDW"}},
{"type":"Feature","geometry":{"type":"Point","coordinates":[-4.9862275,52.0106512]},"properties":{"name":"Fishguard Harbour","name:cy":"Porthladd Abergwaun","naptan:AtcoCode":"9100FGDHBR","network":"National Rail","operator":"Trafnidiaeth Cymru","operator:cy":"Trafnidiaeth Cymru","operator:en":"Transport for Wales","railway":"station","ref:crs":"FGH","wikidata":"Q2602643","wikipedia":"en:Fishguard Harbour railway station"}},
{"type":"Feature","geometry":{"type":"Point","coordinates":[-3.0661047,52.9332608]},"properties":{"name":"Chirk","name:cy":"Y Waun","network":"National Rail","railway":"station","ref:crs":"CRK","wikidata":"Q2004430","wikipedia":"en:Chirk railway station","wheelchair":"yes","naptan:AtcoCode":"9100CHIRK"}},
{"type":"Feature","geometry":{"type":"Point","coordinates":[-3.0433247,52.9872119]},"properties":{"name":"Ruabon","name:cy":"Rhiwabon","network":"National Rail","railway":"station","ref:crs":"RUA","wikidata":"Q2334676","wikipedia":"en:Ruabon railway station","naptan:AtcoCode":"9100RUABON"}},
{"type":"Feature","geometry":{"type":"Point","coordinates":[-4.8821672,51.8517201]},"properties":{"name":"Clarbeston Road","network":"National Rail","railway":"station","ref:crs":"CLR","operator":"Trafnidiaeth Cymru","wikidata":"Q2137827","wikipedia":"en:Clarbeston Road railway station","operator:cy":"Trafnidiaeth Cymru","operator:en":"Transport for Wales","request_stop":"yes","naptan:AtcoCode":"9100CLARBRD"}},
{"type":"Feature","geometry":{"type":"Point","coordinates":[-4.7310171,51.8401164]},"properties":{"name":"Clunderwen","network":"National Rail","railway":"station","ref:crs":"CUW","alt_name":"Clynderwen","operator":"Trafnidiaeth Cymru","wikidata":"Q3400242","wikipedia":"en:Clunderwen railway station","operator:cy":"Trafnidiaeth Cymru","operator:en":"Transport for Wales","request_stop":"yes","naptan:AtcoCode":"9100CLYNDRW"}},
{"type":"Feature","geometry":{"type":"Point","coordinates":[-4.6138778,51.8177968]},"properties":{"name":"Whitland","name:cy":"Hendy-gwyn","network":"National Rail","railway":"station","ref:crs":"WTL","operator":"Trafnidiaeth Cymru","wikidata":"Q2129176","wikipedia":"en:Whitland railway station","operator:cy":"Trafnidiaeth Cymru","operator:en":"Transport for Wales","naptan:AtcoCode":"9100WHLAND"}},
{"type":"Feature","geometry":{"type":"Point","coordinates":[-4.7271711,51.7992893]},"properties":{"name":"Narberth","name:cy":"Arberth","network":"National Rail","railway":"station","ref:crs":"NAR","operator":"Trafnidiaeth Cymru","wikidata":"Q2258074","wikipedia":"en:Narberth railway station (Wales)","operator:cy":"Trafnidiaeth Cymru","operator:en":"Transport for Wales","request_stop":"yes","naptan:AtcoCode":"9100NRBERTH"}},
{"type":"Feature","geometry":{"type":"Point","coordinates":[-4.7144306,51.7321504]},"properties":{"name":"Kilgetty","train":"yes","name:cy":"Cilgeti","network":"National Rail","railway":"station","ref:crs":"KGT","operator":"Trafnidiaeth Cymru","wikidata":"Q2927580","wikipedia":"en:Kilgetty railway station","operator:cy":"Trafnidiaeth Cymru","operator:en":"Transport for Wales","request_stop":"yes","naptan:AtcoCode":"9100KILGETY","public_transport":"station"}},
{"type":"Feature","geometry":{"type":"Point","coordinates":[-4.7180368,51.7222076]},"properties":{"name":"Saundersfoot","network":"National Rail","railway":"station","ref:crs":"SDF","operator":"Trafnidiaeth Cymru","wikidata":"Q281324","wikipedia":"en:Saundersfoot railway station","operator:cy":"Trafnidiaeth Cymru","operator:en":"Transport for Wales","request_stop":"yes","naptan:AtcoCode":"9100SDRSFOT","public_transport":"station"}},
{"type":"Feature","geometry":{"type":"Point","coordinates":[-4.7066919,51.6729277]},"properties":{"name":"Tenby","name:cy":"Dinbych-y-Pysgod","naptan:AtcoCode":"9100TENBY","network":"National Rail","operator":"Trafnidiaeth Cymru","operator:cy":"Trafnidiaeth Cymru","operator:en":"Transport for Wales","railway":"station","ref:crs":"TEN","wikidata":"Q2570866","wikipedia":"en:Tenby railway station"}},
{"type":"Feature","geometry":{"type":"Point","coordinates":[-4.721932,51.6589381]},"properties":{"name":"Penally","name:cy":"Penalun","name:en":"Penally","naptan:AtcoCode":"9100PNALLY","network":"National Rail","operator":"Trafnidiaeth Cymru","operator:cy":"Trafnidiaeth Cymru","operator:en":"Transport for Wales","railway":"station","ref:crs":"PNA","request_stop":"yes","wikidata":"Q2430381","wikipedia":"en:Penally railway station"}},
{"type":"Feature","geometry":{"type":"Point","coordinates":[-4.7927538,51.6601872]},"properties":{"name":"Manorbier","name:cy":"Maenorbŷr","name:en":"Manorbier","network":"National Rail","railway":"station","ref:crs":"MRB","operator":"Trafnidiaeth Cymru","wikidata":"Q1832240","wikipedia":"en:Manorbier railway station","operator:cy":"Trafnidiaeth Cymru","operator:en":"Transport for Wales","naptan:AtcoCode":"9100MNORBER"}},
{"type":"Feature","geometry":{"type":"Point","coordinates":[-4.8730509,51.6671259]},"properties":{"name":"Lamphey","name:cy":"Llandyfái","name:en":"Lamphey","network":"National Rail","railway":"station","ref:crs":"LAM","operator":"Trafnidiaeth Cymru","wikidata":"Q1986174","wikipedia":"en:Lamphey railway station","operator:cy":"Trafnidiaeth Cymru","operator:en":"Transport for Wales","request_stop":"yes","naptan:AtcoCode":"9100LAMPHEY"}},
{"type":"Feature","geometry":{"type":"Point","coordinates":[-4.9064719,51.6729959]},"properties":{"name":"Pembroke","name:cy":"Penfro","name:en":"Pembroke","network":"National Rail","railway":"station","ref:crs":"PMB","operator":"Trafnidiaeth Cymru","wikidata":"Q2688589","wikipedia":"en:Pembroke railway station","operator:cy":"Trafnidiaeth Cymru","operator:en":"Transport for Wales","internet_access":"no","naptan:AtcoCode":"9100PEMBROK"}},
{"type":"Feature","geometry":{"type":"Point","coordinates":[-4.3057649,51.8533058]},"properties":{"name":"Carmarthen","name:cy":"Caerfyrddin","network":"National Rail","railway":"station","ref:crs":"CMN","nat_name":"Caerfyrddin","operator":"Trafnidiaeth Cymru","wikidata":"Q2234479","wikipedia":"en:Carmarthen railway station","operator:cy":"Trafnidiaeth Cymru","operator:en":"Transport for Wales","naptan:AtcoCode":"9100CMTHN","public_transport":"station"}},
{"type":"Feature","geometry":{"type":"Point","coordinates":[-4.2489624,51.6840593]},"properties":{"name":"Pembrey and Burry Port","name:cy":"Pen-bre a Phorth Tywyn","network":"National Rail","railway":"station","ref:crs":"PBY","wikidata":"Q516272","wikipedia":"en:Pembrey and Burry Port railway station","wheelchair":"yes","naptan:AtcoCode":"9100PMBRYBP"}},
{"type":"Feature","geometry":{"type":"Point","coordinates":[-4.3172731,51.7342731]},"properties":{"name":"Kidwelly","name:cy":"Cydweli","network":"National Rail","railway":"station","ref:crs":"KWL","wikidata":"Q2093451","wikipedia":"en:Kidwelly railway station","request_stop":"yes","naptan:AtcoCode":"9100KIDWELY"}},
{"type":"Feature","geometry":{"type":"Point","coordinates":[-4.1610727,51.6737797]},"properties":{"name":"Llanelli","network":"National Rail","railway":"station","ref:crs":"LLE","operator":"Trafnidiaeth Cymru","wikidata":"Q2480904","wikipedia":"en:Llanelli railway station","wheelchair":"limited","operator:cy":"Trafnidiaeth Cymru","operator:en":"Transport for Wales","naptan:AtcoCode":"9100LLNLLI","public_transport":"station","wheelchair:description":"Wheelchair accessibility is difficult but possible. Eastbound (from Carmarthen to Swansea) access is through two sets of double-doors. Westbound (from Swansea to Carmarthen) and all Heart of Wales trains, access is through an unsignposted side lane."}},
{"type":"Feature","geometry":{"type":"Point","coordinates":[-4.3695963,51.7682462]},"properties":{"name":"Ferryside","name:cy":"Glanyfferi","network":"National Rail","railway":"station","ref:crs":"FYS","operator":"Trafnidiaeth Cymru","wikidata":"Q3400321","wikipedia":"en:Ferryside railway station","operator:cy":"Trafnidiaeth Cymru","operator:en":"Transport for Wales","request_stop":"yes","naptan:AtcoCode":"9100FYSD"}},
{"type":"Feature","geometry":{"type":"Point","coordinates":[-3.7817162,51.5924394]},"properties":{"name":"Port Talbot Parkway","name:cy":"Parcffordd Port Talbot","naptan:AtcoCode":"9100PTALBOT","network":"Transport for Wales","operator":"Transport for Wales","public_transport":"station","railway":"station","ref:crs":"PTA","wikidata":"Q1945743","wikipedia":"en:Port Talbot Parkway railway station"}},
{"type":"Feature","geometry":{"type":"Point","coordinates":[-3.8199666,51.6381644]},"properties":{"name":"Briton Ferry","name:cy":"Llansawel","network":"National Rail","railway":"station","ref:crs":"BNF","wikidata":"Q3401816","wikipedia":"en:Briton Ferry railway station","addr:street":"Shelone Road","addr:postcode":"SA11 2NE","naptan:AtcoCode":"9100BRITFRY"}},
{"type":"Feature","geometry":{"type":"Point","coordinates":[-3.5752586,51.5071098]},"properties":{"name":"Bridgend","name:cy":"Pen-y-Bont ar Ogwr","name:ga":"Ceann an Droichid","name:gd":"Pen-y-bont","name:lt":"Bridžendas","network":"National Rail","railway":"station","ref:crs":"BGN","wikidata":"Q2221390","wikipedia":"en:Bridgend railway station","wheelchair":"yes","naptan:AtcoCode":"9100BRGEND","public_transport":"station"}},
{"type":"Feature","geometry":{"type":"Point","coordinates":[-3.6976297,51.5253321]},"properties":{"name":"Pyle","name:cy":"Y Pîl","network":"National Rail","railway":"station","ref:crs":"PYL","wikidata":"Q1869277","wikipedia":"en:Pyle railway station","naptan:AtcoCode":"9100PYLE"}},
{"type":"Feature","geometry":{"type":"Point","coordinates":[-3.4401497,51.5376497]},"properties":{"name":"Llanharan","source":"NPE","network":"National Rail","railway":"station","ref:crs":"LLR","wikidata":"Q2567576","wikipedia":"en:Llanharan railway station","naptan:AtcoCode":"9100LLHARAN"}},
{"type":"Feature","geometry":{"type":"Point","coordinates":[-3.3920737,51.5238308]},"properties":{"name":"Pontyclun","network":"National Rail","railway":"station","ref:crs":"PYC","wikidata":"Q2203127","wikipedia":"en:Pontyclun railway station","naptan:AtcoCode":"9100PONYCLN"}},
{"type":"Feature","geometry":{"type":"Point","coordinates":[-4.0815468,52.4138938]},"properties":{"addr:city":"Aberystwyth","addr:postcode":"SY23 1LF","addr:street":"Alexandra Road","name":"Aberystwyth","name:cy":"Aberystwyth","naptan:AtcoCode":"9100ABRYSTH","network":"National Rail","operator":"Transport for Wales","public_transport":"station","railway":"station","ref:crs":"AYW","toilets:wheelchair":"yes","uic_ref":"7000021","website":"https://tfwrail.wales/stations/aberystwyth","wheelchair":"yes","wikidata":"Q2220586","wikipedia":"en:Aberystwyth railway station"}},
{"type":"Feature","geometry":{"type":"Point","coordinates":[-4.0496662,52.4909831]},"properties":{"name":"Borth","name:cy":"Y Borth","network":"National Rail","railway":"station","ref:crs":"BRH","operator":"Trafnidiaeth Cymru","wikidata":"Q2032227","wikipedia":"en:Borth railway station","operator:cy":"Trafnidiaeth Cymru","operator:en":"Transport for Wales","naptan:AtcoCode":"9100BORTH"}},
{"type":"Feature","geometry":{"type":"Point","coordinates":[-3.9238451,52.564544]},"properties":{"name":"Cyffordd Dyfi/Dovey Junction","name:cy":"Cyffordd Dyfi","name:en":"Dovey Junction","naptan:AtcoCode":"9100DOVYJN","network":"National Rail","note":"station sign is bilingual cy-en","operator":"Trafnidiaeth Cymru","operator:cy":"Trafnidiaeth Cymru","operator:en":"Transport for Wales","public_transport":"station","railway":"station","railway:etcs":"2","ref:crs":"DVY","wikidata":"Q2161353","wikipedia":"en:Dovey Junction railway station"}},
{"type":"Feature","geometry":{"type":"Point","coordinates":[-3.8548131,52.5951801]},"properties":{"name":"Machynlleth","naptan:AtcoCode":"9100MCHYNLT","network":"National Rail","operator":"Trafnidiaeth Cymru","operator:cy":"Trafnidiaeth Cymru","operator:en":"Transport for Wales","railway":"station","railway:etcs":"2","ref:crs":"MCN","wikidata":"Q3215054","wikipedia":"en:Machynlleth railway station"}},
{"type":"Feature","geometry":{"type":"Point","coordinates":[-3.4327295,52.5162055]},"properties":{"name":"Caersws","name:cy":"Caersŵs","network":"National Rail","railway":"station","ref:crs":"CWS","operator":"Trafnidiaeth Cymru","wikidata":"Q3282207","wikipedia":"en:Caersws railway station","operator:cy":"Trafnidiaeth Cymru","operator:en":"Transport for Wales","railway:etcs":"2","naptan:AtcoCode":"9100CARSWS"}},
{"type":"Feature","geometry":{"type":"Point","coordinates":[-3.3114829,52.5122378]},"properties":{"name":"Newtown","name:cy":"Y Drenewydd","name:en":"Newtown","network":"National Rail","railway":"station","ref:crs":"NWT","operator":"Trafnidiaeth Cymru","wikidata":"Q1965570","wikipedia":"en:Newtown railway station (Wales)","operator:cy":"Trafnidiaeth Cymru","operator:en":"Transport for Wales","railway:etcs":"2","naptan:AtcoCode":"9100NWTP"}},
{"type":"Feature","geometry":{"type":"Point","coordinates":[-3.1400598,52.6573296]},"properties":{"name":"Welshpool","name:cy":"Y Trallwng","naptan:AtcoCode":"9100WELSHPL","network":"National Rail","operator":"Trafnidiaeth Cymru","operator:cy":"Trafnidiaeth Cymru","operator:en":"Transport for Wales","railway":"station","railway:etcs":"2","ref:crs":"WLP","wheelchair":"yes","wheelchair:description":"Big long ramp to the train station village hours","wikidata":"Q2379615","wikipedia":"en:Welshpool railway station"}},
{"type":"Feature","geometry":{"type":"Point","coordinates":[-4.0849642,52.9260183]},"properties":{"name":"Minffordd","train":"yes","source":"NPE","network":"National Rail","railway":"station","ref:crs":"MFF","old_name":"Minffordd Junction","operator":"Trafnidiaeth Cymru","wikidata":"Q2599266","wikipedia":"en:Minffordd railway station","operator:cy":"Trafnidiaeth Cymru","operator:en":"Transport for Wales","wikipedia:cy":"cy:Gorsaf reilffordd Minffordd","naptan:AtcoCode":"9100MINFORD","public_transport":"station"}},
{"type":"Feature","geometry":{"type":"Point","coordinates":[-4.0683114,52.9044115]},"properties":{"name":"Talsarnau","source":"NPE","network":"National Rail","railway":"station","ref:crs":"TAL","operator":"Trafnidiaeth Cymru","wikidata":"Q3400336","wikipedia":"en:Talsarnau railway station","operator:cy":"Trafnidiaeth Cymru","operator:en":"Transport for Wales","request_stop":"yes","naptan:AtcoCode":"9100TLSRNAU"}},
{"type":"Feature","geometry":{"type":"Point","coordinates":[-4.1111125,52.830309]},"properties":{"name":"Pensarn","source":"NPE","network":"National Rail","railway":"station","ref:crs":"PES","old_name":"Llanbedr & Pensarn","operator":"Trafnidiaeth Cymru","wikidata":"Q3388264","wikipedia":"en:Pensarn railway station","operator:cy":"Trafnidiaeth Cymru","operator:en":"Transport for Wales","request_stop":"yes","naptan:AtcoCode":"9100PSRN"}},
{"type":"Feature","geometry":{"type":"Point","coordinates":[-4.1046518,52.7883162]},"properties":{"name":"Dyffryn Ardudwy","source":"NPE","network":"National Rail","railway":"station","ref:crs":"DYF","operator":"Trafnidiaeth Cymru","wikidata":"Q2543511","wikipedia":"en:Dyffryn Ardudwy railway station","operator:cy":"Trafnidiaeth Cymru","operator:en":"Transport for Wales","request_stop":"yes","naptan:AtcoCode":"9100DYFRYNA"}},
{"type":"Feature","geometry":{"type":"Point","coordinates":[-4.0316284,52.7077447]},"properties":{"name":"Morfa Mawddach","naptan:AtcoCode":"9100MFAM","network":"National Rail","old_name":"Barmouth Junction","operator":"Trafnidiaeth Cymru","operator:cy":"Trafnidiaeth Cymru","operator:en":"Transport for Wales","public_transport":"station","railway":"station","ref:crs":"MFA","request_stop":"yes","source":"NPE","wikidata":"Q3404231","wikipedia":"en:Morfa Mawddach railway station"}},
{"type":"Feature","geometry":{"type":"Point","coordinates":[-4.0490344,52.6959804]},"properties":{"name":"Fairbourne","naptan:AtcoCode":"9100FRBN","network":"National Rail","operator":"Trafnidiaeth Cymru","operator:cy":"Trafnidiaeth Cymru","operator:en":"Transport for Wales","platform":"1","railway":"station","ref:crs":"FRB","source":"NPE","wikidata":"Q2323324","wikipedia":"en:Fairbourne railway station"}},
{"type":"Feature","geometry":{"type":"Point","coordinates":[-4.0877865,52.6668288]},"properties":{"name":"Llwyngwril","source":"NPE","network":"National Rail","railway":"station","ref:crs":"LLW","operator":"Trafnidiaeth Cymru","wikidata":"Q2621105","wikipedia":"en:Llwyngwril railway station","operator:cy":"Trafnidiaeth Cymru","operator:en":"Transport for Wales","request_stop":"yes","naptan:AtcoCode":"9100LYNGRIL"}},
{"type":"Feature","geometry":{"type":"Point","coordinates":[-4.0557902,52.5442803]},"properties":{"name":"Aberdyfi/Aberdovey","name:cy":"Aberdyfi","name:en":"Aberdovey","naptan:AtcoCode":"9100ABDVY","network":"National Rail","operator":"Trafnidiaeth Cymru","operator:cy":"Trafnidiaeth Cymru","operator:en":"Transport for Wales","railway":"station","ref:crs":"AVY","source":"survey","uic_ref":"7000020","wikidata":"Q129688","wikipedia":"en:Aberdovey railway station"}},
{"type":"Feature","geometry":{"type":"Point","coordinates":[-4.0352142,52.5456566]},"properties":{"name":"Penhelyg","name:cy":"Penhelyg","name:en":"Penhelig","naptan:AtcoCode":"9100PENHELG","network":"National Rail","operator":"Trafnidiaeth Cymru","operator:cy":"Trafnidiaeth Cymru","operator:en":"Transport for Wales","railway":"station","ref:crs":"PHG","request_stop":"yes","source":"NPE","wikidata":"Q2221860","wikipedia":"en:Penhelig railway station"}},
{"type":"Feature","geometry":{"type":"Point","coordinates":[-3.1704093,51.4819921]},"properties":{"name":"Cardiff Queen Street","name:cy":"Caerdydd Heol y Frenhines","naptan:AtcoCode":"9100CARDFQS","network":"National Rail","railway":"station","ref:crs":"CDQ","wikidata":"Q2937934","wikipedia":"en:Cardiff Queen Street railway station"}},
{"type":"Feature","geometry":{"type":"Point","coordinates":[-3.1789269,51.4888964]},"properties":{"name":"Cathays","email":"customer.relations@tfwrail.wales","source":"NPE","network":"National Rail","railway":"station","ref:crs":"CYS","website":"https://tfwrail.wales/stations/cathays","operator":"Transport for Wales","wikidata":"Q2300730","addr:city":"Cardiff","wikipedia":"en:Cathays railway station","addr:street":"Senghennydd Road","addr:postcode":"CF10 3AT","internet_access":"no","naptan:AtcoCode":"9100CATHAYS","public_transport":"station"}},
{"type":"Feature","geometry":{"type":"Point","coordinates":[-3.2287847,51.5084272]},"properties":{"name":"Llandaf","naptan:AtcoCode":"9100LLANDAF","network":"National Rail","public_transport":"station","railway":"station","ref:crs":"LLN","wikidata":"Q2253187","wikipedia":"en:Llandaf railway station"}},
{"type":"Feature","geometry":{"type":"Point","coordinates":[-3.8331941,53.2945847]},"properties":{"name":"Deganwy","naptan:AtcoCode":"9100DEGANWY","network":"National Rail","public_transport":"station","railway":"station","ref:crs":"DGY","request_stop":"yes","source":"NPE","wikidata":"Q2178092","wikipedia":"en:Deganwy railway station"}},
{"type":"Feature","geometry":{"type":"Point","coordinates":[-3.8273035,53.3205106]},"properties":{"name":"Llandudno","naptan:AtcoCode":"9100LUDO","network":"National Rail","public_transport":"station","railway":"station","ref:crs":"LLD","wikidata":"Q2415206","wikipedia":"en:Llandudno railway station"}},
{"type":"Feature","geometry":{"type":"Point","coordinates":[-4.2370677,52.9183691]},"properties":{"alt_name":"Cricieth","name":"Criccieth","naptan:AtcoCode":"9100CRICCTH","network":"National Rail","operator":"Trafnidiaeth Cymru","operator:cy":"Trafnidiaeth Cymru","operator:en":"Transport for Wales","railway":"station","ref:crs":"CCC","source":"NPE","wikidata":"Q2432481","wikipedia":"en:Criccieth railway station"}},
{"type":"Feature","geometry":{"type":"Point","coordinates":[-3.0372047,53.1168694]},"properties":{"name":"Hope (Flintshire)","name:cy":"Yr Hob","network":"National Rail","railway":"station","ref:crs":"HPE","wikidata":"Q2357931","wikipedia":"en:Hope railway station (Wales)","naptan:AtcoCode":"9100HOPC"}},
{"type":"Feature","geometry":{"type":"Point","coordinates":[-3.0332021,53.1080956]},"properties":{"name":"Caergwrle","network":"National Rail","railway":"station","ref:crs":"CGW","wikidata":"Q2684872","wikipedia":"en:Caergwrle railway station","naptan:AtcoCode":"9100CAERGWL"}},
{"type":"Feature","geometry":{"type":"Point","coordinates":[-3.0308337,53.0988355]},"properties":{"name":"Cefn-y-Bedd","network":"National Rail","railway":"station","ref:crs":"CYB","wikidata":"Q2623509","wikipedia":"en:Cefn-y-Bedd railway station","naptan:AtcoCode":"9100CEFNYBD"}},
{"type":"Feature","geometry":{"type":"Point","coordinates":[-3.017628,53.0727793]},"properties":{"name":"Gwersyllt","naptan:AtcoCode":"9100GWRSYLT","network":"National Rail","public_transport":"station","railway":"station","ref:crs":"GWE","wikidata":"Q2243062","wikipedia":"en:Gwersyllt railway station"}},
{"type":"Feature","geometry":{"type":"Point","coordinates":[-3.9235064,53.2705474]},"properties":{"name":"Penmaenmawr","source":"NPE","network":"National Rail","railway":"station","ref:crs":"PMW","wikidata":"Q2441170","wikipedia":"en:Penmaenmawr railway station","request_stop":"yes","naptan:AtcoCode":"9100PNMNMWR"}},
{"type":"Feature","geometry":{"type":"Point","coordinates":[-3.983123,53.2569753]},"properties":{"name":"Llanfairfechan","source":"NPE","network":"National Rail","railway":"station","ref:crs":"LLF","wikidata":"Q2840781","wikipedia":"en:Llanfairfechan railway station","request_stop":"yes","naptan:AtcoCode":"9100LANFRFC"}},
{"type":"Feature","geometry":{"type":"Point","coordinates":[-4.2093617,53.2208565]},"properties":{"description":"Llanfairpwll pronounced as Llan-vire-pooll Llanfairpwllgwyngyllgogerychwyrndrobwllllantysiliogogogoch pronounced as Llan-vire-pooll-guin-gill-go-ger-u-queern-drob-ooll-llandus-ilio-gogo-goch","loc_name":"Llanfairpwllgwyngyllgogerychwyrndrobwllllantysiliogogogoch","name":"Llanfairpwll","name:cy":"Llanfairpwllgwyngyllgogerychwyrndrobwllllantysiliogogogoch","name:ru":"Лланвайрпулл","naptan:AtcoCode":"9100LFPW","network":"National Rail","note":"Jocularly known as Llanfairpwllgwyngyllgogerychwyrndrobwllllantysiliogogogoch - this is not the official name by which it is referred by Network Rail at http://nationalrail.co.uk/stations/LPG.html","operator":"Trafnidiaeth Cymru","operator:cy":"Trafnidiaeth Cymru","operator:en":"Transport for Wales","platforms":"2","railway":"station","ref:crs":"LPG","request_stop":"yes","wikidata":"Q2528020","wikipedia":"en:Llanfairpwll railway station"}},
{"type":"Feature","geometry":{"type":"Point","coordinates":[-4.4163417,53.2041916]},"properties":{"name":"Bodorgan","naptan:AtcoCode":"9100BODORGN","network":"National Rail","public_transport":"station","railway":"station","ref:crs":"BOR","request_stop":"yes","wikidata":"Q3085974","wikipedia":"en:Bodorgan railway station"}},
{"type":"Feature","geometry":{"type":"Point","coordinates":[-4.4746947,53.222635]},"properties":{"name":"Ty Croes","name:cy":"Tŷ Croes","name:en":"Tŷ Croes","network":"National Rail","railway":"station","ref:crs":"TYC","wikidata":"Q3400226","wikipedia":"en:Tŷ Croes railway station","request_stop":"yes","naptan:AtcoCode":"9100TYCROES"}},
{"type":"Feature","geometry":{"type":"Point","coordinates":[-4.5058541,53.23468]},"properties":{"name":"Rhosneigr","network":"National Rail","railway":"station","ref:crs":"RHO","wikidata":"Q3400589","wikipedia":"en:Rhosneigr railway station","request_stop":"yes","naptan:AtcoCode":"9100RHOSNGR"}},
{"type":"Feature","geometry":{"type":"Point","coordinates":[-4.5634791,53.281569]},"properties":{"name":"Valley","name:cy":"Y Dyffryn","name:en":"Valley","network":"National Rail","railway":"station","ref:crs":"VAL","wikidata":"Q2682339","platforms":"2","wikipedia":"en:Valley railway station","start_date":"1849-10","request_stop":"yes","naptan:AtcoCode":"9100VALLEY"}},
{"type":"Feature","geometry":{"type":"Point","coordinates":[-3.0323456,53.2181055]},"properties":{"addr:city":"Flintshire","addr:postcode":"CH5 1PY","description":"This station is a request stop.\n\nTo alight from the train, please inform the conductor or the driver of your intentions in good time. \n\nTo board the train at this station, please give a clear hand signal to the driver as the train approaches.","internet_access":"no","name":"Hawarden Bridge","name:cy":"Pont Benarlâg","naptan:AtcoCode":"9100HAWDNBG","network":"National Rail","public_transport":"station","railway":"station","ref:crs":"HWB","request_stop":"yes","wheelchair":"yes","wikidata":"Q519727","wikipedia":"en:Hawarden Bridge railway station"}},
{"type":"Feature","geometry":{"type":"Point","coordinates":[-3.6322246,52.1046083]},"properties":{"name":"Llanwrtyd","naptan:AtcoCode":"9100LLWRTYW","network":"National Rail","operator":"Trafnidiaeth Cymru","operator:cy":"Trafnidiaeth Cymru","operator:en":"Transport for Wales","public_transport":"station","railway":"station","ref:crs":"LNW","uic_ref":"7001452","wheelchair":"limited","wikidata":"Q673005","wikipedia":"en:Llanwrtyd railway station"}},
{"type":"Feature","geometry":{"type":"Point","coordinates":[-4.0644936,52.9287529]},"properties":{"name":"Penrhyndeudraeth","source":"npe","network":"National Rail","railway":"station","ref:crs":"PRH","operator":"Trafnidiaeth Cymru","wikidata":"Q2646723","wikipedia":"en:Penrhyndeudraeth railway station","operator:cy":"Trafnidiaeth Cymru","operator:en":"Transport for Wales","naptan:AtcoCode":"9100PRHN"}},
{"type":"Feature","geometry":{"type":"Point","coordinates":[-4.1094254,52.861618]},"properties":{"name":"Harlech","source":"npe","network":"National Rail","railway":"station","ref:crs":"HRL","operator":"Trafnidiaeth Cymru","wikidata":"Q1855684","platforms":"2","wikipedia":"en:Harlech railway station","operator:cy":"Trafnidiaeth Cymru","operator:en":"Transport for Wales","naptan:AtcoCode":"9100HRLC"}},
{"type":"Feature","geometry":{"type":"Point","coordinates":[-4.9379888,51.6939333]},"properties":{"name":"Pembroke Dock","name:cy":"Doc Penfro","name:en":"Pembroke Dock","network":"National Rail","railway":"station","ref:crs":"PMD","operator":"Trafnidiaeth Cymru","wikidata":"Q2454049","wikipedia":"en:Pembroke Dock railway station","operator:cy":"Trafnidiaeth Cymru","operator:en":"Transport for Wales","naptan:AtcoCode":"9100PEMBRKD"}},
{"type":"Feature","geometry":{"type":"Point","coordinates":[-4.078782,52.8934923]},"properties":{"name":"Tygwyn","source":"NPE","network":"National Rail","railway":"station","ref:crs":"TYG","alt_name":"Tŷ-gwyn","operator":"Trafnidiaeth Cymru","wikidata":"Q2902299","wikipedia":"en:Tygwyn railway station","operator:cy":"Trafnidiaeth Cymru","operator:en":"Transport for Wales","request_stop":"yes","naptan:AtcoCode":"9100TYGWYN"}},
{"type":"Feature","geometry":{"type":"Point","coordinates":[-3.1802631,51.4400862]},"properties":{"name":"Dingle Road","source":"NPE","network":"National Rail","railway":"station","ref:crs":"DGL","wikidata":"Q2724332","wikipedia":"en:Dingle Road railway station","naptan:AtcoCode":"9100DGLROAD"}},
{"type":"Feature","geometry":{"type":"Point","coordinates":[-3.1893292,51.4457668]},"properties":{"name":"Cogan","network":"National Rail","railway":"station","ref:crs":"CGN","wikidata":"Q2470011","wikipedia":"en:Cogan railway station","naptan:AtcoCode":"9100COGAN"}},
{"type":"Feature","geometry":{"type":"Point","coordinates":[-3.2061686,51.4378507]},"properties":{"name":"Eastbrook","network":"National Rail","railway":"station","ref:crs":"EBK","wikidata":"Q3401825","wikipedia":"en:Eastbrook railway station","naptan:AtcoCode":"9100EASTBRK"}},
{"type":"Feature","geometry":{"type":"Point","coordinates":[-3.219062,51.4312453]},"properties":{"name":"Dinas Powys","source":"NPE","network":"National Rail","railway":"station","ref:crs":"DNS","wikidata":"Q2433033","wikipedia":"en:Dinas Powys railway station","naptan:AtcoCode":"9100DINASP"}},
{"type":"Feature","geometry":{"type":"Point","coordinates":[-3.1670566,51.4678194]},"properties":{"name":"Cardiff Bay","name:cy":"Bae Caerdydd","naptan:AtcoCode":"9100CARDFBR","network":"National Rail","old_name":"Cardiff Bute Road","operator":"Transport for Wales / Trafnidiaeth Cymru","operator:cy":"Trafnidiaeth Cymru","operator:en":"Transport for Wales","public_transport":"station","railway":"station","ref:crs":"CDB","train":"yes","wheelchair":"yes","wikidata":"Q2665080","wikipedia":"en:Cardiff Bay railway station"}},
{"type":"Feature","geometry":{"type":"Point","coordinates":[-3.2634336,51.5407887]},"properties":{"name":"Taffs Well","source":"NPE","name:cy":"Ffynnon Taf","network":"National Rail","railway":"station","ref:crs":"TAF","wikidata":"Q2090331","wikipedia":"en:Taffs Well railway station","naptan:AtcoCode":"9100TAFFSWL"}},
{"type":"Feature","geometry":{"type":"Point","coordinates":[-3.290288,51.5681376]},"properties":{"name":"Treforest Estate","note":"looks like the signs on the ground say Treforest Estate in English - which is the normal English spelling","name:cy":"Ystad Trefforest","network":"National Rail","railway":"station","ref:crs":"TRE","wikidata":"Q2531139","wikipedia":"en:Treforest Estate railway station","naptan:AtcoCode":"9100TRFRSTE"}},
{"type":"Feature","geometry":{"type":"Point","coordinates":[-3.3249855,51.5918935]},"properties":{"name":"Treforest","name:cy":"Trefforest","network":"National Rail","railway":"station","ref:crs":"TRF","wikidata":"Q3400263","wikipedia":"en:Treforest railway station","naptan:AtcoCode":"9100TREFRST"}},
{"type":"Feature","geometry":{"type":"Point","coordinates":[-3.249383,51.5167185]},"properties":{"name":"Radyr","name:cy":"Radur","network":"National Rail","railway":"station","ref:crs":"RDR","wikidata":"Q2433998","wikipedia":"en:Radyr railway station","naptan:AtcoCode":"9100RADYR"}},
{"type":"Feature","geometry":{"type":"Point","coordinates":[-3.6549668,51.609681]},"properties":{"name":"Maesteg","network":"National Rail","railway":"station","ref:crs":"MST","wikidata":"Q2711298","wikipedia":"en:Maesteg railway station","naptan:AtcoCode":"9100MAESTGW","public_transport":"station"}},
{"type":"Feature","geometry":{"type":"Point","coordinates":[-3.6426662,51.5966816]},"properties":{"name":"Garth (Bridgend)","network":"National Rail","railway":"station","ref:crs":"GMG","wikidata":"Q2677249","wikipedia":"en:Garth railway station (Bridgend)","naptan:AtcoCode":"9100GRTHMG","public_transport":"station"}},
{"type":"Feature","geometry":{"type":"Point","coordinates":[-3.8545939,52.376061]},"properties":{"name":"Devil's Bridge","railway":"station","source":"NPE","usage":"tourism","wikidata":"Q5267072","wikipedia":"en:Devil's Bridge railway station"}},
{"type":"Feature","geometry":{"type":"Point","coordinates":[-3.8695391,52.38375]},"properties":{"name":"Rhiwfron","usage":"tourism","railway":"station","wikidata":"Q7320730","wikipedia":"en:Rhiwfron railway station"}},
{"type":"Feature","geometry":{"type":"Point","coordinates":[-3.9307579,52.3906451]},"properties":{"name":"Aberffrwd","note":"Is this a request stop","usage":"tourism","source":"NPE","railway":"station","wikidata":"Q4667075","wikipedia":"en:Aberffrwd railway station"}},
{"type":"Feature","geometry":{"type":"Point","coordinates":[-3.9889428,52.3993657]},"properties":{"name":"Capel Bangor","note":"Is this a request stop?","usage":"tourism","railway":"station","wikidata":"Q5035225","wikipedia":"en:Capel Bangor railway station"}},
{"type":"Feature","geometry":{"type":"Point","coordinates":[-4.0618313,52.4059721]},"properties":{"name":"Llanbadarn","public_transport":"station","railway":"station","request_stop":"yes","source":"NPE;OS_OpenData_Streetview","usage":"tourism","wikidata":"Q6661084","wikipedia":"en:Llanbadarn railway station"}},
{"type":"Feature","geometry":{"type":"Point","coordinates":[-3.7947842,53.1391936]},"properties":{"name":"Llanrwst","naptan:AtcoCode":"9100LNRWST","network":"National Rail","operator":"Trafnidiaeth Cymru","operator:cy":"Trafnidiaeth Cymru","operator:en":"Transport for Wales","public_transport":"station","railway":"station","ref:crs":"LWR","wikidata":"Q2190436","wikipedia":"en:Llanrwst railway station"}},
{"type":"Feature","geometry":{"type":"Point","coordinates":[-3.8026402,53.1440071]},"properties":{"name":"Gogledd Llanrwst / North Llanrwst","name:cy":"Gogledd Llanrwst","name:en":"North Llanrwst","naptan:AtcoCode":"9100NLANRST","network":"National Rail","old_name":"Llanrwst","operator":"Trafnidiaeth Cymru","operator:cy":"Trafnidiaeth Cymru","operator:en":"Transport for Wales","public_transport":"station","railway":"station","ref:crs":"NLR","request_stop":"yes","source":"NPE","wikidata":"Q1931678","wikipedia":"en:North Llanrwst railway station"}},
{"type":"Feature","geometry":{"type":"Point","coordinates":[-3.8231367,53.1859355]},"properties":{"name":"Dolgarrog","naptan:AtcoCode":"9100DOLGARG","network":"National Rail","operator":"Trafnidiaeth Cymru","operator:cy":"Trafnidiaeth Cymru","operator:en":"Transport for Wales","public_transport":"station","railway":"station","ref:crs":"DLG","request_stop":"yes","source":"NPE","wikidata":"Q960654","wikipedia":"en:Dolgarrog railway station"}},
{"type":"Feature","geometry":{"type":"Point","coordinates":[-3.8183737,53.2284216]},"properties":{"name":"Tal-y-Cafn","naptan:AtcoCode":"9100TALYCFN","network":"National Rail","old_name":"Tal-y-Cafn and Eglwysbach","public_transport":"station","railway":"station","ref:crs":"TLC","request_stop":"yes","source":"NPE","wikidata":"Q2647911","wikipedia":"en:Tal-y-Cafn railway station"}},
{"type":"Feature","geometry":{"type":"Point","coordinates":[-4.1697854,53.0829482]},"properties":{"name":"Plas-y-nant","usage":"tourism","railway":"station","wikidata":"Q7201704","wikipedia":"en:Plas-y-Nant railway station","request_stop":"yes"}},
{"type":"Feature","geometry":{"type":"Point","coordinates":[-4.201675,53.1062641]},"properties":{"name":"Waunfawr","usage":"tourism","railway":"station","wikidata":"Q7975200","wikipedia":"en:Waunfawr railway station"}},
{"type":"Feature","geometry":{"type":"Point","coordinates":[-4.3749116,52.8983593]},"properties":{"name":"Abererch","source":"NPE","network":"National Rail","railway":"station","ref:crs":"ABH","old_name":"Abererch Halt","wikidata":"Q3400293","wikipedia":"en:Abererch railway station","request_stop":"yes","naptan:AtcoCode":"9100ABRE"}},
{"type":"Feature","geometry":{"type":"Point","coordinates":[-4.338351,52.9028961]},"properties":{"name":"Penychain","source":"NPE","network":"National Rail","railway":"station","ref:crs":"PNC","old_name":"Butlins Penychain","operator":"Trafnidiaeth Cymru","wikidata":"Q2213270","wikipedia":"en:Penychain railway station","operator:cy":"Trafnidiaeth Cymru","operator:en":"Transport for Wales","request_stop":"yes","naptan:AtcoCode":"9100PENYCHN"}},
{"type":"Feature","geometry":{"type":"Point","coordinates":[-4.0776514,52.742077]},"properties":{"name":"Llanaber","source":"NPE","network":"National Rail","railway":"station","ref:crs":"LLA","operator":"Trafnidiaeth Cymru","wikidata":"Q3404326","wikipedia":"en:Llanaber railway station","operator:cy":"Trafnidiaeth Cymru","operator:en":"Transport for Wales","request_stop":"yes","naptan:AtcoCode":"9100LNAB"}},
{"type":"Feature","geometry":{"type":"Point","coordinates":[-4.0971071,52.7728843]},"properties":{"name":"Talybont","source":"NPE","network":"National Rail","railway":"station","ref:crs":"TLB","alt_name":"Tal-y-Bont","operator":"Trafnidiaeth Cymru","wikidata":"Q3404306","wikipedia":"en:Talybont railway station","operator:cy":"Trafnidiaeth Cymru","operator:en":"Transport for Wales","request_stop":"yes","naptan:AtcoCode":"9100TALB"}},
{"type":"Feature","geometry":{"type":"Point","coordinates":[-4.109581,52.8203328]},"properties":{"name":"Llanbedr","source":"NPE","network":"National Rail","railway":"station","ref:crs":"LBR","old_name":"Talwrn Bach","operator":"Trafnidiaeth Cymru","wikidata":"Q1899979","wikipedia":"en:Llanbedr railway station","operator:cy":"Trafnidiaeth Cymru","operator:en":"Transport for Wales","request_stop":"yes","naptan:AtcoCode":"9100LBDR"}},
{"type":"Feature","geometry":{"type":"Point","coordinates":[-3.0548121,53.1427065]},"properties":{"name":"Penyffordd","naptan:AtcoCode":"9100PNYF","network":"National Rail","public_transport":"station","railway":"station","ref:crs":"PNF","source":"NPE","wikidata":"Q3401808","wikipedia":"en:Penyffordd railway station"}},
{"type":"Feature","geometry":{"type":"Point","coordinates":[-3.0159856,51.6570903]},"properties":{"name":"Cwmbran","name:cy":"Cwmbrân","network":"National Rail","railway":"station","ref:crs":"CWM","operator":"Transport For Wales","wikipedia":"en:Cwmbran railway station","naptan:AtcoCode":"9100CWMBRAN","public_transport":"station"}},
{"type":"Feature","geometry":{"type":"Point","coordinates":[-3.0134091,51.6973726]},"properties":{"name":"Pontypool and New Inn","name:cy":"Pont-y-pŵl a New Inn","naptan:AtcoCode":"9100PONTYPL","network":"National Rail","old_name":"Pontypool Road","operator":"Transport For Wales","public_transport":"station","railway":"station","ref:crs":"PPL","wikidata":"Q1835617","wikipedia":"en:Pontypool and New Inn railway station"}},
{"type":"Feature","geometry":{"type":"Point","coordinates":[-4.1434263,53.073789]},"properties":{"name":"Snowdon Ranger","usage":"tourism","railway":"station","wikidata":"Q7548591","wikipedia":"en:Snowdon Ranger railway station","request_stop":"yes"}},
{"type":"Feature","geometry":{"type":"Point","coordinates":[-3.1816153,51.5171263]},"properties":{"name":"Heath High Level","source":"NPE","network":"National Rail","railway":"station","ref:crs":"HHL","wikidata":"Q2735955","wikipedia":"en:Heath High Level railway station","naptan:AtcoCode":"9100HEATHHL"}},
{"type":"Feature","geometry":{"type":"Point","coordinates":[-3.2300563,51.5751911]},"properties":{"name":"Aber","source":"NPE","network":"National Rail","railway":"station","ref:crs":"ABE","wikidata":"Q2713263","wikipedia":"en:Aber railway station","naptan:AtcoCode":"9100ABER"}},
{"type":"Feature","geometry":{"type":"Point","coordinates":[-3.2330809,51.6041104]},"properties":{"name":"Llanbradach","source":"NPE","network":"National Rail","railway":"station","ref:crs":"LNB","operator":"Trafnidiaeth Cymru","wikidata":"Q2610280","wikipedia":"en:Llanbradach railway station","operator:cy":"Trafnidiaeth Cymru","operator:en":"Transport for Wales","naptan:AtcoCode":"9100LLBRDCH"}},
{"type":"Feature","geometry":{"type":"Point","coordinates":[-3.4073552,53.3362293]},"properties":{"name":"Prestatyn","source":"NPE","network":"National Rail","railway":"station","ref:crs":"PRT","wikidata":"Q2284492","wikipedia":"en:Prestatyn railway station","wheelchair":"yes","naptan:AtcoCode":"9100PSTA"}},
{"type":"Feature","geometry":{"type":"Point","coordinates":[-4.0372952,52.4044648]},"properties":{"name":"Glanyrafon","usage":"tourism","railway":"station","wikidata":"Q5566661","wikipedia":"en:Glanyrafon railway station","request_stop":"yes"}},
{"type":"Feature","geometry":{"type":"Point","coordinates":[-3.8094586,51.6142705]},"properties":{"name":"Baglan","network":"National Rail","railway":"station","ref:crs":"BAJ","operator":"Trafnidiaeth Cymru","wikidata":"Q3401891","wikipedia":"en:Baglan railway station","operator:cy":"Trafnidiaeth Cymru","operator:en":"Transport for Wales","naptan:AtcoCode":"9100BGLAN"}},
{"type":"Feature","geometry":{"type":"Point","coordinates":[-3.3806226,51.6100383]},"properties":{"name":"Trehafod","network":"National Rail","railway":"station","ref:crs":"TRH","operator":"Trafnidiaeth Cymru","wikidata":"Q2288046","wikipedia":"en:Trehafod railway station","operator:cy":"Trafnidiaeth Cymru","operator:en":"Transport for Wales","naptan:AtcoCode":"9100TREHAFD"}},
{"type":"Feature","geometry":{"type":"Point","coordinates":[-3.4076457000000004,51.6124585]},"properties":{"name":"Porth","name:cy":"Y Porth","network":"National Rail","railway":"station","ref:crs":"POR","operator":"Trafnidiaeth Cymru","wikidata":"Q2238105","wikipedia":"en:Porth railway station","operator:cy":"Trafnidiaeth Cymru","operator:en":"Transport for Wales","naptan:AtcoCode":"9100PORH"}},
{"type":"Feature","geometry":{"type":"Point","coordinates":[-3.4369372,51.617296]},"properties":{"name":"Dinas Rhondda","network":"National Rail","railway":"station","ref:crs":"DMG","operator":"Trafnidiaeth Cymru","wikidata":"Q1981112","wikipedia":"en:Dinas Rhondda railway station","operator:cy":"Trafnidiaeth Cymru","operator:en":"Transport for Wales","naptan:AtcoCode":"9100DINASR"}},
{"type":"Feature","geometry":{"type":"Point","coordinates":[-3.4490713,51.6198222]},"properties":{"name":"Tonypandy","network":"National Rail","railway":"station","ref:crs":"TNP","operator":"Trafnidiaeth Cymru","wikidata":"Q2889489","wikipedia":"en:Tonypandy railway station","operator:cy":"Trafnidiaeth Cymru","operator:en":"Transport for Wales","naptan:AtcoCode":"9100TNYPNDY"}},
{"type":"Feature","geometry":{"type":"Point","coordinates":[-3.4533291,51.6340794]},"properties":{"name":"Llwynypia","network":"National Rail","railway":"station","ref:crs":"LLY","operator":"Trafnidiaeth Cymru","wikidata":"Q3400217","wikipedia":"en:Llwynypia railway station","operator:cy":"Trafnidiaeth Cymru","operator:en":"Transport for Wales","naptan:AtcoCode":"9100LLWYNYP"}},
{"type":"Feature","geometry":{"type":"Point","coordinates":[-3.4665885,51.6434881]},"properties":{"addr:city":"Ystrad","addr:street":"Cross Street","name":"Ystrad Rhondda","naptan:AtcoCode":"9100YTRHOND","network":"National Rail","operator":"Trafnidiaeth Cymru","operator:cy":"Trafnidiaeth Cymru","operator:en":"Transport for Wales","public_transport":"station","railway":"station","ref:crs":"YSR","wikidata":"Q2797749","wikipedia":"en:Ystrad Rhondda railway station"}},
{"type":"Feature","geometry":{"type":"Point","coordinates":[-3.4861594,51.647702]},"properties":{"name":"Ton Pentre","network":"National Rail","railway":"station","ref:crs":"TPN","operator":"Trafnidiaeth Cymru","wikidata":"Q2670470","wikipedia":"en:Ton Pentre railway station","operator:cy":"Trafnidiaeth Cymru","operator:en":"Transport for Wales","naptan:AtcoCode":"9100TONPNTR"}},
{"type":"Feature","geometry":{"type":"Point","coordinates":[-3.5060614,51.6574072]},"properties":{"name":"Treorchy","name:cy":"Treorci","network":"National Rail","railway":"station","ref:crs":"TRY","operator":"Trafnidiaeth Cymru","wikidata":"Q3400283","wikipedia":"en:Treorchy railway station","operator:cy":"Trafnidiaeth Cymru","operator:en":"Transport for Wales","naptan:AtcoCode":"9100TREORCY"}},
{"type":"Feature","geometry":{"type":"Point","coordinates":[-3.5361987,51.6721007]},"properties":{"name":"Treherbert","network":"National Rail","railway":"station","ref:crs":"TRB","wikidata":"Q2161926","wikipedia":"en:Treherbert railway station","naptan:AtcoCode":"9100TREHRBT"}},
{"type":"Feature","geometry":{"type":"Point","coordinates":[-3.3623399,51.7248294]},"properties":{"name":"Pentre-bach","train":"yes","name:cy":"Pentrebach","network":"National Rail","railway":"station","ref:crs":"PTB","operator":"Trafnidiaeth Cymru","wikidata":"Q2499847","wikipedia":"en:Pentre-bach railway station","operator:cy":"Trafnidiaeth Cymru","operator:en":"Transport for Wales","naptan:AtcoCode":"9100PNTRBCH","public_transport":"station"}},
{"type":"Feature","geometry":{"type":"Point","coordinates":[-3.3463145,51.7119899]},"properties":{"name":"Troed-y-rhiw","name:cy":"Troed-y-rhiw","network":"National Rail","railway":"station","ref:crs":"TRD","operator":"Trafnidiaeth Cymru","wikidata":"Q2964594","wikipedia":"en:Troed-y-rhiw railway station","operator:cy":"Trafnidiaeth Cymru","operator:en":"Transport for Wales","naptan:AtcoCode":"9100TRDYRHW"}},
{"type":"Feature","geometry":{"type":"Point","coordinates":[-3.3371277,51.6869024]},"properties":{"name":"Merthyr Vale","name:cy":"Ynysowen","network":"National Rail","railway":"station","ref:crs":"MEV","operator":"Trafnidiaeth Cymru","wikidata":"Q3400233","wikipedia":"en:Merthyr Vale railway station","operator:cy":"Trafnidiaeth Cymru","operator:en":"Transport for Wales","naptan:AtcoCode":"9100MERTHRV"}},
{"type":"Feature","geometry":{"type":"Point","coordinates":[-3.3228217,51.6603353]},"properties":{"name":"Quakers Yard","name:cy":"Mynwent-y-Crynwyr","network":"National Rail","railway":"station","ref:crs":"QYD","operator":"Trafnidiaeth Cymru","wikidata":"Q2412055","wikipedia":"en:Quakers Yard railway station","operator:cy":"Trafnidiaeth Cymru","operator:en":"Transport for Wales","naptan:AtcoCode":"9100QUAKRSY"}},
{"type":"Feature","geometry":{"type":"Point","coordinates":[-3.3296312,51.6430833]},"properties":{"name":"Abercynon","network":"National Rail","railway":"station","ref:crs":"ACY","old_name":"Abercynon South","operator":"Trafnidiaeth Cymru","wikidata":"Q2628183","wikipedia":"en:Abercynon railway station","wheelchair":"yes","old_name:cy":"De Abercynon","operator:cy":"Trafnidiaeth Cymru","operator:en":"Transport for Wales","naptan:AtcoCode":"9100ABRCYNS","public_transport":"station"}},
{"type":"Feature","geometry":{"type":"Point","coordinates":[-3.3597875,51.6699794]},"properties":{"name":"Penrhiwceiber","network":"National Rail","railway":"station","ref:crs":"PER","operator":"Trafnidiaeth Cymru","wikidata":"Q2207619","wikipedia":"en:Penrhiwceiber railway station","start_date":"1988","operator:cy":"Trafnidiaeth Cymru","operator:en":"Transport for Wales","naptan:AtcoCode":"9100PNRHCBR"}},
{"type":"Feature","geometry":{"type":"Point","coordinates":[-3.3958825,51.6866141]},"properties":{"name":"Fernhill","network":"National Rail","railway":"station","ref:crs":"FER","operator":"Trafnidiaeth Cymru","wikidata":"Q2705311","wikipedia":"en:Fernhill railway station","operator:cy":"Trafnidiaeth Cymru","operator:en":"Transport for Wales","naptan:AtcoCode":"9100FERNHIL"}},
{"type":"Feature","geometry":{"type":"Point","coordinates":[-3.4147941,51.701481]},"properties":{"name":"Cwmbach","network":"National Rail","railway":"station","ref:crs":"CMH","operator":"Trafnidiaeth Cymru","wikidata":"Q2424192","wikipedia":"en:Cwmbach railway station","wheelchair":"limited","operator:cy":"Trafnidiaeth Cymru","operator:en":"Transport for Wales","naptan:AtcoCode":"9100CMBH","toilets:wheelchair":"no"}},
{"type":"Feature","geometry":{"type":"Point","coordinates":[-3.4418333,51.7145226]},"properties":{"name":"Aberdare","name:cy":"Aberdâr","network":"National Rail","railway":"station","ref:crs":"ABA","operator":"Trafnidiaeth Cymru","wikidata":"Q3023701","wikipedia":"en:Aberdare railway station","operator:cy":"Trafnidiaeth Cymru","operator:en":"Transport for Wales","naptan:AtcoCode":"9100ABDARE"}},
{"type":"Feature","geometry":{"type":"Point","coordinates":[-3.0662702,51.5954576]},"properties":{"name":"Rogerstone","name:cy":"Tŷ-du","naptan:AtcoCode":"9100ROGRSTN","network":"National Rail","postal_code":"NP10 9LG","public_transport":"stop_position","railway":"station","ref:crs":"ROR","train":"yes","wikidata":"Q7359370","wikipedia":"en:Rogerstone railway station"}},
{"type":"Feature","geometry":{"type":"Point","coordinates":[-3.2187561,51.5715208]},"properties":{"name":"Caerphilly","source":"NPE","network":"National Rail","railway":"station","ref:crs":"CPH","operator":"Trafnidiaeth Cymru","wikidata":"Q2226626","wikipedia":"en:Caerphilly railway station","operator:cy":"Trafnidiaeth Cymru","operator:en":"Transport for Wales","naptan:AtcoCode":"9100CRPHLY"}},
{"type":"Feature","geometry":{"type":"Point","coordinates":[-3.1960549,51.7565058]},"properties":{"name":"Ebbw Vale Parkway","name:cy":"Parcffordd Glyn Ebwy","naptan:AtcoCode":"9100EBWVPWY","network":"National Rail","operator":"Trafnidiaeth Cymru","operator:cy":"Trafnidiaeth Cymru","operator:en":"Transport for Wales","public_transport":"stop_position","railway":"station","ref:crs":"EBV","train":"yes","wikidata":"Q5331566","wikipedia":"en:Ebbw Vale Parkway railway station"}},
{"type":"Feature","geometry":{"type":"Point","coordinates":[-3.134957,51.7001162]},"properties":{"name":"Llanhilleth","name:cy":"Llanhiledd","name:en":"Llanhilleth","naptan:AtcoCode":"9100LLHLETH","network":"National Rail","postal_code":"NP13 2HT","public_transport":"stop_position","railway":"station","ref:crs":"LTH","source":"NPE","train":"yes","wikidata":"Q2433782","wikipedia":"en:Llanhilleth railway station"}},
{"type":"Feature","geometry":{"type":"Point","coordinates":[-3.1432446,51.6652081]},"properties":{"name":"Newbridge","name:cy":"Trecelyn","naptan:AtcoCode":"9100NBRWGE","network":"National Rail","postal_code":"NP11 5FH","public_transport":"stop_position","railway":"station","ref:crs":"NBE","source":"NPE","train":"yes","wheelchair":"yes","wikidata":"Q11192966","wikipedia":"en:Newbridge railway station (Wales)"}},
{"type":"Feature","geometry":{"type":"Point","coordinates":[-3.125862,51.620739]},"properties":{"name":"Crosskeys","naptan:AtcoCode":"9100CRSKEYS","network":"National Rail","postal_code":"NP11 7BU","public_transport":"stop_position","railway":"station","ref:crs":"CKY","source":"NPE","train":"yes","wikidata":"Q5188704","wikipedia":"en:Crosskeys railway station"}},
{"type":"Feature","geometry":{"type":"Point","coordinates":[-3.5214864,51.6649521]},"properties":{"name":"Ynyswen","network":"National Rail","railway":"station","ref:crs":"YNW","operator":"Trafnidiaeth Cymru","wikidata":"Q1915303","wikipedia":"en:Ynyswen railway station","operator:cy":"Trafnidiaeth Cymru","operator:en":"Transport for Wales","naptan:AtcoCode":"9100YNYSWEN"}},
{"type":"Feature","geometry":{"type":"Point","coordinates":[-3.2418174,51.6405449]},"properties":{"addr:city":"Ystrad Mynach","addr:street":"Brynmynach Avenue","name":"Ystrad Mynach","naptan:AtcoCode":"9100YSTRADM","network":"National Rail","operator":"Trafnidiaeth Cymru","operator:cy":"Trafnidiaeth Cymru","operator:en":"Transport for Wales","postal_code":"CF82 7BP","public_transport":"station","railway":"station","ref:crs":"YSM","source":"NPE","wikidata":"Q302331","wikipedia":"en:Ystrad Mynach railway station"}},
{"type":"Feature","geometry":{"type":"Point","coordinates":[-3.2256551,51.6469338]},"properties":{"name":"Hengoed","source":"visual_estimate","network":"National Rail","railway":"station","ref:crs":"HNG","old_name":"Hengoed Low Level","operator":"Trafnidiaeth Cymru","wikidata":"Q2441704","wikipedia":"en:Hengoed railway station","operator:cy":"Trafnidiaeth Cymru","operator:en":"Transport for Wales","postal_code":"CF82 7LT","naptan:AtcoCode":"9100HENGOED"}},
{"type":"Feature","geometry":{"type":"Point","coordinates":[-3.2301201,51.67009]},"properties":{"name":"Pengam","source":"NPE","network":"National Rail","railway":"station","ref:crs":"PGM","operator":"Trafnidiaeth Cymru","wikidata":"Q3401833","wikipedia":"en:Pengam railway station","operator:cy":"Trafnidiaeth Cymru","operator:en":"Transport for Wales","naptan:AtcoCode":"9100PENGAM","public_transport":"station"}},
{"type":"Feature","geometry":{"type":"Point","coordinates":[-3.2274233,51.6841393]},"properties":{"name":"Gilfach Fargoed","source":"NPE","network":"National Rail","railway":"station","ref:crs":"GFF","operator":"Trafnidiaeth Cymru","wikidata":"Q2191702","wikipedia":"en:Gilfach Fargoed railway station","operator:cy":"Trafnidiaeth Cymru","operator:en":"Transport for Wales","naptan:AtcoCode":"9100GLFCHFR"}},
{"type":"Feature","geometry":{"type":"Point","coordinates":[-3.2300431,51.6929046]},"properties":{"name":"Bargoed","source":"NPE","name:cy":"Bargoed","network":"National Rail","railway":"station","ref:crs":"BGD","operator":"Trafnidiaeth Cymru","wikidata":"Q1808106","wikipedia":"en:Bargoed railway station","operator:cy":"Trafnidiaeth Cymru","operator:en":"Transport for Wales","naptan:AtcoCode":"9100BARGOED"}},
{"type":"Feature","geometry":{"type":"Point","coordinates":[-3.2282991,51.7102669]},"properties":{"name":"Brithdir","train":"yes","source":"NPE","network":"National Rail","railway":"station","ref:crs":"BHD","operator":"Trafnidiaeth Cymru","wikidata":"Q2185916","wikipedia":"en:Brithdir railway station","operator:cy":"Trafnidiaeth Cymru","operator:en":"Transport for Wales","postal_code":"NP24 6XY","naptan:AtcoCode":"9100BRITHDR","public_transport":"station"}},
{"type":"Feature","geometry":{"type":"Point","coordinates":[-3.245999,51.7210308]},"properties":{"name":"Tir-Phil","train":"yes","source":"NPE","network":"National Rail","railway":"station","ref:crs":"TIR","operator":"Trafnidiaeth Cymru","wikidata":"Q2070775","wikipedia":"en:Tir-Phil railway station","operator:cy":"Trafnidiaeth Cymru","operator:en":"Transport for Wales","naptan:AtcoCode":"9100TIRPHIL","public_transport":"station"}},
{"type":"Feature","geometry":{"type":"Point","coordinates":[-3.2793246,51.7465332]},"properties":{"name":"Pontlottyn","train":"yes","source":"NPE","network":"National Rail","railway":"station","ref:crs":"PLT","operator":"Trafnidiaeth Cymru","wikidata":"Q1865655","wikipedia":"en:Pontlottyn railway station","operator:cy":"Trafnidiaeth Cymru","operator:en":"Transport for Wales","naptan:AtcoCode":"9100PNTLTYN","public_transport":"station"}},
{"type":"Feature","geometry":{"type":"Point","coordinates":[-3.2895642,51.7588286]},"properties":{"name":"Rhymney","train":"yes","source":"NPE","network":"National Rail","railway":"station","ref:crs":"RHY","operator":"Trafnidiaeth Cymru","wikidata":"Q2232300","wikipedia":"en:Rhymney railway station","operator:cy":"Trafnidiaeth Cymru","operator:en":"Transport for Wales","naptan:AtcoCode":"9100RHYMNEY","public_transport":"station"}},
{"type":"Feature","geometry":{"type":"Point","coordinates":[-3.5826531,53.2945866]},"properties":{"name":"Abergele and Pensarn","name:cy":"Abergele a Phensarn","name:en":"Abergele and Pensarn","naptan:AtcoCode":"9100ABGLELE","network":"National Rail","public_transport":"station","railway":"station","ref:crs":"AGL","source":"NPE","wikidata":"Q2835419","wikipedia":"en:Abergele & Pensarn railway station"}},
{"type":"Feature","geometry":{"type":"Point","coordinates":[-3.8306652,53.280096]},"properties":{"name":"Conwy","source":"NPE","network":"National Rail","railway":"station","ref:crs":"CNW","wikidata":"Q1991921","wikipedia":"en:Conwy railway station","request_stop":"yes","naptan:AtcoCode":"9100CONWY"}},
{"type":"Feature","geometry":{"type":"Point","coordinates":[-3.0551552,53.1625354]},"properties":{"name":"Buckley","source":"NPE","name:cy":"Bwcle","network":"National Rail","railway":"station","ref:crs":"BCK","old_name":"Buckley Junction","wikidata":"Q3401896","wikipedia":"en:Buckley railway station","naptan:AtcoCode":"9100BCKY"}},
{"type":"Feature","geometry":{"type":"Point","coordinates":[-3.7976561,53.2686168]},"properties":{"name":"Glan Conwy","source":"NPE","network":"National Rail","railway":"station","ref:crs":"GCW","wikidata":"Q1946445","wikipedia":"en:Glan Conwy railway station","request_stop":"yes","naptan:AtcoCode":"9100GLNCNWY"}},
{"type":"Feature","geometry":{"type":"Point","coordinates":[-3.1819465,51.533284]},"properties":{"name":"Llanishen","network":"National Rail","railway":"station","ref:crs":"LLS","wikidata":"Q2660714","wikipedia":"en:Llanishen railway station","naptan:AtcoCode":"9100LLISHEN"}},
{"type":"Feature","geometry":{"type":"Point","coordinates":[-3.2842532,51.3972095]},"properties":{"name":"Barry","name:cy":"Y Barri","name:en":"Barry","network":"National Rail","railway":"station","ref:crs":"BRY","wikidata":"Q4864935","wikipedia":"en:Barry railway station","wheelchair":"no","naptan:AtcoCode":"9100BARRY"}},
{"type":"Feature","geometry":{"type":"Point","coordinates":[-3.2486814,51.4122147]},"properties":{"name":"Cadoxton","name:cy":"Tregatwg","network":"National Rail","railway":"station","ref:crs":"CAD","wikidata":"Q1917677","wikipedia":"en:Cadoxton railway station","wheelchair":"limited","naptan:AtcoCode":"9100CADOXTN"}},
{"type":"Feature","geometry":{"type":"Point","coordinates":[-3.4813442,51.4096105]},"properties":{"name":"Llantwit Major","name:cy":"Llanilltud Fawr","network":"National Rail","railway":"station","ref:crs":"LWM","wikidata":"Q2425684","wikipedia":"en:Llantwit Major railway station","naptan:AtcoCode":"9100LLNWTMR"}},
{"type":"Feature","geometry":{"type":"Point","coordinates":[-3.233817,51.4939552]},"properties":{"name":"Fairwater","name:cy":"Y Tyllgoed","naptan:AtcoCode":"9100FRWATER","network":"National Rail","public_transport":"station","railway":"station","ref:crs":"FRW","wikidata":"Q2482278","wikipedia":"en:Fairwater railway station"}},
{"type":"Feature","geometry":{"type":"Point","coordinates":[-3.2017044,51.4766442]},"properties":{"name":"Ninian Park","name:cy":"Parc Ninian","naptan:AtcoCode":"9100NINIANP","network":"National Rail","operator":"Trafnidiaeth Cymru","operator:cy":"Trafnidiaeth Cymru","operator:en":"Transport for Wales","public_transport":"station","railway":"station","ref:crs":"NNP","wikidata":"Q2615178","wikipedia":"en:Ninian Park railway station"}},
{"type":"Feature","geometry":{"type":"Point","coordinates":[-3.273782,51.3924286]},"properties":{"name":"Barry Island","source":"NPE","name:cy":"Ynys y Barri","network":"National Rail","railway":"station","ref:crs":"BYI","wikidata":"Q3401801","wikipedia":"en:Barry Island railway station","naptan:AtcoCode":"9100BARRYIS"}},
{"type":"Feature","geometry":{"type":"Point","coordinates":[-3.2800805,51.3987599]},"properties":{"name":"Waterfront","railway":"station","station":"preserved","usage":"tourism"}},
{"type":"Feature","geometry":{"type":"Point","coordinates":[-3.2708923,51.3932481]},"properties":{"name":"Plymouth Road","railway":"station","station":"preserved","usage":"tourism"}},
{"type":"Feature","geometry":{"type":"Point","coordinates":[-4.1234912,52.6136247]},"properties":{"name":"Tonfanau","source":"NPE","network":"National Rail","railway":"station","ref:crs":"TNF","operator":"Trafnidiaeth Cymru","wikidata":"Q3071598","wikipedia":"en:Tonfanau railway station","operator:cy":"Trafnidiaeth Cymru","operator:en":"Transport for Wales","request_stop":"yes","naptan:AtcoCode":"9100TONFNAU"}},
{"type":"Feature","geometry":{"type":"Point","coordinates":[-3.2317251,51.5204245]},"properties":{"name":"Coryton","source":"NPE","network":"National Rail","railway":"station","ref:crs":"COY","wikidata":"Q2759251","wikipedia":"en:Coryton railway station","naptan:AtcoCode":"9100CORYTON"}},
{"type":"Feature","geometry":{"type":"Point","coordinates":[-3.2225218,51.5207949]},"properties":{"name":"Whitchurch","name:cy":"Yr Eglwys Newydd","naptan:AtcoCode":"9100WHCH","network":"National Rail","public_transport":"station","railway":"station","ref:crs":"WHT","source":"NPE","wikidata":"Q2534431","wikipedia":"en:Whitchurch railway station (Wales)"}},
{"type":"Feature","geometry":{"type":"Point","coordinates":[-3.2139401,51.5210847]},"properties":{"name":"Rhiwbina","source":"NPE","network":"National Rail","railway":"station","ref:crs":"RHI","wikidata":"Q2715473","wikipedia":"en:Rhiwbina railway station","naptan:AtcoCode":"9100RHIWBNA"}},
{"type":"Feature","geometry":{"type":"Point","coordinates":[-3.2037955,51.5214717]},"properties":{"name":"Birchgrove","source":"NPE","network":"National Rail","railway":"station","ref:crs":"BCG","wikidata":"Q2131603","wikipedia":"en:Birchgrove railway station","naptan:AtcoCode":"9100BCHGRV"}},
{"type":"Feature","geometry":{"type":"Point","coordinates":[-3.1822797,51.5158209]},"properties":{"name":"Heath Low Level","source":"NPE","network":"National Rail","railway":"station","ref:crs":"HLL","wikidata":"Q2965292","wikipedia":"en:Heath Low Level railway station","naptan:AtcoCode":"9100HEATHLL"}},
{"type":"Feature","geometry":{"type":"Point","coordinates":[-3.2338405,51.5005965]},"properties":{"name":"Danescourt","naptan:AtcoCode":"9100DANESCT","network":"National Rail","public_transport":"station","railway":"station","ref:crs":"DCT","source":"Yahoo imargery","wikidata":"Q2691871","wikipedia":"en:Danescourt railway station"}},
{"type":"Feature","geometry":{"type":"Point","coordinates":[-3.1856282,51.5442889]},"properties":{"name":"Lisvane and Thornhill","source":"Yahoo imagery","network":"National Rail","railway":"station","ref:crs":"LVT","wikidata":"Q2024089","wikipedia":"en:Lisvane and Thornhill railway station","naptan:AtcoCode":"9100LTHH"}},
{"type":"Feature","geometry":{"type":"Point","coordinates":[-3.9214861,53.0444116]},"properties":{"name":"Roman Bridge","name:cy":"Pont Rufeinig","name:en":"Roman Bridge","naptan:AtcoCode":"9100ROMANBG","network":"National Rail","operator":"Trafnidiaeth Cymru","operator:cy":"Trafnidiaeth Cymru","operator:en":"Transport for Wales","public_transport":"station","railway":"station","ref:crs":"RMB","request_stop":"yes","wikidata":"Q2608823","wikipedia":"en:Roman Bridge railway station"}},
{"type":"Feature","geometry":{"type":"Point","coordinates":[-3.8846719,53.0515194]},"properties":{"name":"Dolwyddelan","naptan:AtcoCode":"9100DLWYDLN","network":"National Rail","operator":"Trafnidiaeth Cymru","operator:cy":"Trafnidiaeth Cymru","operator:en":"Transport for Wales","railway":"station","ref:crs":"DWD","request_stop":"yes","wikidata":"Q2490766","wikipedia":"en:Dolwyddelan railway station"}},
{"type":"Feature","geometry":{"type":"Point","coordinates":[-3.8628141,53.0651056]},"properties":{"name":"Pont-y-Pant","naptan:AtcoCode":"9100PNYPANT","network":"National Rail","operator":"Trafnidiaeth Cymru","operator:cy":"Trafnidiaeth Cymru","operator:en":"Transport for Wales","railway":"station","ref:crs":"PYP","request_stop":"yes","wikidata":"Q2244914","wikipedia":"en:Pont-y-Pant railway station"}},
{"type":"Feature","geometry":{"type":"Point","coordinates":[-3.1746583,51.4358569]},"properties":{"name":"Penarth","network":"National Rail","railway":"station","ref:crs":"PEN","wikidata":"Q3298476","wikipedia":"en:Penarth railway station","wheelchair":"yes","naptan:AtcoCode":"9100PENARTH"}},
{"type":"Feature","geometry":{"type":"Point","coordinates":[-4.0030832,52.948155]},"properties":{"name":"Plas Halt","usage":"tourism","source":"OS_OpenData_StreetView","railway":"station","operator":"Ffestiniog Railway","wikidata":"Q7201712","wikipedia":"en:Plas Halt railway station","request_stop":"yes"}},
{"type":"Feature","geometry":{"type":"Point","coordinates":[-3.9764915,52.9578459]},"properties":{"name":"Campbell's Platform","usage":"tourism","access":"private","source":"OS_OpenData_StreetView","railway":"station","operator":"Ffestiniog Railway","wikidata":"Q5027964","wikipedia":"en:Campbell's Platform railway station"}},
{"type":"Feature","geometry":{"type":"Point","coordinates":[-3.5895817,51.5386312]},"properties":{"name":"Sarn","network":"National Rail","railway":"station","ref:crs":"SRR","wikidata":"Q2387989","wikipedia":"en:Sarn railway station","naptan:AtcoCode":"9100SARN","public_transport":"station"}},
{"type":"Feature","geometry":{"type":"Point","coordinates":[-3.6482022,51.6052767]},"properties":{"name":"Maesteg (Ewenny Road)","name:cy":"Maesteg Heol Ewenni","network":"National Rail","railway":"station","ref:crs":"MEW","wikidata":"Q2481634","wikipedia":"en:Maesteg (Ewenny Road) railway station","naptan:AtcoCode":"9100MAESTER","public_transport":"station"}},
{"type":"Feature","geometry":{"type":"Point","coordinates":[-3.9385096,52.9947059]},"properties":{"name":"Blaenau Ffestiniog","network":"National Rail","railway":"station","ref:crs":"BFF","operator":"Trafnidiaeth Cymru","platforms":"1","wikipedia":"en:Blaenau Ffestiniog railway station","addr:street":"Church Street","operator:cy":"Trafnidiaeth Cymru","operator:en":"Transport for Wales","addr:postcode":"LL41 3HE","naptan:AtcoCode":"9100BLAENAU"}},
{"type":"Feature","geometry":{"type":"Point","coordinates":[-3.091599,51.605635]},"properties":{"name":"Risca and Pontymister","name:cy":"Rhisga a Phont-y-meistr","naptan:AtcoCode":"9100RISCA","network":"National Rail","postal_code":"NP11 6BB","public_transport":"stop_position","railway":"station","ref:crs":"RCA","train":"yes","wikidata":"Q7335839","wikipedia":"en:Risca and Pontymister railway station"}},
{"type":"Feature","geometry":{"type":"Point","coordinates":[-3.1971927,51.5217043]},"properties":{"name":"Ty Glas","naptan:AtcoCode":"9100TYGLAS","network":"National Rail","platforms":"1","railway":"station","ref:crs":"TGS","wikidata":"Q2742543","wikipedia":"en:Ty Glas railway station"}},
{"type":"Feature","geometry":{"type":"Point","coordinates":[-4.131979,52.9309118]},"properties":{"name":"Porthmadog (WHHR)","public_transport":"station","railway":"station","train":"yes","usage":"tourism","wikidata":"Q7231784","wikipedia":"en:Porthmadog railway station (Welsh Highland Heritage Railway)"}},
{"type":"Feature","geometry":{"type":"Point","coordinates":[-4.1239372,52.9341596]},"properties":{"name":"Pen-y-Mount","public_transport":"station","railway":"station","train":"yes","usage":"tourism","wikidata":"Q7162066"}},
{"type":"Feature","geometry":{"type":"Point","coordinates":[-4.0888228,52.583617]},"properties":{"name":"Tywyn Wharf","usage":"tourism","source":"NPE","railway":"station","wikidata":"Q7861911","wikipedia":"en:Tywyn Wharf railway station"}},
{"type":"Feature","geometry":{"type":"Point","coordinates":[-4.081217,52.5872348]},"properties":{"name":"Pendre","usage":"tourism","source":"NPE","railway":"station","wikidata":"Q7162511","wikipedia":"en:Pendre railway station","request_stop":"yes"}},
{"type":"Feature","geometry":{"type":"Point","coordinates":[-4.0461697,52.5998215]},"properties":{"name":"Rhydyronen","usage":"tourism","source":"NPE","railway":"station","wikidata":"Q7321619","wikipedia":"en:Rhydyronen railway station","request_stop":"yes"}},
{"type":"Feature","geometry":{"type":"Point","coordinates":[-4.0271075,52.6083911]},"properties":{"name":"Brynglas","railway":"station","source":"NPE","usage":"tourism","wikidata":"Q4980956","wikipedia":"en:Brynglas railway station"}},
{"type":"Feature","geometry":{"type":"Point","coordinates":[-3.9659472,52.6386287]},"properties":{"name":"Abergynolwyn","usage":"tourism","source":"NPE;Wikipedia article on Tallylyn","railway":"station","wikidata":"Q4667110","wikipedia":"en:Abergynolwyn railway station"}},
{"type":"Feature","geometry":{"type":"Point","coordinates":[-4.050103,52.6956743]},"properties":{"name":"Fairbourne (FR)","railway":"station","source":"OS OpenData StreetView","usage":"tourism","wikidata":"Q5430037","wikipedia":"en:Fairbourne railway station (Fairbourne Railway)"}},
{"type":"Feature","geometry":{"type":"Point","coordinates":[-4.0980002,52.9501133]},"properties":{"name":"Pont Croesor Halt","platforms":"2","public_transport":"station","railway":"station","train":"yes","usage":"tourism","wikidata":"Q7227999","wikipedia":"en:Pont Croesor railway station"}},
{"type":"Feature","geometry":{"type":"Point","coordinates":[-3.1597164,52.6599485]},"properties":{"name":"Welshpool Raven Square","phone":"+44 1938810441","usage":"tourism","source":"NPE","railway":"station","website":"https://www.wllr.org.uk/","wikidata":"Q2558054","wikipedia":"en:Welshpool and Llanfair Light Railway","wheelchair":"yes"}},
{"type":"Feature","geometry":{"type":"Point","coordinates":[-3.2194419,52.6496664]},"properties":{"name":"Sylfaen","phone":"+44 1938810441","usage":"tourism","railway":"station","website":"https://www.wllr.org.uk/","wikidata":"Q2558054","wikipedia":"en:Welshpool and Llanfair Light Railway","wheelchair":"no","request_stop":"yes"}},
{"type":"Feature","geometry":{"type":"Point","coordinates":[-3.2408781,52.6446607]},"properties":{"name":"Castle Caereinion","phone":"+44 1938810441","usage":"tourism","railway":"station","website":"https://www.wllr.org.uk/","wikidata":"Q2558054","wikipedia":"en:Welshpool and Llanfair Light Railway","wheelchair":"no"}},
{"type":"Feature","geometry":{"type":"Point","coordinates":[-3.2754268,52.6604776]},"properties":{"name":"Cyfronydd","phone":"+44 1938810441","railway":"station","usage":"tourism","website":"https://www.wllr.org.uk/","wheelchair":"no","wikidata":"Q2558054","wikipedia":"en:Welshpool and Llanfair Light Railway"}},
{"type":"Feature","geometry":{"type":"Point","coordinates":[-3.2983632,52.6634634]},"properties":{"name":"Heniarth","usage":"tourism","source":"OS_OpenData_StreetView","railway":"station","wikidata":"Q5714399","request_stop":"yes"}},
{"type":"Feature","geometry":{"type":"Point","coordinates":[-3.3644454,51.77786]},"properties":{"name":"Pant","usage":"tourism","railway":"station","tourism":"attraction","website":"http://www.breconmountainrailway.co.uk/","operator":"Brecon Mountain Railway","wikidata":"Q27825959"}},
{"type":"Feature","geometry":{"type":"Point","coordinates":[-3.3606768,51.7999527]},"properties":{"name":"Pontsticill","usage":"tourism","railway":"station","wikidata":"Q27825960"}},
{"type":"Feature","geometry":{"type":"Point","coordinates":[-3.3682696,51.8209203]},"properties":{"name":"Dol-y-gaer","usage":"tourism","railway":"station","operator":"Brecon Mountain Railway","wikidata":"Q28971138"}},
{"type":"Feature","geometry":{"type":"Point","coordinates":[-3.3146898,52.9817358]},"properties":{"name":"Carrog","usage":"tourism","railway":"station","wikidata":"Q5046492","wikipedia":"en:Carrog railway station"}},
{"type":"Feature","geometry":{"type":"Point","coordinates":[-3.2676275,52.9765848]},"properties":{"name":"Glyndyfrdwy","railway":"station","usage":"tourism","wikidata":"Q5572933"}},
{"type":"Feature","geometry":{"type":"Point","coordinates":[-3.1950399,52.9799251]},"properties":{"name":"Berwyn","railway":"station","usage":"tourism","wikidata":"Q4896046","wikipedia":"en:Berwyn railway station"}},
{"type":"Feature","geometry":{"type":"Point","coordinates":[-3.1714277,52.9713124]},"properties":{"name":"Llangollen","usage":"tourism","network":"Llangollen Railway","railway":"station","wikidata":"Q6661500"}},
{"type":"Feature","geometry":{"type":"Point","coordinates":[-3.5951606,51.5473575]},"properties":{"name":"Tondu","network":"National Rail","railway":"station","ref:crs":"TDU","operator":"Transport for Wales","wikidata":"Q1821277","wikipedia":"en:Tondu railway station","internet_access":"no","naptan:AtcoCode":"9100TONDU","public_transport":"station"}},
{"type":"Feature","geometry":{"type":"Point","coordinates":[-3.5932353,52.9014233]},"properties":{"name":"Bala (Penybont)","usage":"tourism","railway":"station","website":"https://www.bala-lake-railway.co.uk/","alt_name":"Bala (Llyn Tegid)","old_name":"Bala Lake Halt","operator":"Bala Lake Railway","wikidata":"Q4849686","wikipedia":"en:Bala Lake Halt railway station","public_transport":"station"}},
{"type":"Feature","geometry":{"type":"Point","coordinates":[-3.6640137,52.8560106]},"properties":{"internet_access":"wlan","internet_access:fee":"no","name":"Llanuwchllyn","operator":"Bala Lake Railway","public_transport":"station","railway":"station","tourism":"attraction","usage":"tourism","website":"https://www.bala-lake-railway.co.uk/","wikidata":"Q138822","wikipedia":"en:Llanuwchllyn railway station"}},
{"type":"Feature","geometry":{"type":"Point","coordinates":[-3.6434549,52.8671011]},"properties":{"name":"Pentrepoid","usage":"tourism","railway":"station","tourism":"attraction","website":"https://www.bala-lake-railway.co.uk/","wikidata":"Q7165300","wikipedia":"en:Pentrepiod Halt railway station (Gwynedd)","request_stop":"yes"}},
{"type":"Feature","geometry":{"type":"Point","coordinates":[-3.6322971,52.87501]},"properties":{"name":"Llangower","usage":"tourism","railway":"station","tourism":"attraction","website":"https://www.bala-lake-railway.co.uk/","operator":"Bala Lake Railway","wikidata":"Q6661518","wikipedia":"en:Llangower railway station","public_transport":"station"}},
{"type":"Feature","geometry":{"type":"Point","coordinates":[-3.0385364,53.2122877]},"properties":{"addr:city":"Shotton","addr:postcode":"CH5 1BX","addr:street":"Chester Road West","internet_access":"no","name":"Shotton High Level","naptan:AtcoCode":"9100SHOTTHL","network":"National Rail","public_transport":"station","railway":"station","ref:crs":"SHT","website":"https://www.nationalrail.co.uk/stations/SHT/details.html","wheelchair":"yes","wikidata":"Q2913893","wikipedia":"en:Shotton railway station"}},
{"type":"Feature","geometry":{"type":"Point","coordinates":[-3.095988,52.3598369]},"properties":{"name":"Knucklas","name:cy":"Cnwclas","network":"National Rail","railway":"station","ref:crs":"KNU","operator":"Trafnidiaeth Cymru","wikidata":"Q2479359","wikipedia":"en:Knucklas railway station","operator:cy":"Trafnidiaeth Cymru","operator:en":"Transport for Wales","request_stop":"yes","naptan:AtcoCode":"9100KNUCKLS","public_transport":"station"}},
{"type":"Feature","geometry":{"type":"Point","coordinates":[-3.7258927,53.2968237]},"properties":{"name":"Colwyn Bay","name:cy":"Bae Colwyn","name:en":"Colwyn Bay","naptan:AtcoCode":"9100CBAY","network":"National Rail","public_transport":"station","railway":"station","ref:crs":"CWB","wikidata":"Q1856448","wikipedia":"en:Colwyn Bay railway station"}},
{"type":"Feature","geometry":{"type":"Point","coordinates":[-4.4299734,52.0415523]},"properties":{"name":"Pontgoch","old_name":"Llandyfriog Glan yr Afon / Llandyfriog Riverside","old_name:cy":"Llandyfriog Glan yr Afon","old_name:en":"Llandyfriog Riverside","railway":"station","usage":"tourism"}},
{"type":"Feature","geometry":{"type":"Point","coordinates":[-3.3227215,52.6515376]},"properties":{"name":"Llanfair Caereinion","phone":"+44 193810441","usage":"tourism","source":"NPE","railway":"station","website":"https://www.wllr.org.uk/","wikidata":"Q2558054","addr:city":"Llanfair Caereinion","wikipedia":"en:Welshpool and Llanfair Light Railway","wheelchair":"yes","addr:street":"Pool Road","addr:postcode":"SY21 0SF","addr:housename":"The Station"}},
{"type":"Feature","geometry":{"type":"Point","coordinates":[-3.9939809,52.6220197]},"properties":{"name":"Dolgoch","usage":"tourism","source":"survey","railway":"station","wikidata":"Q5288988","wikipedia":"en:Dolgoch railway station"}},
{"type":"Feature","geometry":{"type":"Point","coordinates":[-3.9508519,52.6418784]},"properties":{"name":"Nant Gwernol","railway":"station","source":"NPE;Wikipedia article on Tal-y-lyn railway","usage":"tourism","wikidata":"Q6964276","wikipedia":"en:Nant Gwernol railway station"}},
{"type":"Feature","geometry":{"type":"Point","coordinates":[-4.1078447,53.0117754]},"properties":{"name":"Beddgelert","usage":"tourism","railway":"station","wikidata":"Q4879021","wikipedia":"en:Beddgelert railway station"}},
{"type":"Feature","geometry":{"type":"Point","coordinates":[-4.128303,52.9312725]},"properties":{"name":"Gelert's Farm","public_transport":"station","railway":"station","request_stop":"yes","train":"yes","usage":"tourism","wikidata":"Q5530418","wikipedia":"en:Gelerts Farm Halt railway station"}},
{"type":"Feature","geometry":{"type":"Point","coordinates":[-3.3768026,51.6817988]},"properties":{"name":"Mountain Ash","name:cy":"Aberpennar","network":"National Rail","railway":"station","ref:crs":"MTA","operator":"Trafnidiaeth Cymru","wikidata":"Q1978271","wikipedia":"en:Mountain Ash railway station","start_date":"1988","wheelchair":"yes","operator:cy":"Trafnidiaeth Cymru","operator:en":"Transport for Wales","naptan:AtcoCode":"9100MASH"}},
{"type":"Feature","geometry":{"type":"Point","coordinates":[-3.1185638,51.7840036]},"properties":{"name":"Whistle Inn halt","usage":"tourism","railway":"station","wikidata":"Q20714168"}},
{"type":"Feature","geometry":{"type":"Point","coordinates":[-3.1113576,51.7785502]},"properties":{"name":"Furnace Sidings","usage":"tourism","railway":"station"}},
{"type":"Feature","geometry":{"type":"Point","coordinates":[-3.0852529,51.7684836]},"properties":{"name":"Blaenavon High Level","public_transport":"station","railway":"station","usage":"tourism","wikidata":"Q4923803"}},
{"type":"Feature","geometry":{"type":"Point","coordinates":[-3.1049045,51.7739838]},"properties":{"name":"Big Pit halt","usage":"tourism","railway":"station","wikidata":"Q4906131"}},
{"type":"Feature","geometry":{"type":"Point","coordinates":[-4.0891687,52.9935536]},"properties":{"name":"Nantmor Halt","note":"opened spring 2010","usage":"tourism","railway":"station","wikidata":"Q6964334","wikipedia":"en:Nantmor railway station"}},
{"type":"Feature","geometry":{"type":"Point","coordinates":[-4.2758826,53.1167976]},"properties":{"name":"Bontnewydd","usage":"tourism","railway":"station","wikidata":"Q4942626"}},
{"type":"Feature","geometry":{"type":"Point","coordinates":[-4.0518658,52.7122942]},"properties":{"name":"Estuary Halt","railway":"station","usage":"tourism","wikidata":"Q5401889"}},
{"type":"Feature","geometry":{"type":"Point","coordinates":[-4.0485009,52.7151503]},"properties":{"name":"Barmouth Ferry","railway":"station","source":"OS OpenData StreetView","usage":"tourism","wikidata":"Q4861278"}},
{"type":"Feature","geometry":{"type":"Point","coordinates":[-4.0575555,52.7018534]},"properties":{"name":"Golf Halt","railway":"station","source":"OS OpenData StreetView","usage":"tourism","wikidata":"Q1011629","wikipedia":"en:Golf Halt railway station"}},
{"type":"Feature","geometry":{"type":"Point","coordinates":[-4.3310247,51.9071885]},"properties":{"name":"Danycoed","railway":"station","usage":"tourism","wikidata":"Q5221427","wikipedia":"en:Danycoed Halt railway station"}},
{"type":"Feature","geometry":{"type":"Point","coordinates":[-4.318223,51.9081128]},"properties":{"name":"Llwyfan Cerrig","usage":"tourism","railway":"station","operator":"Gwili Railway","wikidata":"Q6662899","wikipedia":"en:Llwyfan Cerrig railway station","public_transport":"station"}},
{"type":"Feature","geometry":{"type":"Point","coordinates":[-4.3007195,51.8921506]},"properties":{"name":"Bronwydd Arms","usage":"tourism","railway":"station","wikidata":"Q4974128","wikipedia":"en:Bronwydd Arms railway station"}},
{"type":"Feature","geometry":{"type":"Point","coordinates":[-4.1235359,53.0194027]},"properties":{"name":"Meillionen","usage":"tourism","railway":"station","wikidata":"Q6810113","wikipedia":"en:Meillionen railway station"}},
{"type":"Feature","geometry":{"type":"Point","coordinates":[-4.2769864,53.1035053]},"properties":{"name":"Dinas","usage":"tourism","railway":"station","wikidata":"Q5277972","wikipedia":"en:Dinas railway station"}},
{"type":"Feature","geometry":{"type":"Point","coordinates":[-4.2401444,53.1077642]},"properties":{"name":"Tryfan Junction","usage":"tourism","source":"OS_OpenData_StreetView","railway":"station","wikidata":"Q7848455","wikipedia":"en:Tryfan Junction railway station","request_stop":"yes"}},
{"type":"Feature","geometry":{"type":"Point","coordinates":[-4.064842,52.9351708]},"properties":{"name":"Penrhyn","usage":"tourism","source":"OS_OpenData_StreetView","name:ru":"Пенрин","railway":"station","alt_name":"Penrhyndeudreath","operator":"Ffestiniog Railway","wikidata":"Q7164585","wikipedia":"en:Penrhyn railway station"}},
{"type":"Feature","geometry":{"type":"Point","coordinates":[-3.9001129,52.3914985]},"properties":{"name":"Rheidol Falls","usage":"tourism","railway":"station","wikidata":"Q7320335","wikipedia":"en:Rheidol Falls railway station","request_stop":"yes"}},
{"type":"Feature","geometry":{"type":"Point","coordinates":[-3.9487287,52.3853282]},"properties":{"name":"Nantyronen","usage":"tourism","railway":"station","wikidata":"Q6964403","wikipedia":"en:Nantyronen railway station","request_stop":"yes"}},
{"type":"Feature","geometry":{"type":"Point","coordinates":[-4.0841392,53.0893021]},"properties":{"name":"Rocky Valley Halt","railway":"station","usage":"tourism","wikidata":"Q28197584","wikipedia":"en:Rocky Valley Halt (SMR) railway station"}},
{"type":"Feature","geometry":{"type":"Point","coordinates":[-4.8028585,51.7789571]},"properties":{"name":"Oakwood Park Railway","usage":"tourism","railway":"station"}},
{"type":"Feature","geometry":{"type":"Point","coordinates":[-3.748227,52.0515615]},"properties":{"name":"Cynghordy","network":"National Rail","railway":"station","ref:crs":"CYN","operator":"Trafnidiaeth Cymru","wikidata":"Q2140425","wikipedia":"en:Cynghordy railway station","operator:cy":"Trafnidiaeth Cymru","operator:en":"Transport for Wales","request_stop":"yes","naptan:AtcoCode":"9100CYNGHRD","public_transport":"station"}},
{"type":"Feature","geometry":{"type":"Point","coordinates":[-2.7769784,51.584363]},"properties":{"name":"Severn Tunnel Junction","name:cy":"Cyffordd Twnnel Hafren","network":"National Rail","railway":"station","ref:crs":"STJ","old_name":"Rogiet","wikidata":"Q2496470","wikipedia":"en:Severn Tunnel Junction railway station","postal_code":"NP26 3SP","naptan:AtcoCode":"9100SEVTNLJ"}},
{"type":"Feature","geometry":{"type":"Point","coordinates":[-4.149559,53.1370988]},"properties":{"description":"There are no platforms & currently passengers are not permitted to disembark the train.","name":"Penllyn","platforms":"0","public_transport":"station","railway":"station","usage":"tourism","wikidata":"Q28197592","wikipedia":"en:Penllyn (LLR) railway station"}},
{"type":"Feature","geometry":{"type":"Point","coordinates":[-3.8415802,52.6533675]},"properties":{"name":"Corris","usage":"tourism","railway":"station"}},
{"type":"Feature","geometry":{"type":"Point","coordinates":[-3.8444972,52.6446445]},"properties":{"name":"Maespoeth","usage":"tourism","access":"private","railway":"station","wikidata":"Q15243571"}},
{"type":"Feature","geometry":{"type":"Point","coordinates":[-4.119049,53.1177297]},"properties":{"name":"Llanberis (LLR)","public_transport":"station","railway":"station","train":"yes","usage":"tourism","wheelchair":"yes","wikidata":"Q28197589","wikipedia":"en:Llanberis railway station (Llanberis Lake Railway)"}},
{"type":"Feature","geometry":{"type":"Point","coordinates":[-4.1154697,53.1226641]},"properties":{"name":"Gilfach Ddu","usage":"tourism","railway":"station","wikidata":"Q28197591","wikipedia":"en:Gilfach Ddu railway station","wheelchair":"yes"}},
{"type":"Feature","geometry":{"type":"Point","coordinates":[-4.1320984,53.1307266]},"properties":{"name":"Cei Llydan","railway":"station","usage":"tourism","wikidata":"Q27825938","wikipedia":"en:Cei Llydan railway station"}},
{"type":"Feature","geometry":{"type":"Point","coordinates":[-4.2807205,51.8686673]},"properties":{"name":"Abergwili Junction","railway":"station","usage":"tourism"}},
{"type":"Feature","geometry":{"type":"Point","coordinates":[-3.3675816,52.9812268]},"properties":{"name":"Corwen East","usage":"tourism","railway":"station","wikidata":"Q18349023"}},
{"type":"Feature","geometry":{"type":"Point","coordinates":[-3.229519,51.4882052]},"properties":{"name":"Waun-gron Park","name:cy":"Parc Waun-Gron","network":"National Rail","railway":"station","ref:crs":"WNG","wikidata":"Q2312031","wikipedia":"en:Waun-gron Park railway station","naptan:AtcoCode":"9100WAUNGRN"}},
{"type":"Feature","geometry":{"type":"Point","coordinates":[-4.0710941,52.5908171]},"properties":{"name":"Hendy","usage":"tourism","railway":"station","request_stop":"yes"}},
{"type":"Feature","geometry":{"type":"Point","coordinates":[-4.0528811,52.5982244]},"properties":{"name":"Cynfal","usage":"tourism","railway":"station","request_stop":"yes"}},
{"type":"Feature","geometry":{"type":"Point","coordinates":[-4.0609213,52.5947526]},"properties":{"name":"Fach Goch","usage":"tourism","railway":"station","request_stop":"yes"}},
{"type":"Feature","geometry":{"type":"Point","coordinates":[-4.1330404,53.05109]},"properties":{"name":"Rhyd Ddu","usage":"tourism","railway":"station","wikidata":"Q7321596","wikipedia":"en:Rhyd Ddu railway station"}},
{"type":"Feature","geometry":{"type":"Point","coordinates":[-3.988718,52.6265267]},"properties":{"name":"Quarry Siding","usage":"tourism","railway":"station","request_stop":"yes"}},
{"type":"Feature","geometry":{"type":"Point","coordinates":[-4.0411132,52.6029069]},"properties":{"name":"Tynllwyn Hen","usage":"tourism","railway":"station","request_stop":"yes"}},
{"type":"Feature","geometry":{"type":"Point","coordinates":[-4.8001354,51.7775803]},"properties":{"name":"Park Entrance","usage":"tourism","railway":"station"}},
{"type":"Feature","geometry":{"type":"Point","coordinates":[-3.1895595,51.4672525]},"properties":{"name":"Grangetown","name:cy":"Grangetown","naptan:AtcoCode":"9100GNTN","network":"National Rail","operator":"Transport for Wales / Trafnidiaeth Cymru","operator:cy":"Trafnidiaeth Cymru","operator:en":"Transport for Wales","railway":"station","ref:crs":"GTN","wheelchair":"no","wikidata":"Q3460666","wikipedia":"en:Grangetown railway station"}},
{"type":"Feature","geometry":{"type":"Point","coordinates":[-4.994867,52.0041819]},"properties":{"name":"Fishguard and Goodwick","note":"(Re) Opened 14 May 2012","name:cy":"Abergwaun ac Wdig","network":"National Rail","railway":"station","ref:crs":"FGW","operator":"Trafnidiaeth Cymru","wikidata":"Q5454980","wikipedia":"en:Fishguard and Goodwick railway station","operator:cy":"Trafnidiaeth Cymru","operator:en":"Transport for Wales","naptan:AtcoCode":"9100FGDHGWK"}},
{"type":"Feature","geometry":{"type":"Point","coordinates":[-3.9379224,52.9945942]},"properties":{"name":"Blaenau Ffestiniog","usage":"tourism","network":"Ffestiniog Railway","railway":"station","operator":"Ffestiniog Railway","platforms":"2","wikipedia":"en:Blaenau Ffestiniog","addr:street":"Church Street","addr:postcode":"LL41 3HE"}},
{"type":"Feature","geometry":{"type":"Point","coordinates":[-3.9627332,52.9857047]},"properties":{"name":"Tanygrisiau","usage":"tourism","railway":"station","operator":"Ffestiniog Railway","wikidata":"Q7684076","platforms":"2","wikipedia":"en:Tanygrisiau railway station","request_stop":"yes"}},
{"type":"Feature","geometry":{"type":"Point","coordinates":[-4.0112267,52.9544727]},"properties":{"name":"Tan y Bwlch","usage":"tourism","railway":"station","operator":"Ffestiniog Railway","wikidata":"Q3097833","platforms":"2","wikipedia":"en:Tan-y-Bwlch railway station","naptan:AtcoCode":"9100TANY"}},
{"type":"Feature","geometry":{"type":"Point","coordinates":[-4.1266708,52.9240121]},"properties":{"name":"Porthmadog Harbour","name:ru":"Портмадог-Порт","naptan:AtcoCode":"9100PRTHHBR","old_name":"Portmadoc Harbour","operator":"Ffestiniog Railway","public_transport":"station","railway":"station","train":"yes","usage":"tourism","wikidata":"Q7231785","wikipedia":"en:Porthmadog Harbour railway station"}},
{"type":"Feature","geometry":{"type":"Point","coordinates":[-3.9687025,52.9601597]},"properties":{"name":"Dduallt","usage":"tourism","source":"OS_OpenData_StreetView","railway":"station","wikidata":"Q5243786","platforms":"1","wikipedia":"en:Dduallt railway station","request_stop":"yes","stop_on_demand":"yes"}},
{"type":"Feature","geometry":{"type":"Point","coordinates":[-4.104602,52.9208888]},"properties":{"name":"Boston Lodge Halt","usage":"tourism","source":"wikipedia","name:ru":"Бостон Лодж","railway":"station","operator":"Ffestiniog Railway","wikidata":"Q4947961","wikipedia":"en:Boston Lodge Halt railway station","request_stop":"yes"}},
{"type":"Feature","geometry":{"type":"Point","coordinates":[-4.0832022,52.9262402]},"properties":{"name":"Minffordd","train":"yes","usage":"tourism","name:ru":"Минфорт","railway":"station","ref:crs":"MFD","operator":"Ffestiniog Railway","wikipedia":"en:Minffordd railway station#Narrow gauge facilities","naptan:AtcoCode":"9100MINFFR","public_transport":"station"}},
{"type":"Feature","geometry":{"type":"Point","coordinates":[-4.1353065,52.930988]},"properties":{"name":"Porthmadog","naptan:AtcoCode":"9100PRTHMDG","network":"National Rail","old_name":"Portmadoc","operator":"Trafnidiaeth Cymru","operator:cy":"Trafnidiaeth Cymru","operator:en":"Transport for Wales","platforms":"2","public_transport":"station","railway":"station","ref:crs":"PTM","wikidata":"Q3400575","wikipedia":"en:Porthmadog railway station"}},
{"type":"Feature","geometry":{"type":"Point","coordinates":[-4.0565564,52.9210189]},"properties":{"name":"Llandecwyn","source":"npe","network":"National Rail","railway":"station","ref:crs":"LLC","operator":"Trafnidiaeth Cymru","wikidata":"Q2194269","wikipedia":"en:Llandecwyn railway station","operator:cy":"Trafnidiaeth Cymru","operator:en":"Transport for Wales","request_stop":"yes","naptan:AtcoCode":"9100LNDC"}},
{"type":"Feature","geometry":{"type":"Point","coordinates":[-4.0565552,52.6977165]},"properties":{"name":"Beach Halt","railway":"station","usage":"tourism","wikidata":"Q4875711","wikipedia":"en:Beach Halt railway station"}},
{"type":"Feature","geometry":{"type":"Point","coordinates":[-4.0580436,52.7045335]},"properties":{"name":"Loop Halt","railway":"station","usage":"tourism","wikidata":"Q6675799","wikipedia":"en:Loop Halt railway station"}},
{"type":"Feature","geometry":{"type":"Point","coordinates":[-3.501372,51.5239041]},"properties":{"name":"Pencoed","network":"National Rail","railway":"station","ref:crs":"PCD","wikidata":"Q2788634","wikipedia":"en:Pencoed railway station","naptan:AtcoCode":"9100PENCOED"}},
{"type":"Feature","geometry":{"type":"Point","coordinates":[-4.119734,53.116308]},"properties":{"name":"Llanberis (SMR)","usage":"tourism","network":"Snowdon Mountain Railway","railway":"station","operator":"Snowdon Mountain Railway","wikidata":"Q28197583","wikipedia":"en:Llanberis railway station (Snowdon Mountain Railway)"}},
{"type":"Feature","geometry":{"type":"Point","coordinates":[-3.2290676,51.5843584]},"properties":{"name":"Energlyn & Churchill Park","name:cy":"Eneu'r Glyn a Pharc Churchill","naptan:AtcoCode":"9100ERGNCHP","network":"National Rail","railway":"station","ref:crs":"ECP","wikidata":"Q15216643","wikipedia":"en:Energlyn & Churchill Park railway station"}},
{"type":"Feature","geometry":{"type":"Point","coordinates":[-4.123585,52.8362492]},"properties":{"name":"Llandanwg","network":"National Rail","railway":"station","ref:crs":"LDN","old_name":"Llandanwg Halt","operator":"Trafnidiaeth Cymru","wikidata":"Q2154789","wikipedia":"en:Llandanwg railway station","operator:cy":"Trafnidiaeth Cymru","operator:en":"Transport for Wales","request_stop":"yes","naptan:AtcoCode":"9100LNDW"}},
{"type":"Feature","geometry":{"type":"Point","coordinates":[-4.0769715,53.0684383]},"properties":{"name":"Y Copa","name:cy":"Y Copa","name:en":"Summit","public_transport":"station","railway":"station","source":"npe","usage":"tourism","wikidata":"Q28197585","wikipedia":"en:Summit (SMR) railway station"}},
{"type":"Feature","geometry":{"type":"Point","coordinates":[-3.2024664,51.7766167]},"properties":{"name":"Ebbw Vale Town","name:cy":"Tref Glyn Ebwy","naptan:AtcoCode":"9100EBWVTN","network":"National Rail","operator":"Transport for Wales","public_transport":"station","railway":"station","ref:crs":"EBB","ref:tiploc":"EBWVTN","wikidata":"Q5331569","wikipedia":"en:Ebbw Vale Town railway station"}},
{"type":"Feature","geometry":{"type":"Point","coordinates":[-3.2803333,51.4003495]},"properties":{"name":"Woodham Halt","usage":"tourism","railway":"station"}},
{"type":"Feature","geometry":{"type":"Point","coordinates":[-3.2735718,51.4023338]},"properties":{"name":"Gladstone Bridge","usage":"tourism","railway":"station"}},
{"type":"Feature","geometry":{"type":"Point","coordinates":[-3.2613588,51.4024395]},"properties":{"name":"Barry Docks","name:cy":"Dociau'r Barri","network":"National Rail","railway":"station","ref:crs":"BYD","wikidata":"Q2608749","wikipedia":"en:Barry Docks railway station","naptan:AtcoCode":"9100BARRYDK"}},
{"type":"Feature","geometry":{"type":"Point","coordinates":[-3.8070189,51.6621839]},"properties":{"name":"Neath","name:cy":"Castell-nedd","network":"National Rail","railway":"station","ref:crs":"NTH","wikidata":"Q3059430","platforms":"2","wikipedia":"en:Neath railway station","wheelchair":"limited","naptan:AtcoCode":"9100NEATH"}},
{"type":"Feature","geometry":{"type":"Point","coordinates":[-3.8467196,51.6614111]},"properties":{"name":"Skewen","name:cy":"Sgiwen","network":"National Rail","railway":"station","ref:crs":"SKE","wikidata":"Q2410667","wikipedia":"en:Skewen railway station","naptan:AtcoCode":"9100SKEWEN"}},
{"type":"Feature","geometry":{"type":"Point","coordinates":[-3.2251198,52.9727767]},"properties":{"name":"Deeside Halt","railway":"station","request_stop":"yes","usage":"tourism"}},
{"type":"Feature","geometry":{"type":"Point","coordinates":[-3.8005379,53.0929735]},"properties":{"name":"Betws-y-Coed","naptan:AtcoCode":"9100BETSYCD","network":"National Rail","operator":"Trafnidiaeth Cymru","operator:cy":"Trafnidiaeth Cymru","operator:en":"Transport for Wales","public_transport":"station","railway":"station","ref:crs":"BYC","train":"yes","wikidata":"Q2708194","wikipedia":"en:Betws-y-Coed railway station"}},
{"type":"Feature","geometry":{"type":"Point","coordinates":[-3.8417395,53.3156577]},"properties":{"name":"West Shore Halt","usage":"tourism","railway":"station"}},
{"type":"Feature","geometry":{"type":"Point","coordinates":[-3.0423179,52.3450164]},"properties":{"name":"Knighton","name:cy":"Tref-y-Clawdd","network":"National Rail","railway":"station","ref:crs":"KNI","operator":"Trafnidiaeth Cymru","wikidata":"Q2049884","platforms":"2","wikipedia":"en:Knighton railway station","operator:cy":"Trafnidiaeth Cymru","operator:en":"Transport for Wales","naptan:AtcoCode":"9100KNIGHTN","public_transport":"station"}},
{"type":"Feature","geometry":{"type":"Point","coordinates":[-3.3494457,51.3871547]},"properties":{"name":"Rhoose Cardiff International Airport","name:cy":"Maes Awyr Rhyngwladol Caerdydd Y Rhws","network":"National Rail","railway":"station","ref:crs":"RIA","alt_name":"Rhoose","wikidata":"Q2146222","wikipedia":"en:Rhoose Cardiff International Airport railway station","naptan:AtcoCode":"9100RHOOSE"}},
{"type":"Feature","geometry":{"type":"Point","coordinates":[-3.3807981,51.8403136]},"properties":{"name":"Torpantau","usage":"tourism","railway":"station"}},
{"type":"Feature","geometry":{"type":"Point","coordinates":[-4.1357851,53.2228045]},"properties":{"internet_access":"no","name":"Bangor","naptan:AtcoCode":"9100BANGOR","network":"National Rail","operator":"Transport for Wales Rail","platforms":"2","public_transport":"station","railway":"station","ref:crs":"BNG","source":"local knowledge;Wikipedia","start_date":"1848-05-01","train":"yes","wheelchair":"yes","wikidata":"Q1902478","wikipedia":"en:Bangor railway station (Wales)"}},
{"type":"Feature","geometry":{"type":"Point","coordinates":[-4.4034981,52.0405985]},"properties":{"name":"Forest Halt","network":"Teifi Valley Railway","operator":"Teifi Valley Railway","railway":"station","usage":"tourism"}},
{"type":"Feature","geometry":{"type":"Point","coordinates":[-3.5802614,51.5198045]},"properties":{"addr:postcode":"CF31 1RW","name":"Wildmill","name:cy":"Melin Wyllt","naptan:AtcoCode":"9100WLDMILL","network":"National Rail","railway":"station","ref:crs":"WMI","wikidata":"Q2668682","wikipedia":"en:Wildmill railway station"}},
{"type":"Feature","geometry":{"type":"Point","coordinates":[-4.0933648,52.5853794]},"properties":{"name":"Tywyn","source":"NPE","network":"National Rail","railway":"station","ref:crs":"TYW","operator":"Trafnidiaeth Cymru","wikidata":"Q2717514","platforms":"2","wikipedia":"en:Tywyn railway station","operator:cy":"Trafnidiaeth Cymru","operator:en":"Transport for Wales","naptan:AtcoCode":"9100TYWYN"}},
{"type":"Feature","geometry":{"type":"Point","coordinates":[-4.4161558,52.8881946]},"properties":{"name":"Pwllheli","network":"National Rail","railway":"station","ref:crs":"PWL","operator":"Trafnidiaeth Cymru","wikidata":"Q1854042","platforms":"1","wikipedia":"en:Pwllheli railway station","operator:cy":"Trafnidiaeth Cymru","operator:en":"Transport for Wales","postal_code":"LL53 5HG","naptan:AtcoCode":"9100PWLHELI"}},
{"type":"Feature","geometry":{"type":"Point","coordinates":[-4.0567929,52.7224212]},"properties":{"name":"Barmouth","source":"NPE","name:cy":"Abermaw","name:en":"Barmouth","network":"National Rail","railway":"station","ref:crs":"BRM","alt_name":"Abermaw","operator":"Trafnidiaeth Cymru","wikidata":"Q1947916","platforms":"2","wikipedia":"en:Barmouth railway station","operator:cy":"Trafnidiaeth Cymru","operator:en":"Transport for Wales","naptan:AtcoCode":"9100BRMOUTH"}},
{"type":"Feature","geometry":{"type":"Point","coordinates":[-2.6711114,51.6399641]},"properties":{"name":"Chepstow","name:cy":"Cas-gwent","network":"National Rail","railway":"station","ref:crs":"CPW","wikidata":"Q2074597","wikipedia":"en:Chepstow railway station","naptan:AtcoCode":"9100CHEPSTW"}},
{"type":"Feature","geometry":{"type":"Point","coordinates":[-3.000425,51.5887675]},"properties":{"name":"Newport","train":"yes","name:cy":"Casnewydd","network":"National Rail","railway":"station","ref:crs":"NWP","operator":"National Rail","wikidata":"Q3397374","addr:city":"Newport","platforms":"4","wikipedia":"en:Newport railway station","addr:street":"Queensway","addr:postcode":"NP20 4AX","naptan:AtcoCode":"9100NWPTRTG","public_transport":"station"}},
{"type":"Feature","geometry":{"type":"Point","coordinates":[-3.1793363,51.4757387]},"properties":{"addr:city":"Cardiff","addr:place":"Central Square","addr:postcode":"CF10 1EP","name":"Cardiff Central","name:cy":"Caerdydd Canolog","name:en":"Cardiff Central","naptan:AtcoCode":"9100CRDFCEN","network":"National Rail","old_name":"Cardiff General","operator":"Transport for Wales / Trafnidiaeth Cymru","operator:cy":"Trafnidiaeth Cymru","operator:en":"Transport for Wales","public_transport":"station","railway":"station","ref:crs":"CDF","train":"yes","wikidata":"Q2292817","wikipedia":"en:Cardiff Central railway station"}},
{"type":"Feature","geometry":{"type":"Point","coordinates":[-4.0786681,52.4114736]},"properties":{"name":"Vale of Rheidol","email":"info@rheidolrailway.co.uk","phone":"+44 1970 625 819","train":"yes","usage":"tourism","network":"Vale of Rheidol Railway","railway":"station","operator":"Vale of Rheidol Railway","addr:city":"Aberystwyth","addr:street":"Park Avenue","description":"narrow gauge railway Aberystwyth station","addr:postcode":"SY23 1PG","addr:housename":"Vale of Rheidol Railway","public_transport":"station"}},
{"type":"Feature","geometry":{"type":"Point","coordinates":[-4.2719629,53.1375302]},"properties":{"name":"Caernarfon","usage":"tourism","railway":"station"}},
{"type":"Feature","geometry":{"type":"Point","coordinates":[-3.9403729,51.6256789]},"properties":{"name":"Swansea","name:cy":"Abertawe","name:en":"Swansea","network":"National Rail","railway":"station","ref:crs":"SWA","old_name":"Swansea (High Street)","operator":"Trafnidiaeth Cymru","wikidata":"Q1949311","wikipedia":"en:Swansea railway station","old_name:cy":"Abertawe (Stryd Fawr)","operator:cy":"Trafnidiaeth Cymru","operator:en":"Transport for Wales","addr:postcode":"SA1 1NU","naptan:AtcoCode":"9100SWANSEA","public_transport":"station"}},
{"type":"Feature","geometry":{"type":"Point","coordinates":[-3.3773565,51.7444793]},"properties":{"name":"Merthyr Tydfil","train":"yes","name:cy":"Merthyr Tudful","network":"National Rail","railway":"station","ref:crs":"MER","operator":"Transport for Wales","wikidata":"Q305134","wikipedia":"en:Merthyr Tydfil railway station","operator:cy":"Trafnidiaeth Cymru","naptan:AtcoCode":"9100MERTHYR","public_transport":"station"}},
{"type":"Feature","geometry":{"type":"Point","coordinates":[-3.3418374,51.5992956]},"properties":{"name":"Pontypridd","network":"National Rail","railway":"station","ref:crs":"PPD","old_name":"Newbridge","operator":"Trafnidiaeth Cymru","wikidata":"Q2627385","wikipedia":"en:Pontypridd railway station","wheelchair":"limited","operator:cy":"Trafnidiaeth Cymru","operator:en":"Transport for Wales","naptan:AtcoCode":"9100PTYPRID"}},
{"type":"Feature","geometry":{"type":"Point","coordinates":[-3.9927967,51.8729775]},"properties":{"name":"Ffairfach","source":"OS 1:25k","name:cy":"FFair-fach","network":"National Rail","railway":"station","ref:crs":"FFA","operator":"Trafnidiaeth Cymru","wikidata":"Q2933445","wikipedia":"en:Ffairfach railway station","operator:cy":"Trafnidiaeth Cymru","operator:en":"Transport for Wales","request_stop":"yes","naptan:AtcoCode":"9100FFAIRFC","public_transport":"station"}},
{"type":"Feature","geometry":{"type":"Point","coordinates":[-4.0037186,51.8209299]},"properties":{"name":"Llandybie","source":"NPE","name:cy":"Llandybïe","network":"National Rail","railway":"station","ref:crs":"LLI","operator":"Trafnidiaeth Cymru","wikidata":"Q2425553","wikipedia":"en:Llandybie railway station","operator:cy":"Trafnidiaeth Cymru","operator:en":"Transport for Wales","request_stop":"yes","naptan:AtcoCode":"9100LLDYBIE","public_transport":"station"}},
{"type":"Feature","geometry":{"type":"Point","coordinates":[-3.9868556,51.8851753]},"properties":{"name":"Llandeilo","network":"National Rail","railway":"station","ref:crs":"LLL","operator":"Trafnidiaeth Cymru","wikidata":"Q2063981","wikipedia":"en:Llandeilo railway station","operator:cy":"Trafnidiaeth Cymru","operator:en":"Transport for Wales","naptan:AtcoCode":"9100LLDEILO","public_transport":"station"}},
{"type":"Feature","geometry":{"type":"Point","coordinates":[-3.8721201,51.9626513]},"properties":{"name":"Llanwrda","network":"National Rail","railway":"station","ref:crs":"LNR","operator":"Trafnidiaeth Cymru","wikidata":"Q2305711","wikipedia":"en:Llanwrda railway station","wheelchair":"limited","operator:cy":"Trafnidiaeth Cymru","operator:en":"Transport for Wales","request_stop":"yes","naptan:AtcoCode":"9100LLWRDA","public_transport":"station"}},
{"type":"Feature","geometry":{"type":"Point","coordinates":[-3.996828,51.7955509]},"properties":{"addr:city":"Ammanford","addr:postcode":"SA18 2DD","addr:street":"Station Road","air_conditioning":"no","baby_feeding":"no","email":"customer.relations@tfwrail.wales","internet_access":"no","name":"Ammanford","name:cy":"Rhydaman","name:en":"Ammanford","naptan:AtcoCode":"9100AMMANFD","network":"National Rail","old_name":"Tirydail","operator":"Trafnidiaeth Cymru","operator:cy":"Trafnidiaeth Cymru","operator:en":"Transport for Wales","phone":"+44 3333 211 202","public_transport":"station","railway":"station","ref:crs":"AMF","request_stop":"yes","source":"NPE","website":"https://tfwrail.wales/stations/ammanford","wikidata":"Q2213067","wikipedia":"en:Ammanford railway station"}},
{"type":"Feature","geometry":{"type":"Point","coordinates":[-3.997538,51.7786637]},"properties":{"name":"Pantyffynnon","source":"NPE","network":"National Rail","railway":"station","ref:crs":"PTF","operator":"Trafnidiaeth Cymru","wikidata":"Q2264567","wikipedia":"en:Pantyffynnon railway station","operator:cy":"Trafnidiaeth Cymru","operator:en":"Transport for Wales","naptan:AtcoCode":"9100PNTYFYN","public_transport":"station"}},
{"type":"Feature","geometry":{"type":"Point","coordinates":[-4.045435,51.7170446]},"properties":{"name":"Pontarddulais","source":"NPE","network":"National Rail","railway":"station","ref:crs":"PTD","operator":"Trafnidiaeth Cymru","wikidata":"Q2584427","wikipedia":"en:Pontarddulais railway station","operator:cy":"Trafnidiaeth Cymru","operator:en":"Transport for Wales","request_stop":"yes","naptan:AtcoCode":"9100PNTADLS","public_transport":"station"}},
{"type":"Feature","geometry":{"type":"Point","coordinates":[-4.0987158,51.6722799]},"properties":{"name":"Bynea","source":"NPE","network":"National Rail","railway":"station","ref:crs":"BYE","operator":"Trafnidiaeth Cymru","wikidata":"Q3405374","wikipedia":"en:Bynea railway station","operator:cy":"Trafnidiaeth Cymru","operator:en":"Transport for Wales","request_stop":"yes","naptan:AtcoCode":"9100BYNEA","public_transport":"station"}},
{"type":"Feature","geometry":{"type":"Point","coordinates":[-3.5551178,52.1142069]},"properties":{"name":"Llangammarch","network":"National Rail","railway":"station","ref:crs":"LLM","operator":"Trafnidiaeth Cymru","wikidata":"Q2162558","wikipedia":"en:Llangammarch railway station","operator:cy":"Trafnidiaeth Cymru","operator:en":"Transport for Wales","request_stop":"yes","naptan:AtcoCode":"9100LLGMMRW","public_transport":"station"}},
{"type":"Feature","geometry":{"type":"Point","coordinates":[-3.4567317,52.1504164]},"properties":{"name":"Cilmeri","network":"National Rail","railway":"station","ref:crs":"CIM","operator":"Trafnidiaeth Cymru","wikidata":"Q2495949","wikipedia":"en:Cilmeri railway station","operator:cy":"Trafnidiaeth Cymru","operator:en":"Transport for Wales","request_stop":"yes","naptan:AtcoCode":"9100CILMERY","public_transport":"station"}},
{"type":"Feature","geometry":{"type":"Point","coordinates":[-3.3794358,52.242258]},"properties":{"name":"Llandrindod","network":"National Rail","railway":"station","ref:crs":"LLO","operator":"Trafnidiaeth Cymru","wikidata":"Q2625065","wikipedia":"en:Llandrindod railway station","operator:cy":"Trafnidiaeth Cymru","operator:en":"Transport for Wales","naptan:AtcoCode":"9100LLDODW","public_transport":"station"}},
{"type":"Feature","geometry":{"type":"Point","coordinates":[-3.2633324,52.2949972]},"properties":{"name":"Dolau","network":"National Rail","railway":"station","ref:crs":"DOL","operator":"Trafnidiaeth Cymru","wikidata":"Q3401836","wikipedia":"en:Dolau railway station","operator:cy":"Trafnidiaeth Cymru","operator:en":"Transport for Wales","request_stop":"yes","naptan:AtcoCode":"9100DOLAU","public_transport":"station"}},
{"type":"Feature","geometry":{"type":"Point","coordinates":[-4.0356664,51.6489264]},"properties":{"name":"Gowerton","train":"yes","name:cy":"Tre-gŵyr","network":"National Rail","railway":"station","ref:crs":"GWN","name:old":"Gowerton North","operator":"Trafnidiaeth Cymru","wikidata":"Q2319258","wikipedia":"en:Gowerton railway station","operator:cy":"Trafnidiaeth Cymru","operator:en":"Transport for Wales","naptan:AtcoCode":"9100GOWERTN","public_transport":"station"}},
{"type":"Feature","geometry":{"type":"Point","coordinates":[-3.8931979,51.9402678]},"properties":{"name":"Llangadog","network":"National Rail","railway":"station","ref:crs":"LLG","shelter":"yes","operator":"Trafnidiaeth Cymru","wikidata":"Q3405362","wikipedia":"en:Llangadog railway station","operator:cy":"Trafnidiaeth Cymru","operator:en":"Transport for Wales","request_stop":"yes","tactile_paving":"no","naptan:AtcoCode":"9100LLGADOG","public_transport":"station"}},
{"type":"Feature","geometry":{"type":"Point","coordinates":[-3.5301867,52.1333876]},"properties":{"name":"Garth","network":"National Rail","railway":"station","ref:crs":"GTH","alt_name":"Garth (Powys)","operator":"Trafnidiaeth Cymru","wikidata":"Q3406482","wikipedia":"en:Garth railway station (Powys)","operator:cy":"Trafnidiaeth Cymru","operator:en":"Transport for Wales","request_stop":"yes","naptan:AtcoCode":"9100GARTH","public_transport":"station"}},
{"type":"Feature","geometry":{"type":"Point","coordinates":[-3.4271436,52.1691098]},"properties":{"name":"Builth Road","network":"National Rail","railway":"station","ref:crs":"BHR","operator":"Trafnidiaeth Cymru","wikidata":"Q2680383","wikipedia":"en:Builth Road railway station","operator:cy":"Trafnidiaeth Cymru","operator:en":"Transport for Wales","request_stop":"yes","naptan:AtcoCode":"9100BUILTHR","public_transport":"station"}},
{"type":"Feature","geometry":{"type":"Point","coordinates":[-3.3216262,52.274332]},"properties":{"name":"Pen-y-Bont","network":"National Rail","railway":"station","ref:crs":"PNY","operator":"Trafnidiaeth Cymru","wikidata":"Q2804118","wikipedia":"en:Pen-y-Bont railway station","operator:cy":"Trafnidiaeth Cymru","operator:en":"Transport for Wales","request_stop":"yes","naptan:AtcoCode":"9100PYBONT","public_transport":"station"}},
{"type":"Feature","geometry":{"type":"Point","coordinates":[-3.1615439,52.3501452]},"properties":{"name":"Llangynllo","network":"National Rail","railway":"station","ref:crs":"LGO","operator":"Trafnidiaeth Cymru","wikidata":"Q2959622","wikipedia":"en:Llangynllo railway station","operator:cy":"Trafnidiaeth Cymru","operator:en":"Transport for Wales","request_stop":"yes","naptan:AtcoCode":"9100LLGUNLO","public_transport":"station"}},
{"type":"Feature","geometry":{"type":"Point","coordinates":[-3.8029949,51.9953284]},"properties":{"name":"Llandovery","name:cy":"Llanymddyfri","network":"National Rail","railway":"station","ref:crs":"LLV","operator":"Trafnidiaeth Cymru","wikidata":"Q2276109","wikipedia":"en:Llandovery railway station","operator:cy":"Trafnidiaeth Cymru","operator:en":"Transport for Wales","naptan:AtcoCode":"9100LLDVERY","public_transport":"station"}},
{"type":"Feature","geometry":{"type":"Point","coordinates":[-3.2131872,52.3363191]},"properties":{"name":"Llanbister Road","network":"National Rail","railway":"station","ref:crs":"LLT","operator":"Trafnidiaeth Cymru","wikidata":"Q2328623","wikipedia":"en:Llanbister Road railway station","operator:cy":"Trafnidiaeth Cymru","operator:en":"Transport for Wales","request_stop":"yes","naptan:AtcoCode":"9100LLBSTRD","public_transport":"station"}},
{"type":"Feature","geometry":{"type":"Point","coordinates":[-3.685776,52.0820713]},"properties":{"name":"Sugar Loaf","name:cy":"Dinas y Bwlch","network":"National Rail","railway":"station","ref:crs":"SUG","operator":"Trafnidiaeth Cymru","wikidata":"Q1887398","wikipedia":"en:Sugar Loaf railway station","operator:cy":"Trafnidiaeth Cymru","operator:en":"Transport for Wales","request_stop":"yes","naptan:AtcoCode":"9100SGRLOAF","public_transport":"station"}},
{"type":"Feature","geometry":{"type":"Point","coordinates":[-4.07874,51.6913467]},"properties":{"name":"Llangennech","source":"NPE","network":"National Rail","railway":"station","ref:crs":"LLH","operator":"Trafnidiaeth Cymru","wikidata":"Q2020482","wikipedia":"en:Llangennech railway station","operator:cy":"Trafnidiaeth Cymru","operator:en":"Transport for Wales","request_stop":"yes","naptan:AtcoCode":"9100LLGNNCH"}},
{"type":"Feature","geometry":{"type":"Point","coordinates":[-4.6312147,53.3073739]},"properties":{"name":"Holyhead","name:cy":"Caergybi","naptan:AtcoCode":"9100HLYH","network":"National Rail","railway":"station","ref:crs":"HHD","start_date":"1880-06","wikidata":"Q2398052","wikipedia":"en:Holyhead railway station"}},
{"type":"Feature","geometry":{"type":"Point","coordinates":[-3.0090126,51.8174352]},"properties":{"name":"Abergavenny","name:cy":"Y Fenni","name:en":"Abergavenny","network":"National Rail","railway":"station","ref:crs":"AGV","old_name":"Abergavenny Monmouth Road","operator":"Trafnidiaeth Cymru","wikidata":"Q1964010","wikipedia":"en:Abergavenny railway station","addr:street":"Station Approach","operator:cy":"Trafnidiaeth Cymru","operator:en":"Transport for Wales","addr:postcode":"NP7 5HS","naptan:AtcoCode":"9100ABRGVNY"}},
{"type":"Feature","geometry":{"type":"Point","coordinates":[-2.9996254,53.0463361]},"properties":{"name":"Wrexham Central","train":"yes","name:cy":"Wrecsam Canolog","network":"National Rail","railway":"station","ref:crs":"WXC","wikidata":"Q2433081","wikipedia":"en:Wrexham Central railway station","naptan:AtcoCode":"9100WREXHMC","public_transport":"station"}},
{"type":"Feature","geometry":{"type":"Point","coordinates":[-3.8854619,51.6615072]},"properties":{"name":"Llansamlet","network":"National Rail","railway":"station","ref:crs":"LAS","wikidata":"Q2518846","wikipedia":"en:Llansamlet railway station","naptan:AtcoCode":"9100LLNSMLT"}},
{"type":"Feature","geometry":{"type":"Point","coordinates":[-4.0827684,52.4243334]},"properties":{"name":"Aberystwyth Cliff Railway Upper Station","usage":"tourism","railway":"station","station":"funicular"}},
{"type":"Feature","geometry":{"type":"Point","coordinates":[-4.0839049,52.4223809]},"properties":{"name":"Aberystwyth Cliff Railway Lower Station","usage":"tourism","railway":"station","station":"funicular"}},
{"type":"Feature","geometry":{"type":"Point","coordinates":[-4.3949566,52.040521]},"properties":{"name":"Henllan","usage":"tourism","railway":"station","operator":"Rheilffordd Dyffryn Teifi","wikidata":"Q5714712","addr:city":"Henllan, Llandysul, Ceredigion","addr:postcode":"SA44 5TD","addr:housename":"Henllan Gorsaf / Station"}},
{"type":"Feature","geometry":{"type":"Point","coordinates":[-4.1180163,53.1045444]},"properties":{"name":"Hebron","usage":"tourism","source":"npe","railway":"station","wikidata":"Q27825950","wikipedia":"en:Hebron railway station"}},
{"type":"Feature","geometry":{"type":"Point","coordinates":[-4.0803839,53.0841378]},"properties":{"name":"Clogwyn","usage":"tourism","source":"Bing","railway":"station","wikidata":"Q26258162","wikipedia":"en:Clogwyn railway station"}},
{"type":"Feature","geometry":{"type":"Point","coordinates":[-4.0960793,53.0955784]},"properties":{"name":"Halfway","usage":"tourism","source":"NPE","railway":"station","wikidata":"Q27825948"}},
{"type":"Feature","geometry":{"type":"Point","coordinates":[-4.0303603,52.4399137]},"properties":{"name":"Bow Street","network":"National Rail","public_transport":"station","railway":"station","ref:crs":"BOW","ref:tiploc":"BOWSTRT","train":"yes","wikidata":"Q28195279","wikipedia":"en:Bow Street railway station"}},
{"type":"Feature","geometry":{"type":"Point","coordinates":[-4.4069336,52.0415956]},"properties":{"internet_access":"no","name":"Pontprenshitw","operator":"Teifi Valley Railway","railway":"station","train":"yes","usage":"tourism"}},
{"type":"Feature","geometry":{"type":"Point","coordinates":[-3.0320721,53.1848468]},"properties":{"name":"Hawarden","name:cy":"Penarlâg","network":"National Rail","railway":"station","ref:crs":"HWD","wikidata":"Q1880646","wikipedia":"en:Hawarden railway station","naptan:AtcoCode":"9100HAWARDN"}},
{"type":"Feature","geometry":{"type":"Point","coordinates":[-3.0015161,53.0505698]},"properties":{"name":"Wrexham General","name:cy":"Wrecsam Cyffredinol","name:en":"Wrexham General","naptan:AtcoCode":"9100WREXHMG","network":"National Rail","public_transport":"station","railway":"station","ref:crs":"WRX","train":"yes","wikidata":"Q2531369","wikipedia":"cy:Gorsaf reilffordd Wrecsam Cyffredinol","wikipedia:en":"Wrexham General railway station"}},
{"type":"Feature","geometry":{"type":"Point","coordinates":[-4.3952567,52.0400325]},"properties":{"addr:city":"Henllan","addr:housename":"Station Yard","addr:postcode":"SA44 5TD","name":"Henllan High Level","operator":"Teifi Valley Railway","public_transport":"station","railway":"station","train":"yes","usage":"tourism","website":"https://teifivalleyrailway.wales/the-railway/the-pixie-line.html"}},
{"type":"Feature","geometry":{"type":"Point","coordinates":[-3.0412227,51.5813041]},"properties":{"addr:city":"Newport","internet_access":"no","name":"Pye Corner","name:cy":"Pye Corner","naptan:AtcoCode":"9100PYECRNR","network":"National Rail","operator":"Transport for Wales","public_transport":"station","railway":"station","ref:crs":"PYE","train":"yes","wikidata":"Q7262951","wikipedia":"en:Pye Corner railway station"}}
]}
