{"type":"FeatureCollection","features":[
{"type":"Feature","geometry":{"type":"Point","coordinates":[-1.302992,52.8597482]},"properties":{"railway":"crossing"}},
{"type":"Feature","geometry":{"type":"Point","coordinates":[-1.300623,53.088555]},"properties":{"railway":"crossing"}},
{"type":"Feature","geometry":{"type":"Point","coordinates":[-1.4019837,53.3400433]},"properties":{"railway":"crossing"}},
{"type":"Feature","geometry":{"type":"Point","coordinates":[-1.5281579,53.0018129]},"properties":{"railway":"crossing"}},
{"type":"Feature","geometry":{"type":"Point","coordinates":[-1.2281427,52.9082668]},"properties":{"name":"Long Lane Crossing","railway":"crossing","crossing":"uncontrolled"}},
{"type":"Feature","geometry":{"type":"Point","coordinates":[-1.2042977,53.1827377]},"properties":{"railway":"crossing"}},
{"type":"Feature","geometry":{"type":"Point","coordinates":[-1.4581936,53.0687352]},"properties":{"railway":"crossing"}},
{"type":"Feature","geometry":{"type":"Point","coordinates":[-1.9857465,53.3445959]},"properties":{"source":"os_opendata_streetview","railway":"crossing"}},
{"type":"Feature","geometry":{"type":"Point","coordinates":[-1.9193196,53.3121006]},"properties":{"railway":"crossing"}},
{"type":"Feature","geometry":{"type":"Point","coordinates":[-1.8559832,53.2489616]},"properties":{"railway":"crossing"}},
{"type":"Feature","geometry":{"type":"Point","coordinates":[-1.2535529,52.8928213]},"properties":{"railway":"crossing"}},
{"type":"Feature","geometry":{"type":"Point","coordinates":[-1.2335271,52.9050009]},"properties":{"name":"Barratt Lane No. 1 Crossing","source":"local_knowledge","railway":"crossing"}},
{"type":"Feature","geometry":{"type":"Point","coordinates":[-1.4535402,52.8573217]},"properties":{"source":"GPS","railway":"crossing"}},
{"type":"Feature","geometry":{"type":"Point","coordinates":[-1.9030975,53.2724817]},"properties":{"railway":"crossing"}},
{"type":"Feature","geometry":{"type":"Point","coordinates":[-1.2196395,52.9134472]},"properties":{"source":"local_knowledge","railway":"crossing"}},
{"type":"Feature","geometry":{"type":"Point","coordinates":[-1.7529475,53.3445581]},"properties":{"railway":"crossing"}},
{"type":"Feature","geometry":{"type":"Point","coordinates":[-1.2281016,52.9082447]},"properties":{"name":"Long Lane Crossing","railway":"crossing","crossing":"uncontrolled"}},
{"type":"Feature","geometry":{"type":"Point","coordinates":[-1.2334865,52.9049781]},"properties":{"name":"Barratt Lane No. 1 Crossing","source":"local_knowledge","railway":"crossing"}},
{"type":"Feature","geometry":{"type":"Point","coordinates":[-1.9040851,53.3404484]},"properties":{"ele":"236.8487549","steps":"3","stile":"wall","barrier":"stile"}},
{"type":"Feature","geometry":{"type":"Point","coordinates":[-1.9040909,53.3404439]},"properties":{"ele":"236.1278076"}},
{"type":"Feature","geometry":{"type":"Point","coordinates":[-1.9040486,53.3403799]},"properties":{"ele":"232.7631836"}},
{"type":"Feature","geometry":{"type":"Point","coordinates":[-1.9039785,53.3403108]},"properties":{"ele":"232.5228271"}},
{"type":"Feature","geometry":{"type":"Point","coordinates":[-1.9039522,53.3402987]},"properties":{"ele":"233.9647217"}},
{"type":"Feature","geometry":{"type":"Point","coordinates":[-1.9039447,53.3402935]},"properties":{"steps":"2","stile":"wall","barrier":"stile"}},
{"type":"Feature","geometry":{"type":"Point","coordinates":[-1.5567089,53.122106]},"properties":{"railway":"crossing"}},
{"type":"Feature","geometry":{"type":"Point","coordinates":[-1.5670904,52.8575071]},"properties":{"railway":"crossing"}},
{"type":"Feature","geometry":{"type":"Point","coordinates":[-1.3809923,53.0628047]},"properties":{"railway":"crossing"}},
{"type":"Feature","geometry":{"type":"Point","coordinates":[-1.3006619,53.0886587]},"properties":{"railway":"crossing"}},
{"type":"Feature","geometry":{"type":"Point","coordinates":[-1.9030478,53.272462]},"properties":{"railway":"crossing"}},
{"type":"Feature","geometry":{"type":"Point","coordinates":[-1.5116095,52.9969376]},"properties":{"railway":"crossing"}},
{"type":"Feature","geometry":{"type":"Point","coordinates":[-1.3215738,53.0850718]},"properties":{"railway":"crossing"}},
{"type":"Feature","geometry":{"type":"Point","coordinates":[-1.3815871,52.8497922]},"properties":{"railway":"crossing"}},
{"type":"Feature","geometry":{"type":"Point","coordinates":[-1.5729437,53.1450088]},"properties":{"railway":"crossing"}},
{"type":"Feature","geometry":{"type":"Point","coordinates":[-1.5721545,53.1443156]},"properties":{"railway":"crossing"}},
{"type":"Feature","geometry":{"type":"Point","coordinates":[-1.5017074,52.9929434]},"properties":{"railway":"crossing"}},
{"type":"Feature","geometry":{"type":"Point","coordinates":[-1.5725176,53.0517362]},"properties":{"railway":"crossing"}},
{"type":"Feature","geometry":{"type":"Point","coordinates":[-1.2196058,52.9134263]},"properties":{"source":"local_knowledge","railway":"crossing"}},
{"type":"Feature","geometry":{"type":"Point","coordinates":[-1.4194084,52.9138545]},"properties":{"railway":"crossing"}},
{"type":"Feature","geometry":{"type":"Point","coordinates":[-1.4194506,52.9137892]},"properties":{"crossing:light":"yes","railway":"crossing"}},
{"type":"Feature","geometry":{"type":"Point","coordinates":[-1.4194263,52.9138261]},"properties":{"railway":"crossing"}},
{"type":"Feature","geometry":{"type":"Point","coordinates":[-1.2535181,52.8927989]},"properties":{"railway":"crossing"}},
{"type":"Feature","geometry":{"type":"Point","coordinates":[-1.5717304,53.04792]},"properties":{"railway":"crossing"}},
{"type":"Feature","geometry":{"type":"Point","coordinates":[-1.5486529,53.0189349]},"properties":{"railway":"crossing"}},
{"type":"Feature","geometry":{"type":"Point","coordinates":[-1.3498051,53.2824088]},"properties":{"railway":"crossing"}},
{"type":"Feature","geometry":{"type":"Point","coordinates":[-1.5757771,53.0711922]},"properties":{"railway":"crossing","crossing":"uncontrolled","supervised":"no"}},
{"type":"Feature","geometry":{"type":"Point","coordinates":[-1.9858009,53.3445929]},"properties":{"source":"os_opendata_streetview","railway":"crossing"}},
{"type":"Feature","geometry":{"type":"Point","coordinates":[-1.1703623,53.3018813]},"properties":{"railway":"crossing"}},
{"type":"Feature","geometry":{"type":"Point","coordinates":[-1.2042301,53.1827361]},"properties":{"railway":"crossing"}},
{"type":"Feature","geometry":{"type":"Point","coordinates":[-1.1889623,53.2858474]},"properties":{"railway":"crossing"}},
{"type":"Feature","geometry":{"type":"Point","coordinates":[-1.1889071,53.2858151]},"properties":{"railway":"crossing"}},
{"type":"Feature","geometry":{"type":"Point","coordinates":[-1.1704231,53.3019031]},"properties":{"railway":"crossing"}},
{"type":"Feature","geometry":{"type":"Point","coordinates":[-1.5670778,52.8575422]},"properties":{"railway":"crossing"}},
{"type":"Feature","geometry":{"type":"Point","coordinates":[-1.4535279,52.8572866]},"properties":{"source":"GPS","railway":"crossing"}},
{"type":"Feature","geometry":{"type":"Point","coordinates":[-1.3815492,52.8497611]},"properties":{"railway":"crossing"}},
{"type":"Feature","geometry":{"type":"Point","coordinates":[-1.3029576,52.8597192]},"properties":{"railway":"crossing"}},
{"type":"Feature","geometry":{"type":"Point","coordinates":[-1.6447177,53.3224673]},"properties":{"railway":"crossing"}},
{"type":"Feature","geometry":{"type":"Point","coordinates":[-1.6447726,53.3224436]},"properties":{"railway":"crossing"}},
{"type":"Feature","geometry":{"type":"Point","coordinates":[-1.9180625,53.2255274]},"properties":{"railway":"crossing","crossing":"unmarked"}},
{"type":"Feature","geometry":{"type":"Point","coordinates":[-1.9183641,53.2256008]},"properties":{"railway":"crossing","crossing":"unmarked"}},
{"type":"Feature","geometry":{"type":"Point","coordinates":[-1.9193269,53.3120623]},"properties":{"railway":"crossing"}},
{"type":"Feature","geometry":{"type":"Point","coordinates":[-1.3867629,53.0631402]},"properties":{"railway":"crossing"}},
{"type":"Feature","geometry":{"type":"Point","coordinates":[-1.3987676,53.0633332]},"properties":{"railway":"crossing"}},
{"type":"Feature","geometry":{"type":"Point","coordinates":[-1.3864645,53.0628237]},"properties":{"railway":"crossing"}},
{"type":"Feature","geometry":{"type":"Point","coordinates":[-1.3865241,53.0628786]},"properties":{"railway":"crossing"}},
{"type":"Feature","geometry":{"type":"Point","coordinates":[-1.3866153,53.0629692]},"properties":{"railway":"crossing"}},
{"type":"Feature","geometry":{"type":"Point","coordinates":[-1.3866593,53.0630115]},"properties":{"railway":"crossing"}},
{"type":"Feature","geometry":{"type":"Point","coordinates":[-1.3867104,53.0630608]},"properties":{"railway":"crossing"}},
{"type":"Feature","geometry":{"type":"Point","coordinates":[-1.3867792,53.0631789]},"properties":{"railway":"crossing"}},
{"type":"Feature","geometry":{"type":"Point","coordinates":[-1.3867971,53.0632216]},"properties":{"railway":"crossing"}},
{"type":"Feature","geometry":{"type":"Point","coordinates":[-1.8645369,52.8952584]},"properties":{"railway":"crossing"}},
{"type":"Feature","geometry":{"type":"Point","coordinates":[-1.864564,52.8952871]},"properties":{"railway":"crossing"}},
{"type":"Feature","geometry":{"type":"Point","coordinates":[-1.8796749,52.896378]},"properties":{"railway":"crossing"}},
{"type":"Feature","geometry":{"type":"Point","coordinates":[-1.8796478,52.8964057]},"properties":{"railway":"crossing"}},
{"type":"Feature","geometry":{"type":"Point","coordinates":[-1.7502295,53.3502915]},"properties":{"name":"Marshes Private Crossing","railway":"crossing"}},
{"type":"Feature","geometry":{"type":"Point","coordinates":[-1.8144811,52.8806674]},"properties":{"railway":"crossing"}},
{"type":"Feature","geometry":{"type":"Point","coordinates":[-1.8144643,52.8807006]},"properties":{"railway":"crossing"}},
{"type":"Feature","geometry":{"type":"Point","coordinates":[-1.6728008,52.7817268]},"properties":{"name":"Boultons Level Crossing","railway":"crossing"}},
{"type":"Feature","geometry":{"type":"Point","coordinates":[-1.6727629,52.7817083]},"properties":{"name":"Boultons Level Crossing","railway":"crossing"}},
{"type":"Feature","geometry":{"type":"Point","coordinates":[-1.587482,53.1562407]},"properties":{"railway":"crossing"}},
{"type":"Feature","geometry":{"type":"Point","coordinates":[-1.4340658,53.2332107]},"properties":{"railway":"crossing","crossing":"uncontrolled","crossing:light":"no","crossing:barrier":"no"}},
{"type":"Feature","geometry":{"type":"Point","coordinates":[-1.6665655,52.7866584]},"properties":{"railway":"crossing"}},
{"type":"Feature","geometry":{"type":"Point","coordinates":[-1.6666047,52.786676]},"properties":{"railway":"crossing"}},
{"type":"Feature","geometry":{"type":"Point","coordinates":[-1.6074229,53.170767]},"properties":{"railway":"crossing"}},
{"type":"Feature","geometry":{"type":"Point","coordinates":[-1.9401159,53.4477307]},"properties":{"railway":"crossing","crossing":"uncontrolled","supervised":"no"}},
{"type":"Feature","geometry":{"type":"Point","coordinates":[-1.940108,53.4486331]},"properties":{"railway":"crossing","crossing":"uncontrolled","supervised":"no"}},
{"type":"Feature","geometry":{"type":"Point","coordinates":[-1.6660507,53.3310436]},"properties":{"railway":"crossing"}},
{"type":"Feature","geometry":{"type":"Point","coordinates":[-1.666015,53.3310796]},"properties":{"railway":"crossing"}},
{"type":"Feature","geometry":{"type":"Point","coordinates":[-1.3497664,53.2823865]},"properties":{"railway":"crossing"}},
{"type":"Feature","geometry":{"type":"Point","coordinates":[-1.750204,53.3502807]},"properties":{"railway":"crossing"}},
{"type":"Feature","geometry":{"type":"Point","coordinates":[-1.3988967,53.3404806]},"properties":{"railway":"crossing"}},
{"type":"Feature","geometry":{"type":"Point","coordinates":[-1.3997019,53.3403702]},"properties":{"railway":"crossing"}},
{"type":"Feature","geometry":{"type":"Point","coordinates":[-1.3297101,52.852714]},"properties":{"railway":"crossing"}},
{"type":"Feature","geometry":{"type":"Point","coordinates":[-1.3297096,52.8526781]},"properties":{"railway":"crossing"}},
{"type":"Feature","geometry":{"type":"Point","coordinates":[-1.5688789,53.0790667]},"properties":{"crossing":"uncontrolled","railway":"crossing","supervised":"no"}},
{"type":"Feature","geometry":{"type":"Point","coordinates":[-1.1650274,53.3068711]},"properties":{"railway":"crossing"}},
{"type":"Feature","geometry":{"type":"Point","coordinates":[-1.1650901,53.3068871]},"properties":{"railway":"crossing"}},
{"type":"Feature","geometry":{"type":"Point","coordinates":[-1.435634,53.2343557]},"properties":{"railway":"crossing"}},
{"type":"Feature","geometry":{"type":"Point","coordinates":[-1.4201557,53.3431001]},"properties":{"railway":"crossing"}},
{"type":"Feature","geometry":{"type":"Point","coordinates":[-1.420123,53.3431412]},"properties":{"railway":"crossing"}},
{"type":"Feature","geometry":{"type":"Point","coordinates":[-1.3988877,53.3404554]},"properties":{"railway":"crossing"}},
{"type":"Feature","geometry":{"type":"Point","coordinates":[-1.4019717,53.3400093]},"properties":{"railway":"crossing"}},
{"type":"Feature","geometry":{"type":"Point","coordinates":[-1.3996895,53.3403388]},"properties":{"railway":"crossing"}},
{"type":"Feature","geometry":{"type":"Point","coordinates":[-1.419539,53.3430435]},"properties":{"railway":"crossing"}},
{"type":"Feature","geometry":{"type":"Point","coordinates":[-1.4195585,53.3429945]},"properties":{"railway":"crossing"}},
{"type":"Feature","geometry":{"type":"Point","coordinates":[-1.4187997,53.3429281]},"properties":{"railway":"crossing"}},
{"type":"Feature","geometry":{"type":"Point","coordinates":[-1.4188239,53.3428834]},"properties":{"railway":"crossing"}},
{"type":"Feature","geometry":{"type":"Point","coordinates":[-1.4253191,53.3445084]},"properties":{"railway":"crossing"}},
{"type":"Feature","geometry":{"type":"Point","coordinates":[-1.4082873,53.0629927]},"properties":{"railway":"crossing"}},
{"type":"Feature","geometry":{"type":"Point","coordinates":[-1.4083025,53.0630244]},"properties":{"railway":"crossing"}},
{"type":"Feature","geometry":{"type":"Point","coordinates":[-1.4062048,53.0630786]},"properties":{"railway":"crossing"}},
{"type":"Feature","geometry":{"type":"Point","coordinates":[-1.4062075,53.0631107]},"properties":{"railway":"crossing"}},
{"type":"Feature","geometry":{"type":"Point","coordinates":[-1.3987522,53.0633638]},"properties":{"railway":"crossing"}},
{"type":"Feature","geometry":{"type":"Point","coordinates":[-1.3991539,53.063269]},"properties":{"railway":"crossing"}},
{"type":"Feature","geometry":{"type":"Point","coordinates":[-1.3892339,53.0626364]},"properties":{"railway":"crossing"}},
{"type":"Feature","geometry":{"type":"Point","coordinates":[-1.3871828,53.0632617]},"properties":{"railway":"crossing"}},
{"type":"Feature","geometry":{"type":"Point","coordinates":[-1.3865526,53.0629069]},"properties":{"railway":"crossing"}},
{"type":"Feature","geometry":{"type":"Point","coordinates":[-1.3865808,53.0629349]},"properties":{"railway":"crossing"}},
{"type":"Feature","geometry":{"type":"Point","coordinates":[-1.3864958,53.0628525]},"properties":{"railway":"crossing"}},
{"type":"Feature","geometry":{"type":"Point","coordinates":[-1.6427385,52.8583358]},"properties":{"railway":"crossing"}},
{"type":"Feature","geometry":{"type":"Point","coordinates":[-1.6427445,52.8582994]},"properties":{"railway":"crossing"}},
{"type":"Feature","geometry":{"type":"Point","coordinates":[-1.7168633,52.868581]},"properties":{"railway":"crossing"}},
{"type":"Feature","geometry":{"type":"Point","coordinates":[-1.7168533,52.8686154]},"properties":{"railway":"crossing"}},
{"type":"Feature","geometry":{"type":"Point","coordinates":[-1.7141797,52.8683052]},"properties":{"name":"Forresters Arms Level Crossing","railway":"crossing"}},
{"type":"Feature","geometry":{"type":"Point","coordinates":[-1.7141896,52.8682721]},"properties":{"name":"Forresters Arms Level Crossing","railway":"crossing"}},
{"type":"Feature","geometry":{"type":"Point","coordinates":[-1.4082873,53.0629927]},"properties":{"railway":"crossing"}},
{"type":"Feature","geometry":{"type":"Point","coordinates":[-1.9388493,52.9076091]},"properties":{"railway":"crossing"}},
{"type":"Feature","geometry":{"type":"Point","coordinates":[-1.9388273,52.9076364]},"properties":{"railway":"crossing"}},
{"type":"Feature","geometry":{"type":"Point","coordinates":[-1.5486846,53.018911]},"properties":{"railway":"crossing"}},
{"type":"Feature","geometry":{"type":"LineString","coordinates":[[-1.9040909,53.3404439],[-1.9040486,53.3403799]]},"properties":{"foot":"designated","source":"GPS","highway":"steps","railway":"crossing","designation":"public_footpath"}},
{"type":"Feature","geometry":{"type":"LineString","coordinates":[[-1.9040486,53.3403799],[-1.9040222,53.340352],[-1.9040017,53.3403324],[-1.9039785,53.3403108]]},"properties":{"foot":"designated","source":"GPS","highway":"footway","railway":"crossing","designation":"public_footpath"}},
{"type":"Feature","geometry":{"type":"LineString","coordinates":[[-1.9039785,53.3403108],[-1.9039522,53.3402987]]},"properties":{"foot":"designated","source":"GPS","highway":"steps","railway":"crossing","designation":"public_footpath"}},
{"type":"Feature","geometry":{"type":"LineString","coordinates":[[-1.9039522,53.3402987],[-1.9039447,53.3402935]]},"properties":{"foot":"designated","source":"GPS","highway":"footway","railway":"crossing","designation":"public_footpath"}},
{"type":"Feature","geometry":{"type":"LineString","coordinates":[[-1.9040851,53.3404484],[-1.9040909,53.3404439]]},"properties":{"foot":"designated","source":"GPS","highway":"footway","railway":"crossing","designation":"public_footpath"}}
]}
