{"type":"FeatureCollection","features":[
{"type":"Feature","geometry":{"type":"Point","coordinates":[-0.0365566,51.3548755]},"properties":{"railway":"level_crossing"}},
{"type":"Feature","geometry":{"type":"Point","coordinates":[-0.0419388,51.3547107]},"properties":{"railway":"level_crossing"}},
{"type":"Feature","geometry":{"type":"Point","coordinates":[-0.0417863,51.3547556]},"properties":{"railway":"level_crossing"}},
{"type":"Feature","geometry":{"type":"Point","coordinates":[-0.0653308,51.3870773]},"properties":{"name":"Woodside","tram":"yes","source":"http://en.wikipedia.org/wiki/Tramlink","network":"London Trams","railway":"tram_stop","operator":"Transport for London","wikidata":"Q8033361","naptan:AtcoCode":"9400ZZCRWOD1","public_transport":"stop_position"}},
{"type":"Feature","geometry":{"type":"Point","coordinates":[-0.070221,51.3849891]},"properties":{"name":"Blackhorse Lane","tram":"yes","source":"http://en.wikipedia.org/wiki/Tramlink","network":"London Trams","railway":"tram_stop","operator":"Transport for London","wikidata":"Q4923016","wikipedia":"en:Blackhorse Lane tram stop","naptan:AtcoCode":"9400ZZCRBLA1","public_transport":"stop_position"}},
{"type":"Feature","geometry":{"type":"Point","coordinates":[-0.0604358,51.3598422]},"properties":{"railway":"crossing"}},
{"type":"Feature","geometry":{"type":"Point","coordinates":[-0.0429213,51.3545721]},"properties":{"name":"Gravel Hill","tram":"yes","source":"http://en.wikipedia.org/wiki/Tramlink","network":"London Trams","railway":"tram_stop","operator":"Transport for London","wikidata":"Q5597828","naptan:AtcoCode":"9400ZZCRGRA1","public_transport":"stop_position"}},
{"type":"Feature","geometry":{"type":"Point","coordinates":[-0.1882163,51.4065853]},"properties":{"bicycle":"yes","railway":"crossing"}},
{"type":"Feature","geometry":{"type":"Point","coordinates":[-0.1738649,51.3982149]},"properties":{"railway":"switch"}},
{"type":"Feature","geometry":{"type":"Point","coordinates":[-0.1711521,51.3975335]},"properties":{"name":"Mitcham","tram":"yes","source":"http://en.wikipedia.org/wiki/Tramlink","network":"London Trams","railway":"tram_stop","operator":"Transport for London","wikidata":"Q12061902","naptan:AtcoCode":"9400ZZCRMCH1","public_transport":"stop_position"}},
{"type":"Feature","geometry":{"type":"Point","coordinates":[-0.1592437,51.3932401]},"properties":{"railway":"switch"}},
{"type":"Feature","geometry":{"type":"Point","coordinates":[-0.1562552,51.3923814]},"properties":{"railway":"switch"}},
{"type":"Feature","geometry":{"type":"Point","coordinates":[-0.1428504,51.3894605]},"properties":{"name":"Beddington Lane","tram":"yes","source":"http://en.wikipedia.org/wiki/Tramlink","network":"London Trams","railway":"tram_stop","operator":"Transport for London","wikidata":"Q4879025","naptan:AtcoCode":"9400ZZCRBED1","public_transport":"stop_position"}},
{"type":"Feature","geometry":{"type":"Point","coordinates":[-0.1290915,51.3856974]},"properties":{"name":"Therapia Lane","tram":"yes","source":"http://en.wikipedia.org/wiki/Tramlink","network":"London Trams","railway":"tram_stop","operator":"Transport for London","wikidata":"Q7782528","wikipedia":"en:Therapia Lane tram stop","naptan:AtcoCode":"9400ZZCRTPA1","public_transport":"stop_position"}},
{"type":"Feature","geometry":{"type":"Point","coordinates":[-0.1236871,51.3823591]},"properties":{"name":"Ampere Way","tram":"yes","source":"http://en.wikipedia.org/wiki/Tramlink","network":"London Trams","railway":"tram_stop","alt_name":"IKEA Ampere Way","operator":"Transport for London","wikidata":"Q4748124","wikipedia":"en:Ampere Way tram stop","naptan:AtcoCode":"9400ZZCRAMP1","public_transport":"stop_position"}},
{"type":"Feature","geometry":{"type":"Point","coordinates":[-0.119762,51.3786226]},"properties":{"railway":"crossing"}},
{"type":"Feature","geometry":{"type":"Point","coordinates":[-0.1178267,51.3770031]},"properties":{"name":"Waddon Marsh","tram":"yes","source":"http://en.wikipedia.org/wiki/Tramlink","network":"London Trams","railway":"tram_stop","operator":"Transport for London","wikidata":"Q7959003","naptan:AtcoCode":"9400ZZCRWAD1","public_transport":"stop_position"}},
{"type":"Feature","geometry":{"type":"Point","coordinates":[-0.1133617,51.3734814]},"properties":{"name":"Wandle Park","tram":"yes","source":"http://en.wikipedia.org/wiki/Tramlink","network":"London Trams","railway":"tram_stop","operator":"Transport for London","wikidata":"Q7967268","wikipedia":"en:Wandle Park tram stop","naptan:AtcoCode":"9400ZZCRWAN1","public_transport":"stop_position"}},
{"type":"Feature","geometry":{"type":"Point","coordinates":[-0.1062841,51.3750331]},"properties":{"railway":"level_crossing"}},
{"type":"Feature","geometry":{"type":"Point","coordinates":[-0.1524955,51.391706]},"properties":{"railway":"crossing"}},
{"type":"Feature","geometry":{"type":"Point","coordinates":[-0.0585076,51.3914294]},"properties":{"foot":"yes","railway":"crossing"}},
{"type":"Feature","geometry":{"type":"Point","coordinates":[-0.0761524,51.3745478]},"properties":{"railway":"switch"}},
{"type":"Feature","geometry":{"type":"Point","coordinates":[-0.0777467,51.3749647]},"properties":{"name":"Sandilands","tram":"yes","source":"http://en.wikipedia.org/wiki/Tramlink","network":"London Trams","railway":"tram_stop","operator":"Transport for London","wikidata":"Q7416357","wheelchair":"yes","naptan:AtcoCode":"9400ZZCRSAN1","public_transport":"stop_position","toilets:wheelchair":"no"}},
{"type":"Feature","geometry":{"type":"Point","coordinates":[-0.0772604,51.3748807]},"properties":{"railway":"level_crossing"}},
{"type":"Feature","geometry":{"type":"Point","coordinates":[-0.0369233,51.3545555]},"properties":{"railway":"level_crossing"}},
{"type":"Feature","geometry":{"type":"Point","coordinates":[-0.0328821,51.3562667]},"properties":{"name":"Addington Village","tram":"yes","network":"London Trams","railway":"tram_stop","operator":"Transport for London","naptan:AtcoCode":"9400ZZCRADV1","public_transport":"stop_position"}},
{"type":"Feature","geometry":{"type":"Point","coordinates":[-0.0241702,51.3509685]},"properties":{"name":"Fieldway","tram":"yes","source":"http://en.wikipedia.org/wiki/Tramlink","network":"London Trams","railway":"tram_stop","operator":"Transport for London","wikidata":"Q5447235","wikipedia":"en:Fieldway tram stop","naptan:AtcoCode":"9400ZZCRFLD1","public_transport":"stop_position"}},
{"type":"Feature","geometry":{"type":"Point","coordinates":[-0.0202322,51.3453762]},"properties":{"name":"King Henry's Drive","tram":"yes","source":"http://en.wikipedia.org/wiki/Tramlink","network":"London Trams","railway":"tram_stop","operator":"Transport for London","wikidata":"Q6411696","wikipedia":"en:King Henry's Drive tram stop","naptan:AtcoCode":"9400ZZCRKGH1","public_transport":"stop_position"}},
{"type":"Feature","geometry":{"type":"Point","coordinates":[-0.0182102,51.3430896]},"properties":{"railway":"level_crossing"}},
{"type":"Feature","geometry":{"type":"Point","coordinates":[-0.0175461,51.3426389]},"properties":{"name":"New Addington","tram":"yes","public_transport":"stop_position"}},
{"type":"Feature","geometry":{"type":"Point","coordinates":[-0.14169,51.3891989]},"properties":{"railway":"level_crossing"}},
{"type":"Feature","geometry":{"type":"Point","coordinates":[-0.1062524,51.374803]},"properties":{"name":"Reeves Corner","tram":"yes","source":"http://en.wikipedia.org/wiki/Tramlink","network":"London Trams","railway":"tram_stop","operator":"Transport for London","wikidata":"Q7307059","wikipedia":"en:Reeves Corner tram stop","naptan:AtcoCode":"4900020014A","public_transport":"stop_position"}},
{"type":"Feature","geometry":{"type":"Point","coordinates":[-0.0922494,51.3749557]},"properties":{"railway":"switch"}},
{"type":"Feature","geometry":{"type":"Point","coordinates":[-0.0989116,51.3739003]},"properties":{"name":"George Street","tram":"yes","source":"http://en.wikipedia.org/wiki/Tramlink","network":"London Trams","railway":"tram_stop","operator":"Transport for London","wikidata":"Q5544906","wheelchair":"yes","naptan:AtcoCode":"9400ZZCRCEN1","public_transport":"stop_position"}},
{"type":"Feature","geometry":{"type":"Point","coordinates":[-0.0559544,51.3587004]},"properties":{"railway":"level_crossing"}},
{"type":"Feature","geometry":{"type":"Point","coordinates":[-0.0341968,51.356237900000007]},"properties":{"railway":"level_crossing"}},
{"type":"Feature","geometry":{"type":"Point","coordinates":[-0.0209743,51.346152]},"properties":{"railway":"level_crossing"}},
{"type":"Feature","geometry":{"type":"Point","coordinates":[-0.021029,51.3461425]},"properties":{"railway":"level_crossing"}},
{"type":"Feature","geometry":{"type":"Point","coordinates":[-0.0217455,51.3469313]},"properties":{"railway":"level_crossing"}},
{"type":"Feature","geometry":{"type":"Point","coordinates":[-0.1055382,51.3742868]},"properties":{"railway":"crossing"}},
{"type":"Feature","geometry":{"type":"Point","coordinates":[-0.1054919,51.3741935]},"properties":{"highway":"crossing","railway":"level_crossing","crossing":"traffic_signals"}},
{"type":"Feature","geometry":{"type":"Point","coordinates":[-0.0935178,51.374671]},"properties":{"railway":"switch"}},
{"type":"Feature","geometry":{"type":"Point","coordinates":[-0.0681547,51.3630643]},"properties":{"railway":"level_crossing"}},
{"type":"Feature","geometry":{"type":"Point","coordinates":[-0.100004,51.3796261]},"properties":{"railway":"level_crossing"}},
{"type":"Feature","geometry":{"type":"Point","coordinates":[-0.0576382,51.3920363]},"properties":{"railway":"switch"}},
{"type":"Feature","geometry":{"type":"Point","coordinates":[-0.0558016,51.4037479]},"properties":{"name":"Birkbeck","tram":"yes","source":"http://en.wikipedia.org/wiki/Tramlink","network":"London Trams","railway":"tram_stop","operator":"Transport for London","naptan:AtcoCode":"9400ZZCRBIR1","public_transport":"stop_position"}},
{"type":"Feature","geometry":{"type":"Point","coordinates":[-0.0616584,51.4004468]},"properties":{"railway":"switch"}},
{"type":"Feature","geometry":{"type":"Point","coordinates":[-0.0604811,51.399663]},"properties":{"name":"Harrington Road","tram":"yes","source":"http://en.wikipedia.org/wiki/Tramlink","network":"London Trams","railway":"tram_stop","operator":"Transport for London","wikidata":"Q5664640","naptan:AtcoCode":"9400ZZCRHAR1","public_transport":"stop_position"}},
{"type":"Feature","geometry":{"type":"Point","coordinates":[-0.026557,51.4108107]},"properties":{"name":"Beckenham Junction","tram":"yes","public_transport":"stop_position"}},
{"type":"Feature","geometry":{"type":"Point","coordinates":[-0.0431569,51.4096366]},"properties":{"name":"Beckenham Road","tram":"yes","source":"http://en.wikipedia.org/wiki/Tramlink","network":"London Trams","railway":"tram_stop","operator":"Transport for London","wikidata":"Q4878648","naptan:AtcoCode":"9400ZZCRBRD1","public_transport":"stop_position"}},
{"type":"Feature","geometry":{"type":"Point","coordinates":[-0.1026024,51.3779282]},"properties":{"highway":"traffic_signals"}},
{"type":"Feature","geometry":{"type":"Point","coordinates":[-0.100393,51.3796629]},"properties":{"highway":"crossing","crossing":"traffic_signals","crossing_ref":"pelican","traffic_signals":"pedestrian_crossing"}},
{"type":"Feature","geometry":{"type":"Point","coordinates":[-0.0976166,51.3756242]},"properties":{"name":"Wellesley Road","tram":"yes","source":"http://en.wikipedia.org/wiki/Tramlink","network":"London Trams","railway":"tram_stop","operator":"Transport for London","wikidata":"Q7981260","addr:city":"Croydon","wheelchair":"yes","addr:street":"Wellesley Road","naptan:AtcoCode":"9400ZZCRWEL1","public_transport":"stop_position","wheelchair:description":"Step-free from platform to tram"}},
{"type":"Feature","geometry":{"type":"Point","coordinates":[-0.0966344,51.3743185]},"properties":{"railway":"crossing"}},
{"type":"Feature","geometry":{"type":"Point","coordinates":[-0.0600802,51.3598192]},"properties":{"name":"Coombe Lane","tram":"yes","source":"http://en.wikipedia.org/wiki/Tramlink","network":"London Trams","railway":"tram_stop","operator":"Transport for London","wikidata":"Q5167607","naptan:AtcoCode":"9400ZZCRCOO1","public_transport":"stop_position"}},
{"type":"Feature","geometry":{"type":"Point","coordinates":[-0.1020186,51.3735154]},"properties":{"highway":"traffic_signals"}},
{"type":"Feature","geometry":{"type":"Point","coordinates":[-0.1050519,51.373928]},"properties":{"railway":"level_crossing"}},
{"type":"Feature","geometry":{"type":"Point","coordinates":[-0.1042366,51.373656]},"properties":{"name":"Church Street","tram":"yes","source":"http://en.wikipedia.org/wiki/Tramlink","network":"London Trams","railway":"tram_stop","operator":"Transport for London","wikidata":"Q5116720","naptan:AtcoCode":"9400ZZCRCHR1","public_transport":"stop_position"}},
{"type":"Feature","geometry":{"type":"Point","coordinates":[-0.1130396,51.3733621]},"properties":{"railway":"crossing"}},
{"type":"Feature","geometry":{"type":"Point","coordinates":[-0.2074129,51.4173168]},"properties":{"railway":"level_crossing","crossing:light":"yes","crossing:barrier":"no"}},
{"type":"Feature","geometry":{"type":"Point","coordinates":[-0.0608961,51.3949153]},"properties":{"bicycle":"dismount","railway":"level_crossing","pedestrian":"yes"}},
{"type":"Feature","geometry":{"type":"Point","coordinates":[-0.1781192,51.4008349]},"properties":{"railway":"crossing","crossing":"traffic_signals","crossing:light":"yes"}},
{"type":"Feature","geometry":{"type":"Point","coordinates":[-0.0310702,51.3557652]},"properties":{"railway":"level_crossing","description":"Give way to trams"}},
{"type":"Feature","geometry":{"type":"Point","coordinates":[-0.049519,51.4067969]},"properties":{"name":"Avenue Road","tram":"yes","source":"http://en.wikipedia.org/wiki/Tramlink","network":"London Trams","railway":"tram_stop","operator":"Transport for London","wikidata":"Q4828205","naptan:AtcoCode":"9400ZZCRAVE1","public_transport":"stop_position"}},
{"type":"Feature","geometry":{"type":"Point","coordinates":[-0.0500169,51.4065494]},"properties":{"railway":"crossing"}},
{"type":"Feature","geometry":{"type":"Point","coordinates":[-0.0582529,51.3916054]},"properties":{"name":"Arena","tram":"yes","source":"http://en.wikipedia.org/wiki/Tramlink","network":"London Trams","railway":"tram_stop","operator":"Transport for London","wikidata":"Q2446177","naptan:AtcoCode":"9400ZZCRARA1","public_transport":"stop_position"}},
{"type":"Feature","geometry":{"type":"Point","coordinates":[-0.073267,51.3799365]},"properties":{"name":"Addiscombe","tram":"yes","source":"http://en.wikipedia.org/wiki/Tramlink","network":"London Trams","railway":"tram_stop","operator":"Transport for London","wikidata":"Q4681215","wheelchair":"yes","naptan:AtcoCode":"9400ZZCRADD1","public_transport":"stop_position"}},
{"type":"Feature","geometry":{"type":"Point","coordinates":[-0.205497,51.421317]},"properties":{"name":"Wimbledon","tram":"yes","public_transport":"stop_position"}},
{"type":"Feature","geometry":{"type":"Point","coordinates":[-0.0495263,51.3983499]},"properties":{"name":"Elmers End","tram":"yes","source":"http://en.wikipedia.org/wiki/Tramlink","network":"London Trams","railway":"tram_stop","operator":"Transport for London","naptan:AtcoCode":"9400ZZCRELM1","public_transport":"stop_position"}},
{"type":"Feature","geometry":{"type":"Point","coordinates":[-0.1037838,51.3758669]},"properties":{"name":"Centrale","tram":"yes","source":"http://en.wikipedia.org/wiki/Tramlink","network":"London Trams","railway":"tram_stop","operator":"Transport for London","wikidata":"Q5062168","wikipedia":"en:Centrale tram stop","naptan:AtcoCode":"9400ZZCRCTR1","public_transport":"stop_position"}},
{"type":"Feature","geometry":{"type":"Point","coordinates":[-0.0333325,51.3562839]},"properties":{"bicycle":"yes","railway":"crossing","crossing":"uncontrolled"}},
{"type":"Feature","geometry":{"type":"Point","coordinates":[-0.0601827,51.3994619]},"properties":{"railway":"level_crossing"}},
{"type":"Feature","geometry":{"type":"Point","coordinates":[-0.0598574,51.3992133]},"properties":{"railway":"crossing"}},
{"type":"Feature","geometry":{"type":"Point","coordinates":[-0.057128,51.3923243]},"properties":{"foot":"yes","railway":"crossing"}},
{"type":"Feature","geometry":{"type":"Point","coordinates":[-0.0261587,51.4107184]},"properties":{"railway":"buffer_stop"}},
{"type":"Feature","geometry":{"type":"Point","coordinates":[-0.0272087,51.4109183]},"properties":{"railway":"switch"}},
{"type":"Feature","geometry":{"type":"Point","coordinates":[-0.0265779,51.4107561]},"properties":{"name":"Beckenham Junction","tram":"yes","public_transport":"stop_position"}},
{"type":"Feature","geometry":{"type":"Point","coordinates":[-0.0261862,51.4106661]},"properties":{"railway":"buffer_stop"}},
{"type":"Feature","geometry":{"type":"Point","coordinates":[-0.0427281,51.4097824]},"properties":{"railway":"switch"}},
{"type":"Feature","geometry":{"type":"Point","coordinates":[-0.0997163,51.3784414]},"properties":{"railway":"level_crossing"}},
{"type":"Feature","geometry":{"type":"Point","coordinates":[-0.0732397,51.3802694]},"properties":{"railway":"level_crossing"}},
{"type":"Feature","geometry":{"type":"Point","coordinates":[-0.0733004,51.3795019]},"properties":{"railway":"level_crossing"}},
{"type":"Feature","geometry":{"type":"Point","coordinates":[-0.1998714,51.4124454]},"properties":{"bicycle":"yes","pedestrian":"yes","railway":"crossing"}},
{"type":"Feature","geometry":{"type":"Point","coordinates":[-0.2020844,51.4144615]},"properties":{"railway":"level_crossing"}},
{"type":"Feature","geometry":{"type":"Point","coordinates":[-0.0199649,51.3450731]},"properties":{"railway":"level_crossing"}},
{"type":"Feature","geometry":{"type":"Point","coordinates":[-0.0597283,51.3597964]},"properties":{"railway":"crossing"}},
{"type":"Feature","geometry":{"type":"Point","coordinates":[-0.0827407,51.3644508]},"properties":{"railway":"level_crossing"}},
{"type":"Feature","geometry":{"type":"Point","coordinates":[-0.0800612,51.3641824]},"properties":{"railway":"level_crossing"}},
{"type":"Feature","geometry":{"type":"Point","coordinates":[-0.0829482,51.3656651]},"properties":{"railway":"level_crossing","crossing:barrier":"no"}},
{"type":"Feature","geometry":{"type":"Point","coordinates":[-0.0614084,51.3959081]},"properties":{"bicycle":"yes","railway":"crossing","pedestrian":"yes"}},
{"type":"Feature","geometry":{"type":"Point","coordinates":[-0.0581869,51.3933977]},"properties":{"note":"This is a foot crossing","bicycle":"dismount","railway":"crossing"}},
{"type":"Feature","geometry":{"type":"Point","coordinates":[-0.0573944,51.3923918]},"properties":{"foot":"yes","railway":"crossing"}},
{"type":"Feature","geometry":{"type":"Point","coordinates":[-0.0571712,51.3923513]},"properties":{"foot":"yes","railway":"crossing"}},
{"type":"Feature","geometry":{"type":"Point","coordinates":[-0.059436,51.3597782]},"properties":{"bicycle":"yes","railway":"level_crossing"}},
{"type":"Feature","geometry":{"type":"Point","coordinates":[-0.0667202,51.3629071]},"properties":{"railway":"crossing"}},
{"type":"Feature","geometry":{"type":"Point","coordinates":[-0.1713969,51.397564]},"properties":{"railway":"crossing"}},
{"type":"Feature","geometry":{"type":"Point","coordinates":[-0.0810341,51.3642443]},"properties":{"railway":"crossing"}},
{"type":"Feature","geometry":{"type":"Point","coordinates":[-0.2053566,51.4214075]},"properties":{"railway":"buffer_stop"}},
{"type":"Feature","geometry":{"type":"Point","coordinates":[-0.0189923,51.3438727]},"properties":{"railway":"switch"}},
{"type":"Feature","geometry":{"type":"Point","coordinates":[-0.0177063,51.3427421]},"properties":{"highway":"crossing","crossing":"marked"}},
{"type":"Feature","geometry":{"type":"Point","coordinates":[-0.0918117,51.3751214]},"properties":{"railway":"level_crossing"}},
{"type":"Feature","geometry":{"type":"Point","coordinates":[-0.1071282,51.375249]},"properties":{"railway":"switch"}},
{"type":"Feature","geometry":{"type":"Point","coordinates":[-0.0559289,51.3585702]},"properties":{"railway":"level_crossing"}},
{"type":"Feature","geometry":{"type":"Point","coordinates":[-0.0910133,51.3753249]},"properties":{"railway":"level_crossing"}},
{"type":"Feature","geometry":{"type":"Point","coordinates":[-0.1016245,51.3790494]},"properties":{"name":"West Croydon","tram":"yes","source":"http://en.wikipedia.org/wiki/Tramlink","network":"London Trams","railway":"tram_stop","operator":"Transport for London","wheelchair":"yes","naptan:AtcoCode":"9400ZZCRWCR1","public_transport":"stop_position","wheelchair:description":"Step-free from platform to tram, & to Bus station opposite. Ramp to West Croydon railway station."}},
{"type":"Feature","geometry":{"type":"Point","coordinates":[-0.0935122,51.3747141]},"properties":{"railway":"switch"}},
{"type":"Feature","geometry":{"type":"Point","coordinates":[-0.0931268,51.3747762]},"properties":{"railway":"switch"}},
{"type":"Feature","geometry":{"type":"Point","coordinates":[-0.0926469,51.3749081]},"properties":{"name":"East Croydon","public_transport":"stop_position","public_transport:version":"2","railway":"tram_stop","tram":"yes"}},
{"type":"Feature","geometry":{"type":"Point","coordinates":[-0.0919174,51.3750787]},"properties":{"railway":"switch"}},
{"type":"Feature","geometry":{"type":"Point","coordinates":[-0.0847328,51.3752087]},"properties":{"name":"Lebanon Road","tram":"yes","network":"London Trams","railway":"tram_stop","operator":"Transport for London","wikidata":"Q6511121","wheelchair":"yes","naptan:AtcoCode":"9400ZZCRLEB1","public_transport":"stop_position","toilets:wheelchair":"no"}},
{"type":"Feature","geometry":{"type":"Point","coordinates":[-0.0173309,51.3425011]},"properties":{"railway":"buffer_stop"}},
{"type":"Feature","geometry":{"type":"Point","coordinates":[-0.0172541,51.3425464]},"properties":{"railway":"buffer_stop"}},
{"type":"Feature","geometry":{"type":"Point","coordinates":[-0.0176349,51.3427854]},"properties":{"highway":"crossing","crossing":"marked"}},
{"type":"Feature","geometry":{"type":"Point","coordinates":[-0.0184514,51.3432609]},"properties":{"railway":"switch"}},
{"type":"Feature","geometry":{"type":"Point","coordinates":[-0.0200044,51.3450596]},"properties":{"railway":"level_crossing"}},
{"type":"Feature","geometry":{"type":"Point","coordinates":[-0.0203926,51.3455073]},"properties":{"name":"King Henry's Drive","public_transport":"stop_position","tram":"yes"}},
{"type":"Feature","geometry":{"type":"Point","coordinates":[-0.0217898,51.3469059]},"properties":{"railway":"level_crossing"}},
{"type":"Feature","geometry":{"type":"Point","coordinates":[-0.0242146,51.3509698]},"properties":{"name":"Fieldway","public_transport":"stop_position","tram":"yes"}},
{"type":"Feature","geometry":{"type":"Point","coordinates":[-0.0368718,51.3545099]},"properties":{"railway":"level_crossing"}},
{"type":"Feature","geometry":{"type":"Point","coordinates":[-0.0428615,51.3545293]},"properties":{"name":"Gravel Hill","public_transport":"stop_position","tram":"yes"}},
{"type":"Feature","geometry":{"type":"Point","coordinates":[-0.0418252,51.3546866]},"properties":{"railway":"level_crossing"}},
{"type":"Feature","geometry":{"type":"Point","coordinates":[-0.0416702,51.3547305]},"properties":{"railway":"level_crossing"}},
{"type":"Feature","geometry":{"type":"Point","coordinates":[-0.0366267,51.3547518]},"properties":{"railway":"level_crossing"}},
{"type":"Feature","geometry":{"type":"Point","coordinates":[-0.0310941,51.3557455]},"properties":{"railway":"level_crossing"}},
{"type":"Feature","geometry":{"type":"Point","coordinates":[-0.0333349,51.3562437]},"properties":{"bicycle":"yes","railway":"crossing","crossing":"uncontrolled"}},
{"type":"Feature","geometry":{"type":"Point","coordinates":[-0.0559849,51.3585965]},"properties":{"railway":"level_crossing"}},
{"type":"Feature","geometry":{"type":"Point","coordinates":[-0.0560148,51.3587126]},"properties":{"railway":"level_crossing"}},
{"type":"Feature","geometry":{"type":"Point","coordinates":[-0.0595181,51.3597478]},"properties":{"bicycle":"yes","railway":"level_crossing"}},
{"type":"Feature","geometry":{"type":"Point","coordinates":[-0.0597352,51.359762]},"properties":{"railway":"crossing"}},
{"type":"Feature","geometry":{"type":"Point","coordinates":[-0.0600865,51.3597826]},"properties":{"name":"Coombe Lane","public_transport":"stop_position","tram":"yes"}},
{"type":"Feature","geometry":{"type":"Point","coordinates":[-0.06044,51.3598046]},"properties":{"railway":"crossing"}},
{"type":"Feature","geometry":{"type":"Point","coordinates":[-0.0617622,51.3599991]},"properties":{"railway":"level_crossing"}},
{"type":"Feature","geometry":{"type":"Point","coordinates":[-0.064639,51.3618783]},"properties":{"railway":"crossing"}},
{"type":"Feature","geometry":{"type":"Point","coordinates":[-0.0645861,51.361902]},"properties":{"railway":"crossing"}},
{"type":"Feature","geometry":{"type":"Point","coordinates":[-0.0667391,51.3628633]},"properties":{"railway":"crossing"}},
{"type":"Feature","geometry":{"type":"Point","coordinates":[-0.0682266,51.3630362]},"properties":{"railway":"level_crossing"}},
{"type":"Feature","geometry":{"type":"Point","coordinates":[-0.0703598,51.3631952]},"properties":{"railway":"level_crossing"}},
{"type":"Feature","geometry":{"type":"Point","coordinates":[-0.0703684,51.3632374]},"properties":{"railway":"level_crossing"}},
{"type":"Feature","geometry":{"type":"Point","coordinates":[-0.0750692,51.3636172]},"properties":{"railway":"crossing"}},
{"type":"Feature","geometry":{"type":"Point","coordinates":[-0.0750559,51.3636636]},"properties":{"railway":"crossing"}},
{"type":"Feature","geometry":{"type":"Point","coordinates":[-0.0779789,51.3639775]},"properties":{"railway":"crossing"}},
{"type":"Feature","geometry":{"type":"Point","coordinates":[-0.077966,51.3640256]},"properties":{"railway":"crossing"}},
{"type":"Feature","geometry":{"type":"Point","coordinates":[-0.0800413,51.3641294]},"properties":{"railway":"level_crossing"}},
{"type":"Feature","geometry":{"type":"Point","coordinates":[-0.0806955,51.3641661]},"properties":{"name":"Lloyd Park","public_transport":"stop_position","tram":"yes"}},
{"type":"Feature","geometry":{"type":"Point","coordinates":[-0.0810522,51.3641955]},"properties":{"railway":"crossing"}},
{"type":"Feature","geometry":{"type":"Point","coordinates":[-0.0827788,51.3644119]},"properties":{"railway":"level_crossing"}},
{"type":"Feature","geometry":{"type":"Point","coordinates":[-0.082984,51.3656737]},"properties":{"railway":"level_crossing","crossing:barrier":"no"}},
{"type":"Feature","geometry":{"type":"Point","coordinates":[-0.1122873,51.3732125]},"properties":{"railway":"switch"}},
{"type":"Feature","geometry":{"type":"Point","coordinates":[-0.1130643,51.3733357]},"properties":{"railway":"crossing"}},
{"type":"Feature","geometry":{"type":"Point","coordinates":[-0.1056281,51.3742541]},"properties":{"highway":"crossing","railway":"crossing","crossing":"traffic_signals"}},
{"type":"Feature","geometry":{"type":"Point","coordinates":[-0.075787,51.3744194]},"properties":{"railway":"railway_crossing"}},
{"type":"Feature","geometry":{"type":"Point","coordinates":[-0.0761767,51.3745173]},"properties":{"railway":"switch"}},
{"type":"Feature","geometry":{"type":"Point","coordinates":[-0.0772628,51.3748448]},"properties":{"railway":"level_crossing"}},
{"type":"Feature","geometry":{"type":"Point","coordinates":[-0.088476,51.3750135]},"properties":{"railway":"level_crossing"}},
{"type":"Feature","geometry":{"type":"Point","coordinates":[-0.0918808,51.3750575]},"properties":{"railway":"switch"}},
{"type":"Feature","geometry":{"type":"Point","coordinates":[-0.081095,51.3750658]},"properties":{"railway":"level_crossing"}},
{"type":"Feature","geometry":{"type":"Point","coordinates":[-0.0878586,51.3750601]},"properties":{"railway":"level_crossing"}},
{"type":"Feature","geometry":{"type":"Point","coordinates":[-0.0890087,51.3750866]},"properties":{"railway":"level_crossing"}},
{"type":"Feature","geometry":{"type":"Point","coordinates":[-0.091786,51.3750951]},"properties":{"railway":"level_crossing"}},
{"type":"Feature","geometry":{"type":"Point","coordinates":[-0.0809586,51.3751016]},"properties":{"railway":"level_crossing"}},
{"type":"Feature","geometry":{"type":"Point","coordinates":[-0.0823002,51.3751106]},"properties":{"railway":"level_crossing"}},
{"type":"Feature","geometry":{"type":"Point","coordinates":[-0.0868736,51.3751492]},"properties":{"railway":"level_crossing"}},
{"type":"Feature","geometry":{"type":"Point","coordinates":[-0.0900048,51.3751786]},"properties":{"railway":"level_crossing"}},
{"type":"Feature","geometry":{"type":"Point","coordinates":[-0.0855558,51.3752049]},"properties":{"name":"Lebanon Road","network":"London Trams","operator":"Transport for London","public_transport":"stop_position","tram":"yes"}},
{"type":"Feature","geometry":{"type":"Point","coordinates":[-0.0905856,51.3752487]},"properties":{"railway":"level_crossing"}},
{"type":"Feature","geometry":{"type":"Point","coordinates":[-0.0909371,51.3752925]},"properties":{"railway":"level_crossing"}},
{"type":"Feature","geometry":{"type":"Point","coordinates":[-0.0908291,51.3753218]},"properties":{"railway":"level_crossing"}},
{"type":"Feature","geometry":{"type":"Point","coordinates":[-0.1178974,51.3770038]},"properties":{"name":"Waddon Marsh","network":"London Trams","operator":"Transport for London","public_transport":"stop_position","tram":"yes"}},
{"type":"Feature","geometry":{"type":"Point","coordinates":[-0.1198108,51.3786032]},"properties":{"railway":"crossing"}},
{"type":"Feature","geometry":{"type":"Point","coordinates":[-0.0732225,51.3798217]},"properties":{"name":"Addiscombe","network":"London Trams","operator":"Transport for London","public_transport":"stop_position","tram":"yes"}},
{"type":"Feature","geometry":{"type":"Point","coordinates":[-0.0731841,51.3802852]},"properties":{"railway":"level_crossing"}},
{"type":"Feature","geometry":{"type":"Point","coordinates":[-0.1227575,51.3815335]},"properties":{"bicycle":"yes","railway":"crossing"}},
{"type":"Feature","geometry":{"type":"Point","coordinates":[-0.1228007,51.3815196]},"properties":{"bicycle":"yes","railway":"crossing"}},
{"type":"Feature","geometry":{"type":"Point","coordinates":[-0.0703167,51.3848874]},"properties":{"name":"Blackhorse Lane","network":"London Trams","operator":"Transport for London","public_transport":"stop_position","tram":"yes"}},
{"type":"Feature","geometry":{"type":"Point","coordinates":[-0.1292711,51.3857203]},"properties":{"name":"Therapia Lane","network":"London Trams","operator":"Transport for London","public_transport":"stop_position","tram":"yes"}},
{"type":"Feature","geometry":{"type":"Point","coordinates":[-0.1416663,51.3891593]},"properties":{"railway":"level_crossing"}},
{"type":"Feature","geometry":{"type":"Point","coordinates":[-0.1425277,51.3893568]},"properties":{"railway":"crossing"}},
{"type":"Feature","geometry":{"type":"Point","coordinates":[-0.1428702,51.3894384]},"properties":{"name":"Beddington Lane","network":"London Trams","operator":"Transport for London","public_transport":"stop_position","tram":"yes"}},
{"type":"Feature","geometry":{"type":"Point","coordinates":[-0.0584746,51.3914076]},"properties":{"foot":"yes","railway":"crossing"}},
{"type":"Feature","geometry":{"type":"Point","coordinates":[-0.0579997,51.3917273]},"properties":{"foot":"yes","bicycle":"yes","railway":"crossing"}},
{"type":"Feature","geometry":{"type":"Point","coordinates":[-0.0580364,51.39175]},"properties":{"foot":"yes","bicycle":"yes","railway":"crossing"}},
{"type":"Feature","geometry":{"type":"Point","coordinates":[-0.0575947,51.3920136]},"properties":{"railway":"switch"}},
{"type":"Feature","geometry":{"type":"Point","coordinates":[-0.0574319,51.3921805]},"properties":{"railway":"railway_crossing"}},
{"type":"Feature","geometry":{"type":"Point","coordinates":[-0.0573344,51.392386]},"properties":{"foot":"yes","railway":"crossing"}},
{"type":"Feature","geometry":{"type":"Point","coordinates":[-0.0581463,51.3934274]},"properties":{"bicycle":"dismount","railway":"crossing"}},
{"type":"Feature","geometry":{"type":"Point","coordinates":[-0.06086,51.394951]},"properties":{"bicycle":"dismount","railway":"level_crossing","pedestrian":"yes"}},
{"type":"Feature","geometry":{"type":"Point","coordinates":[-0.0613428,51.3959102]},"properties":{"bicycle":"yes","railway":"crossing","pedestrian":"yes"}},
{"type":"Feature","geometry":{"type":"Point","coordinates":[-0.1707573,51.397506]},"properties":{"railway":"crossing"}},
{"type":"Feature","geometry":{"type":"Point","coordinates":[-0.1707622,51.3974811]},"properties":{"railway":"crossing"}},
{"type":"Feature","geometry":{"type":"Point","coordinates":[-0.0598108,51.3992262]},"properties":{"railway":"crossing"}},
{"type":"Feature","geometry":{"type":"Point","coordinates":[-0.0601357,51.3994883]},"properties":{"railway":"level_crossing"}},
{"type":"Feature","geometry":{"type":"Point","coordinates":[-0.1781882,51.4007914]},"properties":{"railway":"crossing","crossing":"traffic_signals","crossing:light":"yes"}},
{"type":"Feature","geometry":{"type":"Point","coordinates":[-0.1786543,51.40109]},"properties":{"name":"Belgrave Walk","tram":"yes","public_transport":"stop_position"}},
{"type":"Feature","geometry":{"type":"Point","coordinates":[-0.1785985,51.4011468]},"properties":{"railway":"crossing","crossing":"traffic_signals","crossing:light":"yes"}},
{"type":"Feature","geometry":{"type":"Point","coordinates":[-0.1821306,51.4032776]},"properties":{"bicycle":"yes","railway":"crossing","pedestrian":"yes"}},
{"type":"Feature","geometry":{"type":"Point","coordinates":[-0.1821142,51.4033515]},"properties":{"name":"Phipps Bridge","tram":"yes","public_transport":"stop_position"}},
{"type":"Feature","geometry":{"type":"Point","coordinates":[-0.182544,51.4035285]},"properties":{"name":"Phipps Bridge","tram":"yes","public_transport":"stop_position"}},
{"type":"Feature","geometry":{"type":"Point","coordinates":[-0.1834355,51.4041421]},"properties":{"railway":"switch"}},
{"type":"Feature","geometry":{"type":"Point","coordinates":[-0.0506146,51.4062568]},"properties":{"railway":"switch"}},
{"type":"Feature","geometry":{"type":"Point","coordinates":[-0.0499866,51.4065261]},"properties":{"railway":"crossing"}},
{"type":"Feature","geometry":{"type":"Point","coordinates":[-0.0498755,51.4065809]},"properties":{"name":"Avenue Road","network":"London Trams","operator":"Transport for London","public_transport":"stop_position","tram":"yes"}},
{"type":"Feature","geometry":{"type":"Point","coordinates":[-0.0489996,51.407045]},"properties":{"railway":"switch"}},
{"type":"Feature","geometry":{"type":"Point","coordinates":[-0.1931725,51.4089821]},"properties":{"railway":"crossing"}},
{"type":"Feature","geometry":{"type":"Point","coordinates":[-0.0409806,51.4102989]},"properties":{"railway":"switch"}},
{"type":"Feature","geometry":{"type":"Point","coordinates":[-0.1999081,51.412428]},"properties":{"bicycle":"yes","pedestrian":"yes","railway":"crossing"}},
{"type":"Feature","geometry":{"type":"Point","coordinates":[-0.2011347,51.4135542]},"properties":{"railway":"crossing"}},
{"type":"Feature","geometry":{"type":"Point","coordinates":[-0.2011763,51.4135383]},"properties":{"railway":"crossing"}},
{"type":"Feature","geometry":{"type":"Point","coordinates":[-0.2015329,51.4139031]},"properties":{"railway":"crossing"}},
{"type":"Feature","geometry":{"type":"Point","coordinates":[-0.2021273,51.4144463]},"properties":{"railway":"level_crossing"}},
{"type":"Feature","geometry":{"type":"Point","coordinates":[-0.2074462,51.4172897]},"properties":{"crossing:barrier":"no","crossing:light":"yes","railway":"level_crossing"}},
{"type":"Feature","geometry":{"type":"Point","coordinates":[-0.2076941,51.4195363]},"properties":{"railway":"buffer_stop"}},
{"type":"Feature","geometry":{"type":"Point","coordinates":[-0.0369476,51.354514]},"properties":{"railway":"level_crossing"}},
{"type":"Feature","geometry":{"type":"Point","coordinates":[-0.0368922,51.3544825]},"properties":{"railway":"level_crossing"}},
{"type":"Feature","geometry":{"type":"Point","coordinates":[-0.040341,51.3547149]},"properties":{"railway":"level_crossing"}},
{"type":"Feature","geometry":{"type":"Point","coordinates":[-0.040321,51.354755]},"properties":{"railway":"level_crossing"}},
{"type":"Feature","geometry":{"type":"Point","coordinates":[-0.0805814,51.3642061]},"properties":{"name":"Lloyd Park","tram":"yes","source":"http://en.wikipedia.org/wiki/Tramlink","network":"London Trams","railway":"tram_stop","operator":"Transport for London","wikidata":"Q6662683","wikipedia":"en:Lloyd Park tram stop","naptan:AtcoCode":"9400ZZCRLOY1","public_transport":"stop_position"}},
{"type":"Feature","geometry":{"type":"Point","coordinates":[-0.0562217,51.3590393]},"properties":{"railway":"crossing"}},
{"type":"Feature","geometry":{"type":"Point","coordinates":[-0.056187,51.3590734]},"properties":{"railway":"crossing"}},
{"type":"Feature","geometry":{"type":"Point","coordinates":[-0.0201243,51.3451967]},"properties":{"source":"Bing Maps","railway":"crossing","crossing":"uncontrolled"}},
{"type":"Feature","geometry":{"type":"Point","coordinates":[-0.0200819,51.3452086]},"properties":{"source":"Bing Maps","railway":"crossing","crossing":"uncontrolled"}},
{"type":"Feature","geometry":{"type":"Point","coordinates":[-0.0204884,51.3456209]},"properties":{"source":"Bing Maps","railway":"crossing","crossing":"uncontrolled"}},
{"type":"Feature","geometry":{"type":"Point","coordinates":[-0.0204512,51.3456342]},"properties":{"railway":"crossing","crossing":"uncontrolled"}},
{"type":"Feature","geometry":{"type":"Point","coordinates":[-0.0732488,51.3794852]},"properties":{"railway":"level_crossing"}},
{"type":"Feature","geometry":{"type":"Point","coordinates":[-0.0704945,51.3847695]},"properties":{"railway":"crossing"}},
{"type":"Feature","geometry":{"type":"Point","coordinates":[-0.0705185,51.3847825]},"properties":{"railway":"crossing"}},
{"type":"Feature","geometry":{"type":"Point","coordinates":[-0.070038,51.3850894]},"properties":{"railway":"crossing"}},
{"type":"Feature","geometry":{"type":"Point","coordinates":[-0.0700631,51.3851048]},"properties":{"railway":"crossing"}},
{"type":"Feature","geometry":{"type":"Point","coordinates":[-0.0781049,51.3750019]},"properties":{"railway":"crossing"}},
{"type":"Feature","geometry":{"type":"Point","coordinates":[-0.0780922,51.3750272]},"properties":{"railway":"crossing"}},
{"type":"Feature","geometry":{"type":"Point","coordinates":[-0.0801106,51.3750506]},"properties":{"railway":"crossing","crossing":"uncontrolled"}},
{"type":"Feature","geometry":{"type":"Point","coordinates":[-0.0808725,51.3750624]},"properties":{"railway":"level_crossing"}},
{"type":"Feature","geometry":{"type":"Point","coordinates":[-0.0801104,51.3750863]},"properties":{"railway":"crossing","crossing":"uncontrolled"}},
{"type":"Feature","geometry":{"type":"Point","coordinates":[-0.0807735,51.3750969]},"properties":{"railway":"level_crossing"}},
{"type":"Feature","geometry":{"type":"Point","coordinates":[-0.0808869,51.3750989]},"properties":{"railway":"level_crossing"}},
{"type":"Feature","geometry":{"type":"Point","coordinates":[-0.1237352,51.3823449]},"properties":{"railway":"crossing"}},
{"type":"Feature","geometry":{"type":"Point","coordinates":[-0.0900832,51.3752305]},"properties":{"railway":"level_crossing"}},
{"type":"Feature","geometry":{"type":"Point","coordinates":[-0.0980805,51.3760783]},"properties":{"railway":"level_crossing"}},
{"type":"Feature","geometry":{"type":"Point","coordinates":[-0.1055719,51.3740858]},"properties":{"railway":"level_crossing"}},
{"type":"Feature","geometry":{"type":"Point","coordinates":[-0.1056434,51.3741087]},"properties":{"highway":"crossing","railway":"crossing","crossing":"traffic_signals"}},
{"type":"Feature","geometry":{"type":"Point","coordinates":[-0.1064755,51.375243]},"properties":{"railway":"crossing"}},
{"type":"Feature","geometry":{"type":"Point","coordinates":[-0.1063945,51.375291]},"properties":{"railway":"crossing"}},
{"type":"Feature","geometry":{"type":"Point","coordinates":[-0.1239787,51.3825586]},"properties":{"railway":"crossing"}},
{"type":"Feature","geometry":{"type":"Point","coordinates":[-0.1240194,51.3825361]},"properties":{"railway":"crossing"}},
{"type":"Feature","geometry":{"type":"Point","coordinates":[-0.1425008,51.3893812]},"properties":{"railway":"crossing"}},
{"type":"Feature","geometry":{"type":"Point","coordinates":[-0.1287957,51.3855929]},"properties":{"railway":"crossing"}},
{"type":"Feature","geometry":{"type":"Point","coordinates":[-0.1288181,51.385561]},"properties":{"railway":"crossing"}},
{"type":"Feature","geometry":{"type":"Point","coordinates":[-0.157675,51.3927315]},"properties":{"railway":"crossing"}},
{"type":"Feature","geometry":{"type":"Point","coordinates":[-0.1576517,51.392754]},"properties":{"railway":"crossing"}},
{"type":"Feature","geometry":{"type":"Point","coordinates":[-0.0617357,51.3600381]},"properties":{"railway":"level_crossing"}},
{"type":"Feature","geometry":{"type":"Point","coordinates":[-0.1176319,51.3767829]},"properties":{"railway":"crossing"}},
{"type":"Feature","geometry":{"type":"Point","coordinates":[-0.1175941,51.3768052]},"properties":{"railway":"crossing"}},
{"type":"Feature","geometry":{"type":"Point","coordinates":[-0.1180782,51.3771616]},"properties":{"railway":"crossing"}},
{"type":"Feature","geometry":{"type":"Point","coordinates":[-0.1180417,51.3771797]},"properties":{"railway":"crossing"}},
{"type":"Feature","geometry":{"type":"Point","coordinates":[-0.207536,51.4174546]},"properties":{"name":"Dundonald Road","public_transport":"stop_position","tram":"yes"}},
{"type":"Feature","geometry":{"type":"Point","coordinates":[-0.2077975,51.4177292]},"properties":{"name":"Dundonald Road","public_transport":"stop_position","tram":"yes"}},
{"type":"Feature","geometry":{"type":"Point","coordinates":[-0.1926719,51.4087358]},"properties":{"railway":"crossing"}},
{"type":"Feature","geometry":{"type":"Point","coordinates":[-0.1926439,51.4087584]},"properties":{"railway":"crossing"}},
{"type":"Feature","geometry":{"type":"Point","coordinates":[-0.1926742,51.4087733]},"properties":{"name":"Morden Road","tram":"yes","public_transport":"stop_position"}},
{"type":"Feature","geometry":{"type":"Point","coordinates":[-0.1931478,51.4089702]},"properties":{"name":"Morden Road","tram":"yes","public_transport":"stop_position"}},
{"type":"Feature","geometry":{"type":"Point","coordinates":[-0.193144,51.4090059]},"properties":{"railway":"crossing"}},
{"type":"Feature","geometry":{"type":"Point","coordinates":[-0.1781763,51.400872]},"properties":{"name":"Belgrave Walk","tram":"yes","public_transport":"stop_position"}},
{"type":"Feature","geometry":{"type":"Point","coordinates":[-0.182059,51.4033195]},"properties":{"bicycle":"yes","railway":"crossing","pedestrian":"yes"}},
{"type":"Feature","geometry":{"type":"Point","coordinates":[-0.2011713,51.4135914]},"properties":{"name":"Merton Park","tram":"yes","public_transport":"stop_position"}},
{"type":"Feature","geometry":{"type":"Point","coordinates":[-0.201498,51.4138674]},"properties":{"name":"Merton Park","tram":"yes","public_transport":"stop_position"}},
{"type":"Feature","geometry":{"type":"Point","coordinates":[-0.2014929,51.4139184]},"properties":{"railway":"crossing"}},
{"type":"Feature","geometry":{"type":"Point","coordinates":[-0.1524511,51.3916936]},"properties":{"railway":"switch"}},
{"type":"Feature","geometry":{"type":"Point","coordinates":[-0.080347,51.3641462]},"properties":{"railway":"crossing"}},
{"type":"Feature","geometry":{"type":"Point","coordinates":[-0.0803401,51.3641951]},"properties":{"railway":"crossing"}},
{"type":"Feature","geometry":{"type":"Point","coordinates":[-0.1713933,51.3975863]},"properties":{"railway":"crossing"}},
{"type":"Feature","geometry":{"type":"Point","coordinates":[-0.1587046,51.3930514]},"properties":{"railway":"switch"}},
{"type":"Feature","geometry":{"type":"Point","coordinates":[-0.1724804,51.3977491]},"properties":{"railway":"switch"}},
{"type":"Feature","geometry":{"type":"Point","coordinates":[-0.205084,51.4215594]},"properties":{"name":"Wimbledon","tram":"yes","public_transport":"stop_position"}},
{"type":"Feature","geometry":{"type":"Point","coordinates":[-0.2044434,51.4220223]},"properties":{"railway":"buffer_stop"}},
{"type":"Feature","geometry":{"type":"Point","coordinates":[-0.0996481,51.378291]},"properties":{"railway":"level_crossing"}},
{"type":"Feature","geometry":{"type":"Point","coordinates":[-0.1697231,51.3973875]},"properties":{"railway":"crossing"}},
{"type":"Feature","geometry":{"type":"Point","coordinates":[-0.1697279,51.397367]},"properties":{"railway":"crossing"}},
{"type":"Feature","geometry":{"type":"Point","coordinates":[-0.1749048,51.3987359]},"properties":{"railway":"crossing"}},
{"type":"Feature","geometry":{"type":"Point","coordinates":[-0.1749394,51.3987106]},"properties":{"railway":"crossing"}},
{"type":"Feature","geometry":{"type":"Point","coordinates":[-0.0996943,51.3783881]},"properties":{"railway":"level_crossing"}},
{"type":"Feature","geometry":{"type":"Point","coordinates":[-0.0905823,51.3752948]},"properties":{"bicycle":"yes","railway":"crossing","crossing":"traffic_signals","crossing_ref":"toucan"}},
{"type":"Feature","geometry":{"type":"Point","coordinates":[-0.0495135,51.3983618]},"properties":{"railway":"buffer_stop"}},
{"type":"Feature","geometry":{"type":"Point","coordinates":[-0.1026759,51.3778232]},"properties":{"crossing":"traffic_signals","crossing_ref":"pelican","highway":"crossing","tactile_paving":"yes"}},
{"type":"Feature","geometry":{"type":"Point","coordinates":[-0.1576289,51.3927205]},"properties":{"name":"Mitcham Junction","tram":"yes","public_transport":"stop_position"}},
{"type":"Feature","geometry":{"type":"Point","coordinates":[-0.1571316,51.3926327]},"properties":{"name":"Mitcham Junction","tram":"yes","public_transport":"stop_position"}},
{"type":"Feature","geometry":{"type":"Point","coordinates":[-0.1432065,51.3895142]},"properties":{"railway":"crossing"}},
{"type":"Feature","geometry":{"type":"Point","coordinates":[-0.1431889,51.3895403]},"properties":{"railway":"crossing"}},
{"type":"Feature","geometry":{"type":"Point","coordinates":[-0.0240735,51.3507258]},"properties":{"railway":"crossing"}},
{"type":"Feature","geometry":{"type":"Point","coordinates":[-0.0240355,51.3507338]},"properties":{"railway":"crossing"}},
{"type":"Feature","geometry":{"type":"Point","coordinates":[-0.024321,51.3511614]},"properties":{"railway":"crossing"}},
{"type":"Feature","geometry":{"type":"Point","coordinates":[-0.0242787,51.3511708]},"properties":{"railway":"crossing"}},
{"type":"Feature","geometry":{"type":"Point","coordinates":[-0.0425286,51.3545984]},"properties":{"railway":"level_crossing"}},
{"type":"Feature","geometry":{"type":"Point","coordinates":[-0.0425197,51.3545519]},"properties":{"railway":"level_crossing"}},
{"type":"Feature","geometry":{"type":"Point","coordinates":[-0.0823554,51.3751073]},"properties":{"railway":"level_crossing"}},
{"type":"Feature","geometry":{"type":"Point","coordinates":[-0.0927623,51.3747991]},"properties":{"name":"East Croydon","public_transport":"stop_position","public_transport:version":"2","railway":"tram_stop","tram":"yes"}},
{"type":"Feature","geometry":{"type":"Point","coordinates":[-0.0174491,51.3426682]},"properties":{"name":"New Addington","tram":"yes","public_transport":"stop_position"}},
{"type":"Feature","geometry":{"type":"Point","coordinates":[-0.0927844,51.3748462]},"properties":{"name":"East Croydon","network":"London Trams","operator":"Transport for London","public_transport":"stop_position","public_transport:version":"2","railway":"tram_stop","tram":"yes"}},
{"type":"Feature","geometry":{"type":"Point","coordinates":[-0.0328853,51.3562243]},"properties":{"name":"Addington Village","tram":"yes","network":"London Trams","railway":"tram_stop","operator":"Transport for London","public_transport":"stop_position"}},
{"type":"Feature","geometry":{"type":"Point","coordinates":[-0.0325413,51.3562518]},"properties":{"railway":"crossing"}},
{"type":"Feature","geometry":{"type":"Point","coordinates":[-0.0325588,51.3562102]},"properties":{"railway":"crossing"}},
{"type":"Feature","geometry":{"type":"Point","coordinates":[-0.0904509,51.3752304]},"properties":{"foot":"yes","bicycle":"yes","railway":"crossing"}},
{"type":"Feature","geometry":{"type":"Point","coordinates":[-0.0905043,51.3752852]},"properties":{"bicycle":"yes","railway":"crossing"}},
{"type":"Feature","geometry":{"type":"Point","coordinates":[-0.0904542,51.3752784]},"properties":{"foot":"yes","bicycle":"yes","railway":"crossing"}},
{"type":"Feature","geometry":{"type":"Point","coordinates":[-0.090502,51.375236]},"properties":{"bicycle":"yes","railway":"crossing"}},
{"type":"Feature","geometry":{"type":"Point","coordinates":[-0.0494483,51.4068307]},"properties":{"railway":"crossing"}},
{"type":"Feature","geometry":{"type":"Point","coordinates":[-0.0494158,51.406803]},"properties":{"railway":"crossing"}},
{"type":"Feature","geometry":{"type":"Point","coordinates":[-0.1134151,51.3734688]},"properties":{"name":"Wandle Park","network":"London Trams","operator":"Transport for London","public_transport":"stop_position","tram":"yes"}},
{"type":"Feature","geometry":{"type":"Point","coordinates":[-0.0777578,51.3749371]},"properties":{"name":"Sandilands","network":"London Trams","operator":"Transport for London","public_transport":"stop_position","tram":"yes"}},
{"type":"Feature","geometry":{"type":"Point","coordinates":[-0.0655898,51.386932]},"properties":{"name":"Woodside","network":"London Trams","operator":"Transport for London","public_transport":"stop_position","tram":"yes"}},
{"type":"Feature","geometry":{"type":"Point","coordinates":[-0.0604262,51.3996825]},"properties":{"name":"Harrington Road","network":"London Trams","operator":"Transport for London","public_transport":"stop_position","tram":"yes"}},
{"type":"Feature","geometry":{"type":"Point","coordinates":[-0.1710527,51.3975433]},"properties":{"name":"Mitcham","network":"London Trams","operator":"Transport for London","public_transport":"stop_position","tram":"yes"}},
{"type":"Feature","geometry":{"type":"Point","coordinates":[-0.1239146,51.3824656]},"properties":{"name":"Ampere Way","network":"London Trams","operator":"Transport for London","public_transport":"stop_position","tram":"yes"}},
{"type":"Feature","geometry":{"type":"Point","coordinates":[-0.0582184,51.3915801]},"properties":{"name":"Arena","network":"London Trams","operator":"Transport for London","public_transport":"stop_position","tram":"yes"}},
{"type":"Feature","geometry":{"type":"LineString","coordinates":[[-0.0798059,51.3692094],[-0.0800472,51.3689448],[-0.0805956,51.3683258],[-0.0812998,51.3675598],[-0.0818432,51.3669537],[-0.0826637,51.366008]]},"properties":{"name":"London Trams (New Addington branch)","gauge":"1435","oneway":"yes","railway":"tram","voltage":"750","frequency":"0","electrified":"contact_line"}},
{"type":"Feature","geometry":{"type":"LineString","coordinates":[[-0.1524511,51.3916936],[-0.1524955,51.391706],[-0.1530894,51.3918354]]},"properties":{"name":"London Trams (Wimbledon branch)","gauge":"1435","oneway":"no","railway":"tram","voltage":"750","frequency":"0","electrified":"contact_line"}},
{"type":"Feature","geometry":{"type":"LineString","coordinates":[[-0.1122873,51.3732125],[-0.1119246,51.3731952],[-0.1116601,51.3731911],[-0.1113935,51.3731993],[-0.1112082,51.3732107],[-0.1110234,51.3732335],[-0.110718,51.373285],[-0.1103536,51.3733496],[-0.1099306,51.3734269]]},"properties":{"name":"London Trams (Wimbledon branch)","gauge":"1435","oneway":"no","railway":"tram","voltage":"750","frequency":"0","electrified":"contact_line"}},
{"type":"Feature","geometry":{"type":"LineString","coordinates":[[-0.1524511,51.3916936],[-0.1520558,51.3916312],[-0.1516432,51.3915345],[-0.1431889,51.3895403],[-0.1428504,51.3894605],[-0.1425008,51.3893812],[-0.14169,51.3891989],[-0.1403913,51.3888834],[-0.1391025,51.3885815],[-0.1374475,51.3882156],[-0.1370697,51.388157],[-0.136685,51.3881201],[-0.1359221,51.3880647],[-0.1355327,51.3880203],[-0.1351804,51.3879526],[-0.1348417,51.3878818],[-0.134502,51.3877746],[-0.1324205,51.3871041],[-0.1321018,51.3869977],[-0.1319336,51.3869355],[-0.1318002,51.3868769],[-0.1316251,51.3867804],[-0.1312608,51.3865683],[-0.130981,51.3864006],[-0.1307121,51.3862593],[-0.1305455,51.386189],[-0.1302314,51.3860792],[-0.1296598,51.3858906],[-0.1290915,51.3856974],[-0.1288196,51.3856001],[-0.1287957,51.3855929],[-0.1286374,51.3855387],[-0.1283953,51.3854429],[-0.1281904,51.3853575],[-0.1280547,51.3852905],[-0.1278928,51.3852094],[-0.1276464,51.3850731],[-0.1274197,51.3849282],[-0.1272158,51.3847905],[-0.126869,51.3845548],[-0.1264019,51.3842338],[-0.1255979,51.3836723],[-0.1246369,51.3830093],[-0.1239787,51.3825586],[-0.1236871,51.3823591],[-0.1234258,51.3821641],[-0.1232312,51.3820078],[-0.1230912,51.3818787],[-0.1229388,51.3817255],[-0.1227575,51.3815335],[-0.1221868,51.3809395],[-0.1216803,51.3804255],[-0.1211657,51.3799112],[-0.1209692,51.3797148],[-0.1205119,51.3792809],[-0.1201717,51.3789769],[-0.119762,51.3786226],[-0.1193018,51.3782361],[-0.1188036,51.3778195],[-0.1180417,51.3771797],[-0.1178267,51.3770031],[-0.1176641,51.3768605],[-0.1175941,51.3768052],[-0.1174995,51.3767219],[-0.1171724,51.3764498],[-0.1165273,51.3759067],[-0.1158823,51.3753596],[-0.1155691,51.3750829],[-0.1152688,51.3748112],[-0.115029,51.3745897],[-0.1147744,51.3743495],[-0.1146648,51.374251],[-0.1145466,51.3741447],[-0.1143831,51.3740159],[-0.1142163,51.3738996],[-0.1140736,51.373803],[-0.1139072,51.3737113],[-0.1136883,51.3736147],[-0.1133617,51.3734814],[-0.1130396,51.3733621],[-0.1129424,51.3733272],[-0.1127999,51.3732921],[-0.1126921,51.3732729],[-0.1125068,51.3732445],[-0.1122873,51.3732125]]},"properties":{"name":"London Trams (Wimbledon branch)","gauge":"1435","oneway":"yes","railway":"tram","voltage":"750","frequency":"0","electrified":"contact_line"}},
{"type":"Feature","geometry":{"type":"LineString","coordinates":[[-0.1099306,51.3734269],[-0.1094854,51.3735117],[-0.1093527,51.3735424],[-0.1092258,51.3735776],[-0.1091342,51.3736223],[-0.1090545,51.3736733],[-0.1088316,51.3738606],[-0.1085811,51.3740809],[-0.1081754,51.3744268]]},"properties":{"name":"London Trams","gauge":"1435","layer":"2","bridge":"yes","oneway":"no","railway":"tram","voltage":"750","frequency":"0","electrified":"contact_line"}},
{"type":"Feature","geometry":{"type":"LineString","coordinates":[[-0.1062841,51.3750331],[-0.1062524,51.374803],[-0.1062346,51.3746494],[-0.1062136,51.374545],[-0.1061969,51.3744633],[-0.1061604,51.3744025],[-0.1061082,51.3743454],[-0.1060448,51.374304],[-0.1059847,51.3742684],[-0.1059162,51.3742464],[-0.1058257,51.374232]]},"properties":{"name":"London Trams","gauge":"1435","oneway":"yes","railway":"tram","voltage":"750","frequency":"0","electrified":"contact_line"}},
{"type":"Feature","geometry":{"type":"LineString","coordinates":[[-0.0809586,51.3751016],[-0.0808869,51.3750989],[-0.0807735,51.3750969],[-0.0801104,51.3750863],[-0.0800265,51.3750848],[-0.0791686,51.3750757],[-0.0785829,51.3750778],[-0.0784093,51.3750734],[-0.0782209,51.3750509],[-0.0780922,51.3750272],[-0.0777467,51.3749647],[-0.0774184,51.3749059],[-0.0772604,51.3748807],[-0.0770475,51.374832],[-0.0768062,51.3747656],[-0.0765465,51.3746806],[-0.0761524,51.3745478]]},"properties":{"name":"London Trams","gauge":"1435","oneway":"yes","railway":"tram","voltage":"750","frequency":"0","electrified":"contact_line"}},
{"type":"Feature","geometry":{"type":"LineString","coordinates":[[-0.0761524,51.3745478],[-0.075787,51.3744194],[-0.0755928,51.374349],[-0.0755099,51.3742943],[-0.0754501,51.3742346],[-0.0754034,51.3741529],[-0.0754082,51.3740442],[-0.0754518,51.3739426],[-0.0761592,51.3731825],[-0.0761502,51.3731925]]},"properties":{"name":"London Trams (New Addington branch)","gauge":"1435","oneway":"yes","railway":"tram","voltage":"750","frequency":"0","electrified":"contact_line"}},
{"type":"Feature","geometry":{"type":"LineString","coordinates":[[-0.0761502,51.3731925],[-0.0761592,51.3731825],[-0.0778592,51.3712978]]},"properties":{"name":"London Trams","gauge":"1435","layer":"-1","oneway":"yes","tunnel":"yes","railway":"tram","voltage":"750","frequency":"0","electrified":"contact_line","tunnel:name":"Woodside Tunnel"}},
{"type":"Feature","geometry":{"type":"LineString","coordinates":[[-0.0576382,51.3920363],[-0.0574319,51.3921805],[-0.0571712,51.3923513],[-0.056712,51.3926519],[-0.056319,51.3929201],[-0.0562063,51.3929852],[-0.056032,51.393089]]},"properties":{"name":"London Trams (Elmers End branch)","gauge":"1435","oneway":"yes","railway":"tram","voltage":"750","frequency":"0","electrified":"contact_line"}},
{"type":"Feature","geometry":{"type":"LineString","coordinates":[[-0.1371524,51.3880204],[-0.1369971,51.388011],[-0.1368335,51.3880081],[-0.1366769,51.3880054],[-0.1365147,51.388002],[-0.1363481,51.3879986],[-0.1361762,51.3879985],[-0.1360459,51.387996],[-0.1359602,51.3879813],[-0.1340157,51.3873561],[-0.1339303,51.3873362],[-0.1335203,51.3873259],[-0.1334275,51.3873161],[-0.1333162,51.387284],[-0.1322414,51.386936],[-0.1320418,51.3868689],[-0.1318809,51.3867944],[-0.1317723,51.3867346],[-0.1315601,51.3866065],[-0.1313588,51.3864772],[-0.1311604,51.3863546],[-0.1310722,51.3863054],[-0.1309926,51.386261],[-0.130887,51.386216],[-0.1307469,51.3861717],[-0.1304824,51.3861002],[-0.1302356,51.3860444]]},"properties":{"name":"London Trams","gauge":"1435","railway":"tram","service":"yard","voltage":"750","frequency":"0","electrified":"contact_line"}},
{"type":"Feature","geometry":{"type":"LineString","coordinates":[[-0.1339303,51.3873362],[-0.1340769,51.387337],[-0.1342219,51.3873377],[-0.1344007,51.3873399],[-0.1345468,51.3873416],[-0.1347016,51.3873444],[-0.1347165,51.3873447],[-0.1348746,51.3873484],[-0.1350812,51.3873527],[-0.1357779,51.3875773],[-0.1371524,51.3880204],[-0.1374079,51.388102],[-0.1375434,51.3881406],[-0.1379271,51.3882344],[-0.1382715,51.3883317],[-0.1384282,51.3883862]]},"properties":{"name":"London Trams","gauge":"1435","railway":"tram","service":"yard","voltage":"750","frequency":"0","electrified":"contact_line"}},
{"type":"Feature","geometry":{"type":"LineString","coordinates":[[-0.1369971,51.388011],[-0.1369342,51.3879991],[-0.1349839,51.3873715],[-0.1348746,51.3873484]]},"properties":{"name":"London Trams","gauge":"1435","railway":"tram","service":"yard","voltage":"750","frequency":"0","electrified":"contact_line"}},
{"type":"Feature","geometry":{"type":"LineString","coordinates":[[-0.1366769,51.3880054],[-0.1366006,51.3879905],[-0.1346474,51.3873629],[-0.1345468,51.3873416]]},"properties":{"name":"London Trams","gauge":"1435","railway":"tram","service":"yard","voltage":"750","frequency":"0","electrified":"contact_line"}},
{"type":"Feature","geometry":{"type":"LineString","coordinates":[[-0.1363481,51.3879986],[-0.1362768,51.3879862],[-0.1343256,51.3873573],[-0.1342219,51.3873377]]},"properties":{"name":"London Trams","gauge":"1435","railway":"tram","service":"yard","voltage":"750","frequency":"0","electrified":"contact_line"}},
{"type":"Feature","geometry":{"type":"LineString","coordinates":[[-0.1550045,51.392048],[-0.1546316,51.3920056],[-0.154283,51.3919811],[-0.153707,51.3919412],[-0.1533453,51.3918879],[-0.1530894,51.3918354]]},"properties":{"name":"London Trams","gauge":"1435","layer":"1","bridge":"yes","oneway":"no","railway":"tram","voltage":"750","frequency":"0","electrified":"contact_line"}},
{"type":"Feature","geometry":{"type":"LineString","coordinates":[[-0.0935178,51.374671],[-0.0939872,51.3745895],[-0.0949446,51.3744366]]},"properties":{"name":"London Trams","gauge":"1435","oneway":"yes","railway":"tram","voltage":"750","frequency":"0","electrified":"contact_line"}},
{"type":"Feature","geometry":{"type":"LineString","coordinates":[[-0.0506146,51.4062568],[-0.0501214,51.4064969],[-0.0500169,51.4065494],[-0.049519,51.4067969],[-0.0494483,51.4068307],[-0.0489996,51.407045]]},"properties":{"electrified":"contact_line","frequency":"0","gauge":"1435","name":"London Trams (Beckenham Junction branch)","oneway":"yes","railway":"tram","voltage":"750"}},
{"type":"Feature","geometry":{"type":"LineString","coordinates":[[-0.1058257,51.374232],[-0.1057334,51.3742343],[-0.1056281,51.3742541],[-0.1055382,51.3742868],[-0.1055004,51.3742985],[-0.1054681,51.3743093]]},"properties":{"name":"London Trams","gauge":"1435","layer":"2","oneway":"yes","railway":"tram","voltage":"750","frequency":"0","electrified":"contact_line"}},
{"type":"Feature","geometry":{"type":"LineString","coordinates":[[-0.1053403,51.3740186],[-0.1054414,51.3741049],[-0.1054919,51.3741935],[-0.1054952,51.374234],[-0.1054863,51.3742735],[-0.1054681,51.3743093]]},"properties":{"name":"London Trams","gauge":"1435","oneway":"yes","railway":"tram","voltage":"750","frequency":"0","electrified":"contact_line"}},
{"type":"Feature","geometry":{"type":"LineString","coordinates":[[-0.0949446,51.3744366],[-0.0952969,51.3743836],[-0.0958532,51.3743167],[-0.0962369,51.3742726],[-0.0966015,51.3742309],[-0.096872,51.3741988],[-0.0971502,51.3741613],[-0.0974719,51.3741182],[-0.0980486,51.3740325],[-0.0987101,51.3739312],[-0.0989116,51.3739003],[-0.0993095,51.3738275],[-0.099669,51.3737618],[-0.0997122,51.3737542],[-0.100166,51.373675],[-0.1002528,51.3736904],[-0.1003734,51.3737189],[-0.1005264,51.3737223],[-0.1007081,51.3737003],[-0.1011367,51.3736354],[-0.1012334,51.3736198],[-0.1017174,51.3735422],[-0.1020186,51.3735154],[-0.1026569,51.3733813],[-0.1029046,51.3733551],[-0.1032939,51.3733757],[-0.1035943,51.3734395],[-0.1040294,51.3735906],[-0.1042366,51.373656],[-0.1045333,51.3737575],[-0.1050519,51.373928],[-0.1053403,51.3740186]]},"properties":{"name":"London Trams","gauge":"1435","oneway":"yes","railway":"tram","voltage":"750","maxspeed":"20 mph","frequency":"0","electrified":"contact_line"}},
{"type":"Feature","geometry":{"type":"LineString","coordinates":[[-0.0272087,51.4109183],[-0.0272485,51.4109288],[-0.0278255,51.4110822],[-0.0280147,51.4111306],[-0.028249,51.4111659],[-0.0287505,51.4112211],[-0.0292266,51.4112803],[-0.0297225,51.4113305],[-0.030347,51.4113839],[-0.0309749,51.4114131],[-0.0318404,51.4114354],[-0.0326738,51.4114397],[-0.0332279,51.4114262],[-0.0338289,51.4113977]]},"properties":{"name":"London Trams (Beckenham Junction branch)","gauge":"1435","oneway":"no","railway":"tram","voltage":"750","frequency":"0","electrified":"contact_line"}},
{"type":"Feature","geometry":{"type":"LineString","coordinates":[[-0.0552842,51.4040009],[-0.055552,51.403867]]},"properties":{"name":"London Trams","gauge":"1435","layer":"1","bridge":"yes","oneway":"no","railway":"tram","voltage":"750","frequency":"0","electrified":"contact_line"}},
{"type":"Feature","geometry":{"type":"LineString","coordinates":[[-0.0576382,51.3920363],[-0.0575563,51.3921344],[-0.0575112,51.3921924],[-0.0574618,51.3922512],[-0.0574267,51.3923201],[-0.0573944,51.3923918],[-0.0573764,51.3924648],[-0.057373,51.3925366],[-0.0573732,51.3926184],[-0.0573992,51.3927126],[-0.0574349,51.3927974],[-0.0574758,51.3928594],[-0.0575422,51.3929317],[-0.0575953,51.3930018],[-0.0576525,51.3930594],[-0.0577113,51.393119],[-0.0577948,51.3931781],[-0.0578907,51.3932325],[-0.0580616,51.3933302],[-0.0581869,51.3933977],[-0.0586438,51.3936051],[-0.0591462,51.3938446],[-0.0597223,51.394123],[-0.0601544,51.3943364],[-0.0603133,51.3944298],[-0.060458,51.3945193],[-0.0605631,51.3946139],[-0.0607184,51.3947496],[-0.060815,51.3948431],[-0.0608961,51.3949153],[-0.060981,51.3950398],[-0.0610614,51.3951428],[-0.0611404,51.3952611],[-0.061206,51.3953948],[-0.0612728,51.3955435],[-0.0613265,51.3956789],[-0.0613737,51.3957983],[-0.0614084,51.3959081],[-0.0615275,51.3962048],[-0.061631,51.3964723],[-0.061724,51.3967147],[-0.0617758,51.3968991],[-0.0618096,51.397026],[-0.0618211,51.397123],[-0.0618229,51.3972346],[-0.0617989,51.3973395],[-0.0617727,51.3974412],[-0.0616991,51.3975579],[-0.061612,51.39766],[-0.061511,51.3977461],[-0.0613974,51.397824],[-0.0612915,51.3978835],[-0.061154,51.3979507],[-0.0609884,51.3980139],[-0.0608485,51.3980662],[-0.0606161,51.3981453],[-0.0604297,51.3982122],[-0.0602376,51.3982863],[-0.0600996,51.3983392],[-0.0599686,51.3984085],[-0.0598886,51.398481],[-0.0598102,51.3985695],[-0.0597686,51.398653],[-0.0597344,51.3987387],[-0.0597118,51.3988224],[-0.0597223,51.3989163],[-0.0597413,51.3990073],[-0.0597793,51.3990891],[-0.0598137,51.3991472],[-0.0598574,51.3992133],[-0.059946,51.3992858],[-0.0600372,51.3993648],[-0.0601827,51.3994619],[-0.0603082,51.3995463],[-0.0604811,51.399663],[-0.0609732,51.399971],[-0.0612329,51.4001373],[-0.0616584,51.4004468]]},"properties":{"name":"London Trams (Beckenham Junction branch)","gauge":"1435","oneway":"yes","railway":"tram","voltage":"750","frequency":"0","electrified":"contact_line"}},
{"type":"Feature","geometry":{"type":"LineString","coordinates":[[-0.1081754,51.3744268],[-0.1079546,51.3746113],[-0.1076685,51.37485],[-0.1074377,51.3750276],[-0.1072834,51.3751472],[-0.1071282,51.375249]]},"properties":{"name":"London Trams","gauge":"1435","oneway":"no","railway":"tram","voltage":"750","frequency":"0","electrified":"contact_line"}},
{"type":"Feature","geometry":{"type":"LineString","coordinates":[[-0.043575,51.4094889],[-0.0440399,51.4093193]]},"properties":{"name":"London Trams (Beckenham Junction branch)","gauge":"1435","layer":"1","bridge":"yes","oneway":"no","railway":"tram","voltage":"750","frequency":"0","electrified":"contact_line"}},
{"type":"Feature","geometry":{"type":"LineString","coordinates":[[-0.0489996,51.407045],[-0.048489,51.4072889],[-0.047512,51.4077545],[-0.0463669,51.4083014],[-0.0454827,51.4087197],[-0.0450557,51.4089074],[-0.0445546,51.4091139],[-0.0440399,51.4093193]]},"properties":{"name":"London Trams (Beckenham Junction branch)","gauge":"1435","oneway":"no","railway":"tram","voltage":"750","frequency":"0","electrified":"contact_line"}},
{"type":"Feature","geometry":{"type":"LineString","coordinates":[[-0.056032,51.393089],[-0.0556708,51.3933182],[-0.0547683,51.3939444],[-0.0538949,51.394571],[-0.0530026,51.3952341],[-0.0522893,51.3958057],[-0.0519338,51.396089],[-0.0515205,51.3964268],[-0.051205,51.3967026],[-0.0508873,51.3970377],[-0.0506512,51.3972945],[-0.0504513,51.3975184],[-0.0502154,51.3977386],[-0.0499348,51.3979941],[-0.0495263,51.3983499]]},"properties":{"name":"London Trams (Elmers End branch)","gauge":"1435","oneway":"no","railway":"tram","voltage":"750","frequency":"0","electrified":"contact_line"}},
{"type":"Feature","geometry":{"type":"LineString","coordinates":[[-0.0261862,51.4106661],[-0.0265779,51.4107561]]},"properties":{"name":"London Trams (Beckenham Junction branch)","gauge":"1435","railway":"tram","voltage":"750","frequency":"0","electrified":"contact_line"}},
{"type":"Feature","geometry":{"type":"LineString","coordinates":[[-0.1587046,51.3930514],[-0.1585188,51.3930203],[-0.1580803,51.3928647],[-0.1577363,51.3927754],[-0.1576517,51.392754],[-0.1572351,51.3926575],[-0.1571316,51.3926327],[-0.1567754,51.3925472],[-0.1564588,51.3924599],[-0.1562552,51.3923814]]},"properties":{"name":"London Trams (Wimbledon branch)","gauge":"1435","oneway":"yes","railway":"tram","voltage":"750","frequency":"0","electrified":"contact_line"}},
{"type":"Feature","geometry":{"type":"LineString","coordinates":[[-0.2058631,51.4210752],[-0.2060896,51.4209135],[-0.2073636,51.4201148],[-0.2074737,51.4200215]]},"properties":{"name":"London Trams","gauge":"1435","oneway":"no","tunnel":"yes","railway":"tram","voltage":"750","frequency":"0","electrified":"contact_line"}},
{"type":"Feature","geometry":{"type":"LineString","coordinates":[[-0.0761524,51.3745478],[-0.0758392,51.3744696],[-0.0755548,51.3744047],[-0.0754513,51.3743876],[-0.0753282,51.3743902],[-0.0752252,51.3744068],[-0.075112,51.3744446],[-0.0750085,51.3745174],[-0.074923,51.3746145],[-0.0744804,51.3751611],[-0.0741922,51.3755725],[-0.0740647,51.375791],[-0.0739321,51.3760436],[-0.0737785,51.3763801],[-0.0736964,51.3766001],[-0.0736079,51.3768515],[-0.0735504,51.3770627],[-0.0735043,51.3772936],[-0.0734591,51.3775356],[-0.0734242,51.3778328],[-0.0733962,51.3781852],[-0.0733487,51.3788418],[-0.0733004,51.3795019],[-0.073267,51.3799365],[-0.0732397,51.3802694],[-0.0732202,51.3805742],[-0.0731865,51.3810203],[-0.0731226,51.3814435],[-0.0730389,51.3817678],[-0.0729454,51.3820476],[-0.0728436,51.3823015],[-0.0727031,51.3825862],[-0.072515,51.3829047],[-0.0723787,51.3831065],[-0.0722004,51.3833476],[-0.0719866,51.3835973],[-0.0718109,51.3837851],[-0.0716229,51.3839753],[-0.0713546,51.3842111],[-0.0711517,51.3843679],[-0.070752,51.3846261],[-0.0705185,51.3847825],[-0.0704624,51.3848201],[-0.070221,51.3849891],[-0.0700631,51.3851048],[-0.0699452,51.3851911],[-0.0697064,51.3853642],[-0.0694698,51.3854644],[-0.0691859,51.3855732],[-0.0688938,51.3856688],[-0.0683155,51.3858694],[-0.067772,51.3860571],[-0.0671861,51.3862992],[-0.0665853,51.3865328],[-0.0659507,51.3868073],[-0.0653308,51.3870773],[-0.0652803,51.3871039],[-0.0647811,51.3873668],[-0.0642994,51.3876607],[-0.0638632,51.3879024],[-0.0629581,51.3884507],[-0.0624951,51.3887514],[-0.062048,51.3890558],[-0.060939,51.3898149],[-0.0603942,51.3901542],[-0.0599054,51.3904799],[-0.0594852,51.3907734],[-0.0590556,51.3910607],[-0.0585076,51.3914294],[-0.0582529,51.3916054],[-0.0580364,51.39175],[-0.0576382,51.3920363]]},"properties":{"electrified":"contact_line","frequency":"0","gauge":"1435","name":"London Trams (Elmers End branch)","oneway":"yes","railway":"tram","voltage":"750"}},
{"type":"Feature","geometry":{"type":"LineString","coordinates":[[-0.1053403,51.3740186],[-0.1055719,51.3740858],[-0.1056434,51.3741087],[-0.1058033,51.3741599],[-0.1058861,51.3741904],[-0.1059511,51.3742126],[-0.1060275,51.3742361],[-0.1060972,51.3742732],[-0.1061661,51.374325],[-0.1062178,51.3743822],[-0.1062525,51.3744436],[-0.1062719,51.3745117],[-0.1062965,51.3746996],[-0.1063207,51.3748866],[-0.1063384,51.3750298],[-0.106358,51.3750987],[-0.1063857,51.3751665],[-0.1064298,51.3752134],[-0.1064755,51.375243],[-0.1064985,51.375258],[-0.1065871,51.3753015]]},"properties":{"name":"London Trams","gauge":"1435","oneway":"yes","railway":"tram","voltage":"750","frequency":"0","electrified":"contact_line"}},
{"type":"Feature","geometry":{"type":"LineString","coordinates":[[-0.0761767,51.3745173],[-0.0764203,51.3746012],[-0.0766883,51.37469],[-0.0768848,51.3747519],[-0.0770745,51.3748033],[-0.0772628,51.3748448],[-0.0777578,51.3749371],[-0.0781049,51.3750019],[-0.0782273,51.3750236],[-0.078412,51.3750475],[-0.0785852,51.3750548],[-0.0789689,51.375048],[-0.0794541,51.3750501],[-0.0799535,51.375047],[-0.0801106,51.3750506],[-0.0805586,51.375061],[-0.0808725,51.3750624],[-0.081095,51.3750658],[-0.0815598,51.3750828],[-0.0818903,51.3750849],[-0.0821475,51.3750792],[-0.0825853,51.3750439],[-0.0829556,51.3750251],[-0.083296,51.3750205],[-0.083872,51.3750787],[-0.0845004,51.3751488],[-0.0848154,51.3751769],[-0.0849049,51.3751914],[-0.0850747,51.3752018],[-0.0855558,51.3752049],[-0.0859259,51.3752071],[-0.0861192,51.3751956],[-0.0865562,51.3751498],[-0.0873236,51.3750813],[-0.0877572,51.3750371],[-0.0880569,51.3750174],[-0.088476,51.3750135],[-0.0886803,51.375021],[-0.0889866,51.3750516],[-0.0896707,51.3751353],[-0.0900048,51.3751786],[-0.0904509,51.3752304],[-0.090502,51.375236],[-0.0905856,51.3752487],[-0.0906932,51.375273],[-0.0907935,51.3752844],[-0.0909371,51.3752925],[-0.0910257,51.3752886],[-0.0911947,51.3752657],[-0.0913478,51.3752231],[-0.091786,51.3750951],[-0.0918808,51.3750575]]},"properties":{"electrified":"contact_line","frequency":"0","gauge":"1435","name":"London Trams","oneway":"yes","railway":"tram","voltage":"750"}},
{"type":"Feature","geometry":{"type":"LineString","coordinates":[[-0.0922494,51.3749557],[-0.0927844,51.3748462],[-0.0931268,51.3747762]]},"properties":{"electrified":"contact_line","frequency":"0","gauge":"1435","name":"London Trams","oneway":"no","railway":"tram","voltage":"750"}},
{"type":"Feature","geometry":{"type":"LineString","coordinates":[[-0.0919174,51.3750787],[-0.0918117,51.3751214],[-0.0911724,51.3753059],[-0.091098,51.3753157],[-0.0910133,51.3753249],[-0.0908291,51.3753218],[-0.0907019,51.375312],[-0.0905823,51.3752948],[-0.090532,51.3752894],[-0.0905043,51.3752852],[-0.0904542,51.3752784],[-0.0903432,51.3752621],[-0.0900832,51.3752305],[-0.0898815,51.3751988],[-0.0890087,51.3750866],[-0.0887734,51.3750524],[-0.0884807,51.3750378],[-0.0881873,51.3750412],[-0.0878586,51.3750601],[-0.0873877,51.3751062],[-0.0868736,51.3751492],[-0.0864672,51.3751924],[-0.0860667,51.3752341],[-0.0859063,51.3752383],[-0.0857469,51.3752371],[-0.0853227,51.3752387],[-0.0850601,51.3752366],[-0.0847328,51.3752087],[-0.0840492,51.3751321],[-0.0835093,51.375075],[-0.083283,51.3750609],[-0.0832576,51.3750605],[-0.08306,51.375057],[-0.0823554,51.3751073],[-0.0823002,51.3751106],[-0.0819991,51.375117],[-0.0817004,51.3751158],[-0.0816216,51.3751147],[-0.0809586,51.3751016]]},"properties":{"name":"London Trams","gauge":"1435","oneway":"yes","tracks":"2","railway":"tram","voltage":"750","maxspeed":"50","frequency":"0","electrified":"contact_line"}},
{"type":"Feature","geometry":{"type":"LineString","coordinates":[[-0.0918808,51.3750575],[-0.0920347,51.3749689],[-0.0922208,51.3749024],[-0.0924192,51.3748618],[-0.0927623,51.3747991],[-0.0930974,51.3747379],[-0.0935178,51.374671]]},"properties":{"name":"London Trams","gauge":"1435","oneway":"yes","railway":"tram","voltage":"750","frequency":"0","electrified":"contact_line"}},
{"type":"Feature","geometry":{"type":"LineString","coordinates":[[-0.1834355,51.4041421],[-0.1824758,51.4035725],[-0.1821142,51.4033515],[-0.182059,51.4033195],[-0.1809824,51.4026456],[-0.1799869,51.4020067],[-0.1785985,51.4011468],[-0.1781763,51.400872],[-0.1781192,51.4008349],[-0.1780058,51.4007536],[-0.1777044,51.4005484],[-0.1773937,51.400319],[-0.1768846,51.3999823],[-0.1763322,51.3996275],[-0.1752793,51.3989485],[-0.1750477,51.398813],[-0.1749048,51.3987359],[-0.1748235,51.398692],[-0.1744159,51.3984895],[-0.1741275,51.3983576],[-0.1738649,51.3982149]]},"properties":{"name":"London Trams (Wimbledon branch)","gauge":"1435","oneway":"yes","railway":"tram","voltage":"750","frequency":"0","electrified":"contact_line"}},
{"type":"Feature","geometry":{"type":"LineString","coordinates":[[-0.2075912,51.4199021],[-0.2077077,51.4196986],[-0.2077917,51.4195441],[-0.2078628,51.4193878],[-0.2079329,51.4192177],[-0.2079869,51.4190535],[-0.2080256,51.4188885],[-0.2080379,51.4186689],[-0.2080404,51.4186234],[-0.2080287,51.4184638],[-0.2079944,51.4183055],[-0.2079542,51.4181413],[-0.2079201,51.4180295],[-0.2078629,51.4179048],[-0.2077865,51.4177777],[-0.207536,51.4174546],[-0.2075091,51.4174202],[-0.2074129,51.4173168],[-0.2072909,51.4171955],[-0.2070742,51.417009],[-0.2068009,51.4168186],[-0.2065728,51.4166752],[-0.2063593,51.4165716],[-0.2061123,51.4164619],[-0.2058921,51.4163735],[-0.2055035,51.4162299],[-0.2049518,51.4160399],[-0.2045221,51.4158763],[-0.2041785,51.4157289],[-0.2038932,51.4155992],[-0.2036,51.4154526],[-0.2032367,51.4152577],[-0.2029299,51.4150763],[-0.2027093,51.4149351],[-0.202499,51.414786],[-0.2022752,51.4146197],[-0.2020844,51.4144615],[-0.2016848,51.4141001],[-0.2014929,51.4139184],[-0.2011713,51.4135914],[-0.2011538,51.4135736],[-0.2011347,51.4135542],[-0.2007838,51.4131881],[-0.2004199,51.4128533],[-0.2000779,51.4125931],[-0.1998714,51.4124454],[-0.1995449,51.4122228],[-0.1992472,51.4120348],[-0.1989369,51.411853],[-0.1985983,51.4116711],[-0.1981983,51.4114719],[-0.1967243,51.4107476],[-0.1962008,51.4104933],[-0.1957118,51.4102566],[-0.1948424,51.4098238],[-0.193144,51.4090059],[-0.1926742,51.4087733],[-0.1926439,51.4087584],[-0.1915007,51.4082044]]},"properties":{"electrified":"contact_line","frequency":"0","gauge":"1435","name":"London Trams (Wimbledon branch)","oneway":"yes","railway":"tram","voltage":"750"}},
{"type":"Feature","geometry":{"type":"LineString","coordinates":[[-0.0827519,51.3659084],[-0.0829052,51.3657216],[-0.0829482,51.3656651],[-0.0831798,51.3653648],[-0.0833773,51.3650983],[-0.0834979,51.3649399],[-0.08353,51.3648589],[-0.0835368,51.3647831],[-0.0835101,51.3647015],[-0.0834641,51.3646484],[-0.0833988,51.3646],[-0.0833022,51.3645503],[-0.0832154,51.3645246],[-0.0831146,51.3645009],[-0.0829466,51.3644756],[-0.0827407,51.3644508],[-0.0824423,51.3644146],[-0.0820589,51.3643605],[-0.0814883,51.3642921],[-0.0810341,51.3642443],[-0.0805814,51.3642061],[-0.0803401,51.3641951],[-0.0800612,51.3641824],[-0.0796908,51.3641697],[-0.079362,51.3641537],[-0.0789242,51.3641231],[-0.0784606,51.36408],[-0.077966,51.3640256],[-0.0773758,51.3639546],[-0.0758029,51.3637577],[-0.0754606,51.3637153],[-0.0750559,51.3636636],[-0.0748377,51.3636307],[-0.074558,51.3635761],[-0.0740866,51.3634805],[-0.0734918,51.3633624],[-0.0729771,51.3632855],[-0.072496,51.3632363],[-0.072055,51.3632128],[-0.0715956,51.3632071],[-0.070715,51.3632369],[-0.0703684,51.3632374],[-0.070149,51.3632252],[-0.0697689,51.3632046],[-0.0693459,51.3631674],[-0.0681547,51.3630643],[-0.0677009,51.3630292],[-0.067444,51.363007],[-0.0672254,51.3629863],[-0.0669978,51.3629559],[-0.0667202,51.3629071],[-0.0664996,51.3628589],[-0.0662964,51.3628042],[-0.0661214,51.3627531],[-0.0659196,51.362683],[-0.0657332,51.3626111],[-0.0655561,51.3625308],[-0.0653618,51.3624377],[-0.0652083,51.3623563],[-0.0650893,51.3622817],[-0.0649488,51.3621883],[-0.0647994,51.3620798],[-0.0645861,51.361902],[-0.0645039,51.3618157],[-0.0643358,51.3616373],[-0.0640846,51.3613644],[-0.0638632,51.361139],[-0.0635994,51.360934],[-0.0634121,51.3608078],[-0.0632097,51.3606902],[-0.0628195,51.3605053],[-0.062533,51.3603718],[-0.062238,51.3602356],[-0.0620906,51.3601673],[-0.0619563,51.360116],[-0.0617357,51.3600381],[-0.0615885,51.3599951],[-0.0614153,51.3599558],[-0.0612616,51.3599265],[-0.061046,51.3598947],[-0.060773,51.3598673],[-0.0604358,51.3598422],[-0.0600802,51.3598192],[-0.0597283,51.3597964],[-0.059436,51.3597782],[-0.0586996,51.3597217],[-0.0582758,51.3596843],[-0.0579418,51.3596444],[-0.0577096,51.3596052],[-0.0575535,51.3595748],[-0.0573879,51.359537],[-0.0571932,51.3594891],[-0.0569916,51.3594298],[-0.0567661,51.3593607],[-0.0565839,51.3592919],[-0.0564216,51.3592203],[-0.0562677,51.3591335],[-0.056187,51.3590734],[-0.0561555,51.3590501],[-0.0560636,51.3589548],[-0.0560142,51.3588829],[-0.0559856,51.3588079],[-0.0559544,51.3587004],[-0.0559289,51.3585702],[-0.0558903,51.3585063],[-0.0558391,51.3584475],[-0.0557611,51.3583789],[-0.0556615,51.358319],[-0.0555263,51.358265],[-0.0551352,51.3581338],[-0.0546754,51.3579801],[-0.0544098,51.3578784],[-0.0541421,51.3577608],[-0.0538347,51.3576163],[-0.0535498,51.3574678],[-0.0529851,51.3571411],[-0.0524456,51.3568424],[-0.0519614,51.3565715],[-0.0516417,51.3564044],[-0.0513122,51.3562453],[-0.0510328,51.3561118],[-0.0507518,51.3559911],[-0.0502615,51.3557897],[-0.0500454,51.3557053],[-0.0498215,51.3556253],[-0.049363,51.3554654],[-0.0488321,51.3553032],[-0.0484211,51.3551878],[-0.0480039,51.3550799],[-0.047599,51.354984],[-0.0471731,51.3548965],[-0.0466803,51.3548044],[-0.0460945,51.354711],[-0.0456334,51.3546492],[-0.0450502,51.3545887],[-0.0447014,51.3545563],[-0.0443901,51.3545382],[-0.0440033,51.354528],[-0.0436564,51.3545304],[-0.0433167,51.3545436],[-0.0429213,51.3545721],[-0.0425518,51.3545965],[-0.0425286,51.3545984],[-0.0422624,51.3546303],[-0.0422588,51.3546311],[-0.0420881,51.3546691],[-0.0419388,51.3547107],[-0.0417863,51.3547556],[-0.0415796,51.3548112],[-0.0414202,51.3548405],[-0.0412582,51.3548607],[-0.0411321,51.3548677],[-0.0409724,51.3548647],[-0.0407678,51.3548495],[-0.0405856,51.35482],[-0.0404102,51.3547771],[-0.040321,51.354755],[-0.0398002,51.3546172],[-0.038966,51.3543911],[-0.038137,51.3541654],[-0.0379246,51.3541099],[-0.0378242,51.3540877],[-0.0377188,51.3540747],[-0.0376187,51.3540764],[-0.037531,51.3540845],[-0.0374303,51.3540978],[-0.0373223,51.3541264],[-0.0372266,51.3541776],[-0.0371497,51.3542392],[-0.0370898,51.354315],[-0.0370066,51.3544391],[-0.0369476,51.354514],[-0.0369233,51.3545555],[-0.0368508,51.3546456],[-0.0367574,51.3547233],[-0.0365566,51.3548755],[-0.036391,51.3549915],[-0.0361317,51.3551717],[-0.0358628,51.3553724],[-0.035598,51.3555578],[-0.0350811,51.3559084],[-0.0348182,51.3560531],[-0.0346147,51.3561352],[-0.0344245,51.3561882],[-0.0341968,51.356237900000007],[-0.0340288,51.3562715],[-0.0338625,51.3562923],[-0.0337033,51.3562971],[-0.0335347,51.3562917],[-0.0333325,51.3562839],[-0.0328821,51.3562667],[-0.0325681,51.3562533],[-0.0325413,51.3562518],[-0.0322939,51.3562383],[-0.0321565,51.3562259],[-0.0320292,51.3562054],[-0.0318901,51.3561735],[-0.0317471,51.3561273],[-0.031612,51.3560721],[-0.0314655,51.3559925],[-0.0310702,51.3557652],[-0.0307202,51.3555693],[-0.0304371,51.3554122],[-0.030038,51.3551787],[-0.0296109,51.3549339],[-0.0290879,51.3546367],[-0.0283187,51.3541956],[-0.0275417,51.3537594],[-0.0270993,51.3535062],[-0.0266826,51.3532664],[-0.0262309,51.3530073],[-0.0257903,51.3527556],[-0.0255807,51.3526151],[-0.0254084,51.3524892],[-0.0252506,51.3523853],[-0.025101,51.3522551],[-0.0249652,51.3521345],[-0.0248023,51.3519664],[-0.0246741,51.3518162],[-0.0245979,51.3517227],[-0.0245209,51.3516065],[-0.0244131,51.3514213],[-0.0242787,51.3511708],[-0.0241702,51.3509685],[-0.0240355,51.3507338],[-0.0239635,51.3506084],[-0.0238259,51.3503987],[-0.0236532,51.3501559],[-0.0235768,51.3500325],[-0.0234997,51.349919],[-0.0233566,51.3496683],[-0.0231517,51.3493179],[-0.0227993,51.3486657],[-0.0225263,51.3481997],[-0.0222599,51.3477262],[-0.0220264,51.3473229],[-0.0217455,51.3469313],[-0.021635,51.3467551],[-0.0214821,51.3465778],[-0.0213498,51.3464504],[-0.0211942,51.3463106],[-0.0209743,51.346152],[-0.0208068,51.345997],[-0.0206557,51.3458576],[-0.0204762,51.3456709],[-0.0204512,51.3456342],[-0.0202322,51.3453762],[-0.0200819,51.3452086],[-0.0199649,51.3450731],[-0.0196478,51.3447103],[-0.0193204,51.3443673],[-0.019189,51.3442171],[-0.0191299,51.3441341],[-0.019074,51.344036],[-0.0189923,51.3438727]]},"properties":{"name":"London Trams (New Addington branch)","gauge":"1435","oneway":"yes","railway":"tram","voltage":"750","frequency":"0","electrified":"contact_line"}},
{"type":"Feature","geometry":{"type":"LineString","coordinates":[[-0.0353636,51.4112897],[-0.0357698,51.4112579]]},"properties":{"name":"London Trams (Beckenham Junction branch)","gauge":"1435","layer":"1","bridge":"yes","oneway":"no","railway":"tram","voltage":"750","frequency":"0","electrified":"contact_line"}},
{"type":"Feature","geometry":{"type":"LineString","coordinates":[[-0.0357698,51.4112579],[-0.0369942,51.4111051],[-0.037569,51.4110253],[-0.0381439,51.4109255],[-0.039087,51.4107489],[-0.0398565,51.4105815],[-0.0403096,51.4104747],[-0.0407268,51.4103615],[-0.0409806,51.4102989]]},"properties":{"name":"London Trams (Beckenham Junction branch)","gauge":"1435","oneway":"no","railway":"tram","voltage":"750","frequency":"0","electrified":"contact_line"}},
{"type":"Feature","geometry":{"type":"LineString","coordinates":[[-0.2053566,51.4214075],[-0.205497,51.421317]]},"properties":{"name":"London Trams (Wimbledon branch)","gauge":"1435","railway":"tram","voltage":"750","frequency":"0","electrified":"contact_line"}},
{"type":"Feature","geometry":{"type":"LineString","coordinates":[[-0.0826637,51.366008],[-0.0827519,51.3659084]]},"properties":{"name":"London Trams (New Addington branch)","gauge":"1435","layer":"1","bridge":"yes","oneway":"yes","railway":"tram","voltage":"750","frequency":"0","electrified":"contact_line"}},
{"type":"Feature","geometry":{"type":"LineString","coordinates":[[-0.0184514,51.3432609],[-0.0186564,51.3434423],[-0.0188141,51.3435984],[-0.018946,51.3437625],[-0.0189923,51.3438727]]},"properties":{"name":"London Trams (New Addington branch)","gauge":"1435","oneway":"no","railway":"tram","voltage":"750","frequency":"0","electrified":"contact_line"}},
{"type":"Feature","geometry":{"type":"LineString","coordinates":[[-0.0552842,51.4040009],[-0.0533025,51.4049587],[-0.0523039,51.4054389],[-0.0513233,51.4059082],[-0.0506146,51.4062568]]},"properties":{"name":"London Trams (Beckenham Junction branch)","gauge":"1435","oneway":"no","railway":"tram","voltage":"750","frequency":"0","electrified":"contact_line"}},
{"type":"Feature","geometry":{"type":"LineString","coordinates":[[-0.0931268,51.3747762],[-0.0935178,51.374671]]},"properties":{"name":"London Trams","gauge":"1435","oneway":"yes","railway":"tram","voltage":"750","frequency":"0","electrified":"contact_line"}},
{"type":"Feature","geometry":{"type":"LineString","coordinates":[[-0.0922494,51.3749557],[-0.0919174,51.3750787]]},"properties":{"name":"London Trams","gauge":"1435","oneway":"yes","railway":"tram","voltage":"750","frequency":"0","electrified":"contact_line"}},
{"type":"Feature","geometry":{"type":"LineString","coordinates":[[-0.0935122,51.3747141],[-0.0931429,51.3748108],[-0.0926469,51.3749081],[-0.0922672,51.3749854],[-0.0919174,51.3750787]]},"properties":{"name":"London Trams","gauge":"1435","layer":"2","oneway":"yes","tracks":"2","railway":"tram","voltage":"750","frequency":"0","electrified":"contact_line"}},
{"type":"Feature","geometry":{"type":"LineString","coordinates":[[-0.1071282,51.375249],[-0.1069491,51.3753543],[-0.1068325,51.375391],[-0.1067185,51.375401599999999],[-0.1066095,51.3753997]]},"properties":{"name":"London Trams","gauge":"1435","oneway":"yes","covered":"yes","railway":"tram","voltage":"750","frequency":"0","electrified":"contact_line"}},
{"type":"Feature","geometry":{"type":"LineString","coordinates":[[-0.055552,51.403867],[-0.0558016,51.4037479],[-0.0562102,51.4035478],[-0.0566226,51.4033501],[-0.0570984,51.4031162],[-0.057596,51.4028733],[-0.0585377,51.4024333],[-0.0590008,51.4022475],[-0.0594962,51.4020986],[-0.0599927,51.4019872],[-0.0604296,51.4019051],[-0.0609833,51.4018083],[-0.0613476,51.4017341],[-0.0615843,51.4016869],[-0.0618707,51.4016258],[-0.0620503,51.4015838],[-0.0621734,51.4015421],[-0.0622716,51.4014985],[-0.0623484,51.4014448],[-0.0624071,51.4013878],[-0.0624561,51.401309],[-0.06248,51.401236],[-0.0624773,51.4011559],[-0.062451,51.4010842],[-0.0624181,51.4010168],[-0.0623662,51.4009344],[-0.0622981,51.4008751],[-0.0621793,51.4007824],[-0.0620088,51.4006741],[-0.0616584,51.4004468]]},"properties":{"name":"London Trams (Beckenham Junction branch)","gauge":"1435","oneway":"no","railway":"tram","voltage":"750","frequency":"0","electrified":"contact_line"}},
{"type":"Feature","geometry":{"type":"LineString","coordinates":[[-0.1550045,51.392048],[-0.1552905,51.3920908],[-0.1555102,51.3921545],[-0.1558777,51.3922631],[-0.1562552,51.3923814]]},"properties":{"name":"London Trams (Wimbledon branch)","gauge":"1435","oneway":"no","railway":"tram","voltage":"750","frequency":"0","electrified":"contact_line"}},
{"type":"Feature","geometry":{"type":"LineString","coordinates":[[-0.0338289,51.4113977],[-0.0341645,51.4113788]]},"properties":{"name":"London Trams (Beckenham Junction branch)","gauge":"1435","layer":"1","bridge":"yes","oneway":"no","railway":"tram","voltage":"750","frequency":"0","electrified":"contact_line"}},
{"type":"Feature","geometry":{"type":"LineString","coordinates":[[-0.0341645,51.4113788],[-0.0350251,51.4113205],[-0.0353636,51.4112897]]},"properties":{"name":"London Trams (Beckenham Junction branch)","gauge":"1435","oneway":"no","railway":"tram","voltage":"750","frequency":"0","electrified":"contact_line"}},
{"type":"Feature","geometry":{"type":"LineString","coordinates":[[-0.0409806,51.4102989],[-0.0412551,51.4102044],[-0.0414201,51.4101445],[-0.0420972,51.4099472],[-0.0423989,51.4098604],[-0.0427281,51.4097824]]},"properties":{"name":"London Trams (Beckenham Junction branch)","gauge":"1435","oneway":"yes","railway":"tram","voltage":"750","frequency":"0","electrified":"contact_line"}},
{"type":"Feature","geometry":{"type":"LineString","coordinates":[[-0.0616584,51.4004468],[-0.0614495,51.4003446],[-0.0612602,51.4002343],[-0.0610109,51.4000705],[-0.0606305,51.3998191],[-0.0604262,51.3996825],[-0.0601357,51.3994883],[-0.0600046,51.3993949],[-0.0598897,51.3993002],[-0.0598108,51.3992262],[-0.0597561,51.3991534],[-0.059713,51.3990712],[-0.0596811,51.3989805],[-0.0596608,51.3989087],[-0.0596551,51.3988236],[-0.0596763,51.3987157],[-0.0597176,51.3986287],[-0.0597902,51.3985187],[-0.0598916,51.3984147],[-0.0599724,51.3983551],[-0.0600908,51.3983002],[-0.0602131,51.3982566],[-0.0603905,51.398193],[-0.0607772,51.3980461],[-0.0609944,51.397966],[-0.061202,51.3978832],[-0.0613269,51.3978143],[-0.0614173,51.3977565],[-0.0615133,51.3976778],[-0.0615931,51.3976122],[-0.0616534,51.3975377],[-0.061698,51.3974715],[-0.061727,51.3974005],[-0.0617493,51.3973351],[-0.0617705,51.3972334],[-0.0617661,51.3971499],[-0.061765,51.3970775],[-0.0617415,51.3969891],[-0.0617181,51.3968958],[-0.0616599,51.3967193],[-0.0613428,51.3959102],[-0.061148,51.3954164],[-0.0610955,51.3953148],[-0.061011,51.3951883],[-0.0609356,51.3950697],[-0.06086,51.394951],[-0.0606657,51.3947751],[-0.0605211,51.3946454],[-0.0603293,51.3944959],[-0.0600637,51.3943447],[-0.0596775,51.394149],[-0.0591724,51.3939108],[-0.0585366,51.3936038],[-0.0581463,51.3934274],[-0.0579617,51.3933257],[-0.0577992,51.3932288],[-0.0576351,51.3931074],[-0.057519,51.3929806],[-0.0574522,51.3928909],[-0.0573461,51.3927489],[-0.0573178,51.3926135],[-0.0573153,51.3925296],[-0.0573235,51.3924657],[-0.0573344,51.392386],[-0.0573674,51.3923095],[-0.0574319,51.3921805],[-0.0575947,51.3920136]]},"properties":{"electrified":"contact_line","frequency":"0","gauge":"1435","name":"London Trams (Beckenham Junction branch)","oneway":"yes","railway":"tram","voltage":"750"}},
{"type":"Feature","geometry":{"type":"LineString","coordinates":[[-0.0489996,51.407045],[-0.049183,51.406927],[-0.0493582,51.406831],[-0.0494158,51.406803],[-0.0498755,51.4065809],[-0.0499866,51.4065261],[-0.0502731,51.4063848],[-0.0504383,51.4063208],[-0.0506146,51.4062568]]},"properties":{"electrified":"contact_line","frequency":"0","gauge":"1435","name":"London Trams (Beckenham Junction branch)","oneway":"yes","railway":"tram","voltage":"750"}},
{"type":"Feature","geometry":{"type":"LineString","coordinates":[[-0.056032,51.393089],[-0.0562906,51.3928964],[-0.0566717,51.3926344],[-0.057128,51.3923243],[-0.0575947,51.3920136]]},"properties":{"name":"London Trams (Elmers End branch)","gauge":"1435","oneway":"yes","railway":"tram","voltage":"750","frequency":"0","electrified":"contact_line"}},
{"type":"Feature","geometry":{"type":"LineString","coordinates":[[-0.0575947,51.3920136],[-0.0579997,51.3917273],[-0.0582184,51.3915801],[-0.0584746,51.3914076],[-0.0590201,51.3910386],[-0.0594399,51.3907457],[-0.0603548,51.3901289],[-0.061148,51.3896219],[-0.061852,51.3891418],[-0.0625415,51.3886708],[-0.0635156,51.3880602],[-0.0642283,51.3876571],[-0.0647395,51.3873492],[-0.0650761,51.3871599],[-0.0652547,51.3870806],[-0.0655898,51.386932],[-0.0656099,51.3869229],[-0.0661041,51.3866927],[-0.0667001,51.3864447],[-0.0670311,51.3863181],[-0.0677454,51.3860349],[-0.0683015,51.3858392],[-0.0686476,51.3857154],[-0.0689298,51.3856187],[-0.0691543,51.3855441],[-0.069388,51.3854627],[-0.0696743,51.3853369],[-0.0699191,51.3851736],[-0.070038,51.3850894],[-0.0703167,51.3848874],[-0.0704945,51.3847695],[-0.070728,51.3846109],[-0.07084119999999999,51.3845327],[-0.071121,51.3843525],[-0.0713026,51.3841964],[-0.0714938,51.3840234],[-0.0716929,51.3838394],[-0.0718969,51.3836206],[-0.0720833,51.3834098],[-0.0722538,51.3831901],[-0.0723478,51.3830548],[-0.0724832,51.382852],[-0.0726139,51.3826412],[-0.0727142,51.3824393],[-0.0728098,51.3822285],[-0.0728911,51.3820366],[-0.0729516,51.3818477],[-0.0730106,51.3816557],[-0.0730648,51.3814181],[-0.0731031,51.3811862],[-0.0731476,51.3807797],[-0.0731841,51.3802852],[-0.0732225,51.3798217],[-0.0732488,51.3794852],[-0.0732671,51.3792661],[-0.0732961,51.3787629],[-0.0733254,51.3782651],[-0.0733513,51.3779113],[-0.0733817,51.3776223],[-0.0734369,51.3773122],[-0.0735135,51.3769789],[-0.0735949,51.3767119],[-0.0737172,51.3763864],[-0.0738597,51.3760423],[-0.0740822,51.3756576],[-0.0743472,51.3752502],[-0.0745435,51.3750099],[-0.0747049,51.3748129],[-0.074916,51.3745471],[-0.0750273,51.3744387],[-0.0751473,51.3743825],[-0.0752561,51.3743544],[-0.0753923,51.3743458],[-0.0754998,51.3743552],[-0.075787,51.3744194],[-0.0759611,51.3744621],[-0.0761767,51.3745173]]},"properties":{"electrified":"contact_line","frequency":"0","gauge":"1435","name":"London Trams (Elmers End branch)","oneway":"yes","railway":"tram","voltage":"750"}},
{"type":"Feature","geometry":{"type":"LineString","coordinates":[[-0.0762018,51.3731956],[-0.0755224,51.3739462],[-0.0754811,51.3740323],[-0.0754687,51.3741107],[-0.0754793,51.3741741],[-0.0755323,51.3742492],[-0.0756225,51.3743154],[-0.0757436,51.3743706],[-0.0759354,51.3744313],[-0.0761767,51.3745173]]},"properties":{"name":"London Trams (New Addington branch)","gauge":"1435","oneway":"yes","railway":"tram","voltage":"750","frequency":"0","electrified":"contact_line"}},
{"type":"Feature","geometry":{"type":"LineString","coordinates":[[-0.0827107,51.3660306],[-0.0823924,51.3664051],[-0.0821767,51.3666491],[-0.0818771,51.366978],[-0.0816384,51.3672385],[-0.0813016,51.3676121],[-0.08072,51.3682495],[-0.0801246,51.3689105],[-0.079839,51.3692219]]},"properties":{"name":"London Trams (New Addington branch)","gauge":"1435","oneway":"yes","railway":"tram","voltage":"750","frequency":"0","electrified":"contact_line"}},
{"type":"Feature","geometry":{"type":"LineString","coordinates":[[-0.0827954,51.3659251],[-0.0827107,51.3660306]]},"properties":{"name":"London Trams (New Addington branch)","gauge":"1435","layer":"1","bridge":"yes","oneway":"yes","railway":"tram","voltage":"750","frequency":"0","electrified":"contact_line"}},
{"type":"Feature","geometry":{"type":"LineString","coordinates":[[-0.0189923,51.3438727],[-0.019119,51.3440462],[-0.0192406,51.3442068],[-0.019431,51.344414],[-0.0197453,51.3447644],[-0.0200044,51.3450596],[-0.0201243,51.3451967],[-0.0203926,51.3455073],[-0.0204884,51.3456209],[-0.0205293,51.3456693],[-0.0207268,51.3458664],[-0.021029,51.3461425],[-0.0212105,51.3462634],[-0.0213951,51.3464276],[-0.0215529,51.3465787],[-0.0217898,51.3469059],[-0.0221511,51.3474742],[-0.0225145,51.3480945],[-0.0227587,51.3485594],[-0.0229678,51.3489213],[-0.0231641,51.3492621],[-0.0233815,51.3496314],[-0.0235544,51.3499116],[-0.0238453,51.3503626],[-0.0239563,51.3505232],[-0.0240735,51.3507258],[-0.0242146,51.3509698],[-0.024321,51.3511614],[-0.0244646,51.35142],[-0.0245674,51.3516083],[-0.0247006,51.3517922],[-0.024842,51.351952],[-0.0250243,51.3521293],[-0.025286,51.3523635],[-0.0254893,51.3525146],[-0.0257522,51.3526934],[-0.0261074,51.3529028],[-0.0265234,51.3531407],[-0.0270422,51.3534435],[-0.0275785,51.3537485],[-0.0282363,51.3541126],[-0.0286476,51.3543615],[-0.0291886,51.3546657],[-0.0299399,51.3550897],[-0.0305918,51.3554625],[-0.0309571,51.3556697],[-0.0310941,51.3557455],[-0.0314635,51.3559595],[-0.0316271,51.3560463],[-0.0317369,51.3560915],[-0.0318666,51.3561302],[-0.0320092,51.3561667],[-0.0321844,51.3561922],[-0.0324952,51.3562075],[-0.0325588,51.3562102],[-0.0328853,51.3562243],[-0.0333349,51.3562437],[-0.0335562,51.356252],[-0.0337396,51.3562455],[-0.0338868,51.356236],[-0.0340843,51.3562126],[-0.0343742,51.3561568],[-0.0345283,51.3561149],[-0.0347176,51.3560529],[-0.0349578,51.3559278],[-0.0352321,51.3557478],[-0.0355907,51.3555042],[-0.0359226,51.3552682],[-0.0363968,51.3549219],[-0.0366267,51.3547518],[-0.0367445,51.3546461],[-0.0368206,51.354575],[-0.0368718,51.3545099],[-0.0368922,51.3544825],[-0.037013,51.354314],[-0.0370579,51.3542411],[-0.037121,51.354179],[-0.0371841,51.3541316],[-0.0372729,51.3540864],[-0.0373851,51.3540513],[-0.037509,51.3540302],[-0.037655,51.3540236],[-0.0378104,51.3540411],[-0.0380184,51.3540886],[-0.0388234,51.3543097],[-0.0396425,51.3545344],[-0.040341,51.3547149],[-0.0405235,51.3547635],[-0.040714,51.3548015],[-0.0409289,51.3548212],[-0.0411264,51.3548204],[-0.0413052,51.3548066],[-0.041491,51.3547759],[-0.0416702,51.3547305],[-0.0418252,51.3546866],[-0.0420775,51.354619],[-0.0422242,51.3545869],[-0.0422808,51.3545745],[-0.0425197,51.3545519],[-0.0428615,51.3545293],[-0.0431817,51.3545081],[-0.0435042,51.3544906],[-0.0440171,51.3544841],[-0.0443408,51.3544943],[-0.0449039,51.3545293],[-0.0452253,51.3545585],[-0.0455992,51.3546037],[-0.0460221,51.3546548],[-0.0464299,51.3547197],[-0.0468178,51.3547847],[-0.047235,51.3548649],[-0.0476626,51.3549576],[-0.0480575,51.355051],[-0.0484513,51.3551539],[-0.0488708,51.3552706],[-0.0492166,51.3553794],[-0.0495227,51.3554771],[-0.0498698,51.3556005],[-0.0502554,51.3557471],[-0.0506351,51.3559025],[-0.0509728,51.3560463],[-0.0513093,51.3562002],[-0.0516633,51.3563783],[-0.051994,51.3565541],[-0.0522055,51.3566679],[-0.0527483,51.3569658],[-0.053201,51.3572217],[-0.0535348,51.3574064],[-0.053805,51.357548800000007],[-0.0540669,51.3576772],[-0.0543503,51.3578047],[-0.0548931,51.3580043],[-0.0553227,51.3581447],[-0.0555458,51.358221],[-0.0556904,51.3582798],[-0.0557953,51.3583454],[-0.0558697,51.3584166],[-0.055944,51.3585084],[-0.0559849,51.3585965],[-0.0560148,51.3587126],[-0.0560217,51.3587865],[-0.0560853,51.3589031],[-0.0561911,51.3590176],[-0.0562217,51.3590393],[-0.0562927,51.3590898],[-0.0564373,51.3591708],[-0.0565819,51.35924],[-0.0567521,51.3593039],[-0.0569628,51.3593731],[-0.0572139,51.3594443],[-0.0574103,51.3594988],[-0.0575876,51.3595364],[-0.0577285,51.3595625],[-0.0579502,51.3596023],[-0.0582916,51.3596489],[-0.0587149,51.3596862],[-0.0590688,51.3597148],[-0.0595181,51.3597478],[-0.0597352,51.359762],[-0.0600865,51.3597826],[-0.06044,51.3598046],[-0.0607848,51.359829],[-0.0610556,51.3598548],[-0.0612921,51.3598854],[-0.0614249,51.3599108],[-0.0616236,51.3599563],[-0.0617622,51.3599991],[-0.0619894,51.3600804],[-0.0621372,51.3601382],[-0.0623182,51.3602228],[-0.0626875,51.360391],[-0.0630221,51.3605468],[-0.063213,51.3606448],[-0.0633691,51.3607242],[-0.0635592,51.3608413],[-0.063717,51.3609538],[-0.0638269,51.3610461],[-0.0639252,51.3611318],[-0.0641218,51.3613423],[-0.0643391,51.3615765],[-0.0644994,51.361741],[-0.064639,51.3618783],[-0.0647373,51.361967],[-0.0649298,51.3621176],[-0.0650868,51.3622203],[-0.0652223,51.3623075],[-0.0653339,51.3623751],[-0.0655404,51.3624695],[-0.0657717,51.3625752],[-0.065932,51.3626412],[-0.0661262,51.3627073],[-0.0662914,51.3627558],[-0.0665021,51.3628141],[-0.0667391,51.3628633],[-0.0668714,51.3628863],[-0.0670995,51.3629224],[-0.0674134,51.3629621],[-0.0677117,51.36299],[-0.0682266,51.3630362],[-0.0686635,51.3630689],[-0.0691377,51.3631138],[-0.0695252,51.3631447],[-0.0698292,51.3631695],[-0.0701325,51.3631865],[-0.0703598,51.3631952],[-0.0706811,51.3631953],[-0.0709901,51.3631886],[-0.0713412,51.3631597],[-0.0719435,51.3631664],[-0.0723773,51.3631814],[-0.0727185,51.3632072],[-0.0730126,51.3632402],[-0.073353,51.3632897],[-0.0737934,51.3633769],[-0.0742916,51.363479],[-0.0745527,51.3635296],[-0.0748897,51.363592],[-0.0750692,51.3636172],[-0.0756209,51.3636895],[-0.0761613,51.3637514],[-0.0766281,51.3638143],[-0.0771957,51.3638829],[-0.0777517,51.36395],[-0.0779789,51.3639775],[-0.0784209,51.3640294],[-0.0787151,51.3640594],[-0.0791298,51.3640898],[-0.0795404,51.3641151],[-0.0800413,51.3641294],[-0.0803353,51.3641455],[-0.080347,51.3641462],[-0.0806955,51.3641661],[-0.0810522,51.3641955],[-0.0815514,51.3642538],[-0.082157,51.3643302],[-0.0827788,51.3644119],[-0.0830312,51.3644442],[-0.0831956,51.3644762],[-0.0833063,51.3645082],[-0.0833889,51.3645443],[-0.0834674,51.3645943],[-0.0835351,51.364665],[-0.083569,51.3647295],[-0.0835831,51.3647991],[-0.0835723,51.3648744],[-0.0835418,51.3649456],[-0.0835019,51.3650039],[-0.0832633,51.365317],[-0.082984,51.3656737],[-0.0827954,51.3659251]]},"properties":{"name":"London Trams (New Addington branch)","gauge":"1435","oneway":"yes","railway":"tram","voltage":"750","frequency":"0","electrified":"contact_line"}},
{"type":"Feature","geometry":{"type":"LineString","coordinates":[[-0.0779031,51.3713134],[-0.0762018,51.3731956]]},"properties":{"name":"London Trams","gauge":"1435","layer":"-1","oneway":"yes","tunnel":"yes","railway":"tram","voltage":"750","frequency":"0","electrified":"contact_line","tunnel:name":"Woodside Tunnel"}},
{"type":"Feature","geometry":{"type":"LineString","coordinates":[[-0.0184514,51.3432609],[-0.0181932,51.343108],[-0.0179936,51.343009],[-0.01784,51.3429192],[-0.0176349,51.3427854],[-0.0174491,51.3426682]]},"properties":{"name":"London Trams (New Addington branch)","gauge":"1435","oneway":"no","railway":"tram","voltage":"750","frequency":"0","electrified":"contact_line"}},
{"type":"Feature","geometry":{"type":"LineString","coordinates":[[-0.1865561,51.4057745],[-0.1864118,51.4056995]]},"properties":{"name":"London Trams (Wimbledon branch)","gauge":"1435","layer":"1","bridge":"yes","oneway":"no","railway":"tram","voltage":"750","frequency":"0","electrified":"contact_line"}},
{"type":"Feature","geometry":{"type":"LineString","coordinates":[[-0.1868026,51.4058919],[-0.1865561,51.4057745]]},"properties":{"name":"London Trams (Wimbledon branch)","gauge":"1435","oneway":"no","railway":"tram","voltage":"750","frequency":"0","electrified":"contact_line"}},
{"type":"Feature","geometry":{"type":"LineString","coordinates":[[-0.1834355,51.4041421],[-0.1841553,51.4045341],[-0.1849034,51.4049477],[-0.1864118,51.4056995]]},"properties":{"name":"London Trams (Wimbledon branch)","gauge":"1435","oneway":"no","railway":"tram","voltage":"750","frequency":"0","electrified":"contact_line"}},
{"type":"Feature","geometry":{"type":"LineString","coordinates":[[-0.1869266,51.4059522],[-0.1868026,51.4058919]]},"properties":{"name":"London Trams (Wimbledon branch)","gauge":"1435","layer":"1","bridge":"yes","oneway":"no","railway":"tram","voltage":"750","frequency":"0","electrified":"contact_line"}},
{"type":"Feature","geometry":{"type":"LineString","coordinates":[[-0.1738649,51.3982149],[-0.1741572,51.3983388],[-0.1744935,51.3984874],[-0.1748041,51.3986368],[-0.1749394,51.3987106],[-0.1750645,51.3987789],[-0.1753635,51.3989581],[-0.1758995,51.399302],[-0.1763502,51.3995941],[-0.1768173,51.399895],[-0.177344,51.4002353],[-0.1778438,51.4005638],[-0.1781882,51.4007914],[-0.1786543,51.40109],[-0.1800337,51.4019789],[-0.1810315,51.40262],[-0.1821306,51.4032776],[-0.182544,51.4035285],[-0.1827599,51.4036588],[-0.1829895,51.4038037],[-0.183334,51.4040699],[-0.1834355,51.4041421]]},"properties":{"name":"London Trams (Wimbledon branch)","gauge":"1435","oneway":"yes","railway":"tram","voltage":"750","frequency":"0","electrified":"contact_line"}},
{"type":"Feature","geometry":{"type":"LineString","coordinates":[[-0.1915007,51.4082044],[-0.1915791,51.4082374],[-0.1919164,51.408371],[-0.1919957,51.4084056],[-0.1926719,51.4087358],[-0.1931478,51.4089702],[-0.1931725,51.4089821],[-0.1943774,51.4095565],[-0.1950254,51.4098698],[-0.1957448,51.4102286],[-0.1962317,51.410465],[-0.1967522,51.4107241],[-0.1982152,51.4114423],[-0.1986213,51.4116458],[-0.1989669,51.4118268],[-0.1992851,51.4120092],[-0.1995818,51.412202],[-0.1999081,51.412428],[-0.2001145,51.4125809],[-0.2004481,51.4128399],[-0.2006794,51.4130431],[-0.2009522,51.4133106],[-0.2011763,51.4135383],[-0.201498,51.4138674],[-0.2015329,51.4139031],[-0.2017213,51.4140856],[-0.2021273,51.4144463],[-0.2023203,51.4146051],[-0.2025346,51.4147689],[-0.2027495,51.4149193],[-0.2029683,51.4150569],[-0.2032632,51.415231],[-0.2036235,51.4154286],[-0.2039196,51.4155753],[-0.2042059,51.4157069],[-0.2045465,51.4158506],[-0.2049739,51.4160153],[-0.205525,51.4162042],[-0.2059282,51.4163497],[-0.2061405,51.4164345],[-0.206396,51.4165518],[-0.2066003,51.4166534],[-0.2068391,51.4167972],[-0.2071107,51.4169923],[-0.207333,51.4171807],[-0.2074462,51.4172897],[-0.2075514,51.4174067],[-0.2077975,51.4177292],[-0.2078266,51.4177658],[-0.20791,51.4178948],[-0.2079694,51.4180246],[-0.2080041,51.4181375],[-0.2080672,51.4183722],[-0.2080984,51.4186225],[-0.2080895,51.4188421],[-0.2080496,51.4190532],[-0.208004,51.4192277],[-0.2079421,51.4193943],[-0.2078571,51.4195542],[-0.2077637,51.4197063],[-0.2075912,51.4199021]]},"properties":{"electrified":"contact_line","frequency":"0","gauge":"1435","name":"London Trams (Wimbledon branch)","oneway":"yes","railway":"tram","voltage":"750"}},
{"type":"Feature","geometry":{"type":"LineString","coordinates":[[-0.1122873,51.3732125],[-0.112552,51.3732251],[-0.1127509,51.3732523],[-0.1129043,51.3732842],[-0.1130643,51.3733357],[-0.1133114,51.3734264],[-0.1134151,51.3734688],[-0.1137482,51.3736051],[-0.1139639,51.373702],[-0.1140838,51.3737647],[-0.1142436,51.3738674],[-0.1144119,51.3739909],[-0.1145717,51.3741151],[-0.1147031,51.3742338],[-0.1149017,51.3744133],[-0.1152363,51.3747226],[-0.1156211,51.3750736],[-0.1160552,51.3754524],[-0.1164976,51.3758301],[-0.1169558,51.3762171],[-0.1174438,51.3766244],[-0.1176319,51.3767829],[-0.1178974,51.3770038],[-0.1180782,51.3771616],[-0.1182478,51.3773049],[-0.1186065,51.3775991],[-0.1190415,51.3779651],[-0.1193687,51.3782454],[-0.1198108,51.3786032],[-0.1202731,51.3790082],[-0.1206365,51.3793453],[-0.1209999,51.3796882],[-0.1213531,51.3800386],[-0.1216171,51.3803031],[-0.1219479,51.3806384],[-0.1222798,51.3809743],[-0.1228007,51.3815196],[-0.123001,51.3817308],[-0.1231386,51.3818659],[-0.1233068,51.3820156],[-0.1234416,51.3821328],[-0.1235977,51.3822447],[-0.1237352,51.3823449],[-0.1239146,51.3824656],[-0.1240194,51.3825361],[-0.1240485,51.3825557],[-0.1247317,51.3830267],[-0.1252178,51.383362],[-0.1257532,51.383735],[-0.1260692,51.3839502],[-0.1264781,51.3842361],[-0.1267727,51.3844394],[-0.1270072,51.3846001],[-0.1272745,51.384787],[-0.1274824,51.3849255],[-0.1276702,51.3850426],[-0.1278565,51.3851489],[-0.1280156,51.3852351],[-0.1282348,51.3853358],[-0.1284497,51.3854303],[-0.1288181,51.385561],[-0.1288377,51.3855679],[-0.1292711,51.3857203],[-0.129574,51.3858257],[-0.129983,51.3859599],[-0.1302356,51.3860444],[-0.1304806,51.3861232],[-0.1306662,51.3861977],[-0.1308044,51.3862652],[-0.131094,51.3864259],[-0.1314423,51.386631],[-0.1316405,51.3867486],[-0.1317605,51.3868153],[-0.131884,51.3868762],[-0.1320494,51.3869416],[-0.1322539,51.3870139],[-0.1326908,51.3871567],[-0.1332624,51.3873444],[-0.1337132,51.3874908],[-0.1341243,51.3876223],[-0.1344125,51.3877107],[-0.1346854,51.3877947],[-0.1349359,51.3878631],[-0.1351446,51.3879132],[-0.1353798,51.3879615],[-0.1355898,51.3879933],[-0.1358111,51.3880216],[-0.1360197,51.3880417],[-0.136347,51.3880648],[-0.136779,51.3880944],[-0.1371015,51.388127],[-0.1373227,51.3881584],[-0.1375718,51.3881985],[-0.137971,51.3882856],[-0.1384282,51.3883862],[-0.1387911,51.3884728],[-0.1394778,51.3886301],[-0.1401275,51.3887847],[-0.1407977,51.3889508],[-0.141236,51.3890592],[-0.1416663,51.3891593],[-0.14209,51.3892554],[-0.1425277,51.3893568],[-0.1428702,51.3894384],[-0.1432065,51.3895142],[-0.1432927,51.3895336],[-0.1438225,51.3896609],[-0.1524511,51.3916936]]},"properties":{"electrified":"contact_line","frequency":"0","gauge":"1435","name":"London Trams (Wimbledon branch)","oneway":"yes","railway":"tram","voltage":"750"}},
{"type":"Feature","geometry":{"type":"LineString","coordinates":[[-0.0935122,51.3747141],[-0.0931268,51.3747762]]},"properties":{"name":"London Trams","gauge":"1435","oneway":"yes","railway":"tram","voltage":"750","frequency":"0","electrified":"contact_line"}},
{"type":"Feature","geometry":{"type":"LineString","coordinates":[[-0.132237,51.3867323],[-0.1335146,51.3871462]]},"properties":{"name":"London Trams","gauge":"1435","layer":"-1","tunnel":"yes","railway":"tram","service":"yard","voltage":"750","frequency":"0","electrified":"contact_line"}},
{"type":"Feature","geometry":{"type":"LineString","coordinates":[[-0.1334735,51.3871958],[-0.1321982,51.3867791]]},"properties":{"name":"London Trams","gauge":"1435","layer":"-1","tunnel":"yes","railway":"tram","service":"yard","voltage":"750","frequency":"0","electrified":"contact_line"}},
{"type":"Feature","geometry":{"type":"LineString","coordinates":[[-0.0918808,51.3750575],[-0.0922494,51.3749557]]},"properties":{"name":"London Trams","gauge":"1435","oneway":"yes","railway":"tram","voltage":"750","frequency":"0","electrified":"contact_line"}},
{"type":"Feature","geometry":{"type":"LineString","coordinates":[[-0.0794541,51.3750501],[-0.0791686,51.3750757]]},"properties":{"name":"London Trams","gauge":"1435","railway":"tram","voltage":"750","frequency":"0","electrified":"contact_line"}},
{"type":"Feature","geometry":{"type":"LineString","coordinates":[[-0.0731226,51.3814435],[-0.0731177,51.3813051],[-0.0731031,51.3811862]]},"properties":{"name":"London Trams","gauge":"1435","railway":"tram","service":"crossover","voltage":"750","frequency":"0","electrified":"contact_line"}},
{"type":"Feature","geometry":{"type":"LineString","coordinates":[[-0.1391025,51.3885815],[-0.1389362,51.3885186],[-0.1387911,51.3884728]]},"properties":{"name":"London Trams","gauge":"1435","railway":"tram","service":"crossover","voltage":"750","frequency":"0","electrified":"contact_line"}},
{"type":"Feature","geometry":{"type":"LineString","coordinates":[[-0.1296598,51.3858906],[-0.1298364,51.3859263],[-0.129983,51.3859599]]},"properties":{"name":"London Trams","gauge":"1435","railway":"tram","service":"crossover","voltage":"750","frequency":"0","electrified":"contact_line"}},
{"type":"Feature","geometry":{"type":"LineString","coordinates":[[-0.0773758,51.3639546],[-0.0777517,51.36395]]},"properties":{"name":"London Trams","gauge":"1435","railway":"tram","service":"crossover","voltage":"750","frequency":"0","electrified":"contact_line"}},
{"type":"Feature","geometry":{"type":"LineString","coordinates":[[-0.0307202,51.3555693],[-0.0308775,51.3556361],[-0.0309571,51.3556697]]},"properties":{"name":"London Trams","gauge":"1435","railway":"tram","service":"crossover","voltage":"750","frequency":"0","electrified":"contact_line"}},
{"type":"Feature","geometry":{"type":"LineString","coordinates":[[-0.1365147,51.388002],[-0.1364259,51.3879868],[-0.1344914,51.3873604],[-0.1344007,51.3873399]]},"properties":{"name":"London Trams","gauge":"1435","railway":"tram","service":"yard","voltage":"750","frequency":"0","electrified":"contact_line"}},
{"type":"Feature","geometry":{"type":"LineString","coordinates":[[-0.1335146,51.3871462],[-0.1337936,51.3872298],[-0.1339141,51.3872631],[-0.1340493,51.387292]]},"properties":{"name":"London Trams","gauge":"1435","railway":"tram","service":"yard","voltage":"750","frequency":"0","electrified":"contact_line"}},
{"type":"Feature","geometry":{"type":"LineString","coordinates":[[-0.1340769,51.387337],[-0.134146,51.3873499],[-0.1361022,51.3879819],[-0.1361762,51.3879985]]},"properties":{"name":"London Trams","gauge":"1435","railway":"tram","service":"yard","voltage":"750","frequency":"0","electrified":"contact_line"}},
{"type":"Feature","geometry":{"type":"LineString","coordinates":[[-0.132237,51.3867323],[-0.1313667,51.3864396],[-0.1312788,51.386407],[-0.1311604,51.3863546]]},"properties":{"name":"London Trams","gauge":"1435","railway":"tram","service":"yard","voltage":"750","frequency":"0","electrified":"contact_line"}},
{"type":"Feature","geometry":{"type":"LineString","coordinates":[[-0.1321982,51.3867791],[-0.1316006,51.3865733],[-0.1314743,51.3865265],[-0.1313588,51.3864772]]},"properties":{"name":"London Trams","gauge":"1435","railway":"tram","service":"yard","voltage":"750","frequency":"0","electrified":"contact_line"}},
{"type":"Feature","geometry":{"type":"LineString","coordinates":[[-0.1347165,51.3873447],[-0.1348003,51.3873604],[-0.1367545,51.3879942],[-0.1368335,51.3880081]]},"properties":{"name":"London Trams","gauge":"1435","railway":"tram","service":"yard","voltage":"750","frequency":"0","electrified":"contact_line"}},
{"type":"Feature","geometry":{"type":"LineString","coordinates":[[-0.2076941,51.4195363],[-0.2077803,51.4193501],[-0.2078844,51.4191434],[-0.2079944,51.4188273],[-0.2080379,51.4186689]]},"properties":{"name":"London Trams","gauge":"1435","railway":"tram","service":"siding","voltage":"750","frequency":"0","electrified":"contact_line"}},
{"type":"Feature","geometry":{"type":"LineString","coordinates":[[-0.1374069,51.3880447],[-0.1366312,51.387794],[-0.1362384,51.3876715],[-0.135963,51.3876191],[-0.1357779,51.3875773]]},"properties":{"name":"London Trams","gauge":"1435","railway":"tram","service":"yard","voltage":"750","frequency":"0","electrified":"contact_line"}},
{"type":"Feature","geometry":{"type":"LineString","coordinates":[[-0.0512364,51.396757],[-0.0515799,51.3964671],[-0.0519554,51.3961636],[-0.0520975,51.3960375],[-0.0522053,51.3959221],[-0.0522893,51.3958057]]},"properties":{"name":"London Trams","gauge":"1435","railway":"tram","service":"siding","voltage":"750","frequency":"0","electrified":"contact_line"}},
{"type":"Feature","geometry":{"type":"LineString","coordinates":[[-0.1350812,51.3873527],[-0.1349306,51.3873099],[-0.1347046,51.3873007],[-0.1340493,51.387292],[-0.1338479,51.3872785],[-0.1335923,51.3872261],[-0.1334735,51.3871958]]},"properties":{"name":"London Trams","gauge":"1435","railway":"tram","service":"yard","voltage":"750","frequency":"0","electrified":"contact_line"}},
{"type":"Feature","geometry":{"type":"LineString","coordinates":[[-0.1054681,51.3743093],[-0.1053029,51.3744707],[-0.1050874,51.3747318],[-0.1049773,51.3748652],[-0.1049413,51.3748978],[-0.1047333,51.3750861],[-0.1046268,51.3751745],[-0.1041459,51.3755932],[-0.1037838,51.3758669],[-0.1034711,51.3760602],[-0.1033727,51.3761341],[-0.10331,51.3762322],[-0.1032454,51.3764008],[-0.103185,51.3766284],[-0.1031093,51.3769255],[-0.1030175,51.3773575],[-0.1029999,51.3774193],[-0.1029648,51.377529],[-0.1028904,51.3776255],[-0.1027133,51.3777887],[-0.1026759,51.3778232],[-0.1026456,51.3778592],[-0.1026024,51.3779282],[-0.1025552,51.3779942],[-0.1025103,51.3780361],[-0.1024376,51.37809],[-0.1023132,51.3781537],[-0.1021639,51.3782267],[-0.1020739,51.3782827],[-0.1019954,51.3783525],[-0.1019403,51.378431],[-0.1018305,51.3786185],[-0.1017447,51.3787885],[-0.1016245,51.3790494],[-0.101568,51.379179],[-0.1015096,51.3792627],[-0.1014351,51.3793266],[-0.1013299,51.379376],[-0.1011173,51.3794425],[-0.1009232,51.3794992],[-0.1008021,51.3795315],[-0.1004813,51.3796397],[-0.100393,51.3796629],[-0.100263,51.3796805],[-0.1001756,51.379677],[-0.1000897,51.3796601],[-0.100004,51.3796261]]},"properties":{"name":"London Trams","gauge":"1435","oneway":"yes","railway":"tram","voltage":"750","frequency":"0","electrified":"contact_line"}},
{"type":"Feature","geometry":{"type":"LineString","coordinates":[[-0.100004,51.3796261],[-0.0998949,51.3795706],[-0.0998526,51.3794857],[-0.0998372,51.3793966],[-0.0998536,51.3788785],[-0.0998135,51.3787472],[-0.0997603,51.3785629],[-0.0997163,51.3784414],[-0.0996943,51.3783881],[-0.0996481,51.378291],[-0.0995137,51.3780031],[-0.0993327,51.3777348],[-0.0991069,51.3774381],[-0.0988788,51.377112],[-0.0981938,51.3761557],[-0.0980805,51.3760783],[-0.0979199,51.3759685],[-0.0977556,51.3758131],[-0.0976166,51.3756242],[-0.0972358,51.3751176],[-0.0969039,51.3745976],[-0.0967855,51.374427],[-0.0967352,51.3743725],[-0.0966872,51.3743432],[-0.0966344,51.3743185],[-0.0965405,51.3742938],[-0.096425,51.3742908],[-0.0963019,51.3742956],[-0.0958449,51.3743479],[-0.0950882,51.3744397],[-0.094961,51.3744636],[-0.0940085,51.3746252],[-0.09377,51.3746622],[-0.0935122,51.3747141]]},"properties":{"name":"London Trams","gauge":"1435","oneway":"yes","railway":"tram","voltage":"750","frequency":"0","electrified":"contact_line"}},
{"type":"Feature","geometry":{"type":"LineString","coordinates":[[-0.1915007,51.4082044],[-0.190397,51.4076498],[-0.1897274,51.4073208],[-0.1882163,51.4065853],[-0.1876085,51.4062906],[-0.1869266,51.4059522]]},"properties":{"name":"London Trams (Wimbledon branch)","gauge":"1435","oneway":"no","railway":"tram","voltage":"750","frequency":"0","electrified":"contact_line"}},
{"type":"Feature","geometry":{"type":"LineString","coordinates":[[-0.1724804,51.3977491],[-0.1721911,51.3977018],[-0.1718924,51.3976493],[-0.1713933,51.3975863],[-0.1710527,51.3975433],[-0.1707573,51.397506],[-0.170453,51.3974675],[-0.1700238,51.3974206],[-0.1697231,51.3973875],[-0.1694874,51.3973615],[-0.1688473,51.3972533],[-0.1684628,51.3971684],[-0.1678369,51.3970011],[-0.1675526,51.3969107],[-0.1673953,51.3968561],[-0.1668264,51.3966453],[-0.166376,51.3964545],[-0.1660113,51.3962737],[-0.1656372,51.3960719],[-0.1651473,51.3957728],[-0.1645092,51.3953678],[-0.1635898,51.3947921],[-0.1634775,51.394724],[-0.163005,51.3944764],[-0.1624368,51.3942242],[-0.1618633,51.3940124],[-0.1613849,51.3938482],[-0.1610063,51.393741],[-0.1606821,51.3936664],[-0.1601736,51.3935459],[-0.159699,51.3934087],[-0.1594527,51.3933328],[-0.1592437,51.3932401]]},"properties":{"electrified":"contact_line","frequency":"0","gauge":"1435","name":"London Trams (Wimbledon branch)","oneway":"yes","railway":"tram","voltage":"750"}},
{"type":"Feature","geometry":{"type":"LineString","coordinates":[[-0.1738649,51.3982149],[-0.1734151,51.3980392],[-0.1731481,51.3979539],[-0.1730668,51.3979281],[-0.1729673,51.397899],[-0.172579,51.3977747],[-0.1724804,51.3977491]]},"properties":{"name":"London Trams (Wimbledon branch)","gauge":"1435","oneway":"no","railway":"tram","voltage":"750","frequency":"0","description":"gauntlet tracks, not single track","electrified":"contact_line","railway:interlaced":"yes"}},
{"type":"Feature","geometry":{"type":"LineString","coordinates":[[-0.1592437,51.3932401],[-0.1594871,51.3933112],[-0.1599728,51.3934606],[-0.1602087,51.3935269],[-0.1604714,51.3935919],[-0.1610063,51.3937185],[-0.1613273,51.3938123],[-0.1616358,51.393905],[-0.1619277,51.3940027],[-0.1622523,51.3941215],[-0.1625528,51.3942442],[-0.162814,51.3943604],[-0.1630768,51.3944872],[-0.1635976,51.3947633],[-0.1644011,51.3952647],[-0.164867,51.3955598],[-0.1652191,51.3957895],[-0.1654369,51.3959248],[-0.1657592,51.3961092],[-0.1661333,51.3963127],[-0.1663781,51.3964312],[-0.1667226,51.3965762],[-0.1670502,51.3967087],[-0.167519,51.3968778],[-0.1678635,51.3969864],[-0.1682138,51.3970824],[-0.1684976,51.3971576],[-0.1688374,51.3972297],[-0.1691387,51.3972837],[-0.1694941,51.397341],[-0.1697279,51.397367],[-0.1707622,51.3974811],[-0.1711521,51.3975335],[-0.1713969,51.397564],[-0.1719422,51.3976337],[-0.1722828,51.3976979],[-0.1724804,51.3977491]]},"properties":{"name":"London Trams (Wimbledon branch)","gauge":"1435","oneway":"yes","railway":"tram","voltage":"750","frequency":"0","electrified":"contact_line"}},
{"type":"Feature","geometry":{"type":"LineString","coordinates":[[-0.2058631,51.4210752],[-0.2057359,51.4211177],[-0.205084,51.4215594]]},"properties":{"name":"London Trams (Wimbledon branch)","gauge":"1435","railway":"tram","voltage":"750","frequency":"0","electrified":"contact_line"}},
{"type":"Feature","geometry":{"type":"LineString","coordinates":[[-0.0786033,51.3705094],[-0.0798059,51.3692094]]},"properties":{"name":"London Trams","gauge":"1435","layer":"-1","oneway":"yes","tunnel":"yes","railway":"tram","voltage":"750","frequency":"0","electrified":"contact_line","tunnel:name":"Coombe Lane Tunnel"}},
{"type":"Feature","geometry":{"type":"LineString","coordinates":[[-0.0779161,51.3712285],[-0.078565,51.3705483]]},"properties":{"name":"London Trams","gauge":"1435","layer":"-1","oneway":"yes","tunnel":"yes","railway":"tram","voltage":"750","frequency":"0","electrified":"contact_line","tunnel:name":"Park Hill Tunnel"}},
{"type":"Feature","geometry":{"type":"LineString","coordinates":[[-0.0779637,51.3712454],[-0.0779031,51.3713134]]},"properties":{"name":"London Trams (New Addington branch)","gauge":"1435","layer":"-1","oneway":"yes","railway":"tram","voltage":"750","frequency":"0","electrified":"contact_line"}},
{"type":"Feature","geometry":{"type":"LineString","coordinates":[[-0.0786179,51.3705656],[-0.0779637,51.3712454]]},"properties":{"name":"London Trams","gauge":"1435","layer":"-1","oneway":"yes","tunnel":"yes","railway":"tram","voltage":"750","frequency":"0","electrified":"contact_line","tunnel:name":"Park Hill Tunnel"}},
{"type":"Feature","geometry":{"type":"LineString","coordinates":[[-0.0778592,51.3712978],[-0.0779161,51.3712285]]},"properties":{"name":"London Trams (New Addington branch)","gauge":"1435","layer":"-1","oneway":"yes","railway":"tram","voltage":"750","frequency":"0","electrified":"contact_line"}},
{"type":"Feature","geometry":{"type":"LineString","coordinates":[[-0.078565,51.3705483],[-0.0786033,51.3705094]]},"properties":{"name":"London Trams (New Addington branch)","gauge":"1435","layer":"-1","oneway":"yes","railway":"tram","voltage":"750","frequency":"0","electrified":"contact_line"}},
{"type":"Feature","geometry":{"type":"LineString","coordinates":[[-0.079839,51.3692219],[-0.0786547,51.3705262]]},"properties":{"name":"London Trams","gauge":"1435","layer":"-1","oneway":"yes","tunnel":"yes","railway":"tram","voltage":"750","frequency":"0","electrified":"contact_line","tunnel:name":"Coombe Lane Tunnel"}},
{"type":"Feature","geometry":{"type":"LineString","coordinates":[[-0.0786547,51.3705262],[-0.0786179,51.3705656]]},"properties":{"name":"London Trams (New Addington branch)","gauge":"1435","layer":"-1","oneway":"yes","railway":"tram","voltage":"750","frequency":"0","electrified":"contact_line"}},
{"type":"Feature","geometry":{"type":"LineString","coordinates":[[-0.0184514,51.3432609],[-0.0182102,51.3430896],[-0.0179895,51.3429244],[-0.0177063,51.3427421],[-0.0175461,51.3426389]]},"properties":{"name":"London Trams (New Addington branch)","gauge":"1435","oneway":"no","railway":"tram","voltage":"750","frequency":"0","electrified":"contact_line"}},
{"type":"Feature","geometry":{"type":"LineString","coordinates":[[-0.2074737,51.4200215],[-0.2075912,51.4199021]]},"properties":{"name":"London Trams (Wimbledon branch)","gauge":"1435","oneway":"no","railway":"tram","voltage":"750","frequency":"0","electrified":"contact_line"}},
{"type":"Feature","geometry":{"type":"LineString","coordinates":[[-0.1587046,51.3930514],[-0.1592437,51.3932401]]},"properties":{"name":"London Trams (Wimbledon branch)","gauge":"1435","oneway":"no","railway":"tram","voltage":"750","frequency":"0","electrified":"contact_line"}},
{"type":"Feature","geometry":{"type":"LineString","coordinates":[[-0.0427281,51.4097824],[-0.0422425,51.4099387],[-0.0414915,51.4101622],[-0.0409806,51.4102989]]},"properties":{"name":"London Trams (Beckenham Junction branch)","gauge":"1435","oneway":"yes","railway":"tram","voltage":"750","frequency":"0","electrified":"contact_line"}},
{"type":"Feature","geometry":{"type":"LineString","coordinates":[[-0.0427281,51.4097824],[-0.0431569,51.4096366],[-0.043575,51.4094889]]},"properties":{"name":"London Trams (Beckenham Junction branch)","gauge":"1435","oneway":"no","railway":"tram","voltage":"750","frequency":"0","electrified":"contact_line"}},
{"type":"Feature","geometry":{"type":"LineString","coordinates":[[-0.0272087,51.4109183],[-0.0267568,51.4108555],[-0.026557,51.4108107]]},"properties":{"name":"London Trams (Beckenham Junction branch)","gauge":"1435","railway":"tram","voltage":"750","frequency":"0","electrified":"contact_line"}},
{"type":"Feature","geometry":{"type":"LineString","coordinates":[[-0.0950882,51.3744397],[-0.0952969,51.3743836]]},"properties":{"name":"London Trams","gauge":"1435","railway":"tram","service":"crossover","voltage":"750","frequency":"0","electrified":"contact_line"}},
{"type":"Feature","geometry":{"type":"LineString","coordinates":[[-0.1562552,51.3923814],[-0.1565199,51.3924638],[-0.156819,51.3925277],[-0.1572974,51.3926416],[-0.1576289,51.3927205],[-0.157675,51.3927315],[-0.1578533,51.3927731],[-0.1581243,51.3928434],[-0.1583205,51.3929155],[-0.1587046,51.3930514]]},"properties":{"name":"London Trams (Wimbledon branch)","gauge":"1435","oneway":"yes","railway":"tram","voltage":"750","frequency":"0","electrified":"contact_line"}},
{"type":"Feature","geometry":{"type":"LineString","coordinates":[[-0.1065871,51.3753015],[-0.1067655,51.3753291],[-0.1068914,51.3753337],[-0.1070105,51.3753006],[-0.1071282,51.375249]]},"properties":{"name":"London Trams","gauge":"1435","oneway":"yes","covered":"yes","railway":"tram","voltage":"750","frequency":"0","electrified":"contact_line"}},
{"type":"Feature","geometry":{"type":"LineString","coordinates":[[-0.1066095,51.3753997],[-0.1065496,51.3753829],[-0.1064849,51.3753557],[-0.1064158,51.3753133],[-0.1063945,51.375291],[-0.106378,51.3752737],[-0.106331,51.3752239],[-0.1063034,51.3751431],[-0.1062841,51.3750331]]},"properties":{"name":"London Trams","gauge":"1435","oneway":"yes","railway":"tram","voltage":"750","frequency":"0","electrified":"contact_line"}},
{"type":"Feature","geometry":{"type":"LineString","coordinates":[[-0.205497,51.421317],[-0.2058631,51.4210752]]},"properties":{"name":"London Trams (Wimbledon branch)","gauge":"1435","railway":"tram","voltage":"750","frequency":"0","electrified":"contact_line"}},
{"type":"Feature","geometry":{"type":"LineString","coordinates":[[-0.205084,51.4215594],[-0.2048622,51.421709],[-0.2048379,51.4217507],[-0.2044434,51.4220223]]},"properties":{"name":"London Trams (Wimbledon branch)","gauge":"1435","railway":"tram","voltage":"750","frequency":"0","electrified":"contact_line"}},
{"type":"Feature","geometry":{"type":"LineString","coordinates":[[-0.0265779,51.4107561],[-0.0267816,51.4108058],[-0.0269885,51.4108591],[-0.0271562,51.4108997],[-0.0272087,51.4109183]]},"properties":{"name":"London Trams (Beckenham Junction branch)","gauge":"1435","railway":"tram","voltage":"750","frequency":"0","electrified":"contact_line"}},
{"type":"Feature","geometry":{"type":"LineString","coordinates":[[-0.026557,51.4108107],[-0.0263846,51.4107712],[-0.0261587,51.4107184]]},"properties":{"name":"London Trams (Beckenham Junction branch)","gauge":"1435","railway":"tram","voltage":"750","frequency":"0","electrified":"contact_line"}},
{"type":"Feature","geometry":{"type":"LineString","coordinates":[[-0.0174491,51.3426682],[-0.0172541,51.3425464]]},"properties":{"name":"London Trams (New Addington branch)","gauge":"1435","oneway":"no","railway":"tram","voltage":"750","frequency":"0","electrified":"contact_line"}},
{"type":"Feature","geometry":{"type":"LineString","coordinates":[[-0.0175461,51.3426389],[-0.0173309,51.3425011]]},"properties":{"name":"London Trams (New Addington branch)","gauge":"1435","oneway":"no","railway":"tram","voltage":"750","frequency":"0","electrified":"contact_line"}},
{"type":"Feature","geometry":{"type":"LineString","coordinates":[[-0.0495263,51.3983499],[-0.0495135,51.3983618]]},"properties":{"name":"London Trams (Elmers End branch)","gauge":"1435","oneway":"no","railway":"tram","voltage":"750","frequency":"0","electrified":"contact_line"}}
]}
