{"type":"FeatureCollection","features":[
{"type":"Feature","geometry":{"type":"Point","coordinates":[-2.2397154,53.4803759]},"properties":{"railway":"level_crossing","crossing:barrier":"no"}},
{"type":"Feature","geometry":{"type":"Point","coordinates":[-2.2387012,53.4848238]},"properties":{"railway":"level_crossing"}},
{"type":"Feature","geometry":{"type":"Point","coordinates":[-2.2844949,53.4718761]},"properties":{"crossing:barrier":"no","railway":"level_crossing"}},
{"type":"Feature","geometry":{"type":"Point","coordinates":[-2.2829566,53.46936]},"properties":{"railway":"level_crossing"}},
{"type":"Feature","geometry":{"type":"Point","coordinates":[-2.2961659,53.4806525]},"properties":{"name":"Langworthy","tram":"yes","zone":"2","railway":"tram_stop","operator":"Metrolink","public_transport":"stop_position"}},
{"type":"Feature","geometry":{"type":"Point","coordinates":[-2.3075833,53.4824402]},"properties":{"name":"Weaste","tram":"yes","zone":"2","railway":"tram_stop","operator":"Metrolink","public_transport":"stop_position"}},
{"type":"Feature","geometry":{"type":"Point","coordinates":[-2.3351975,53.4829773]},"properties":{"railway":"buffer_stop"}},
{"type":"Feature","geometry":{"type":"Point","coordinates":[-2.2389248,53.4819132]},"properties":{"name":"Market Street","tram":"yes","zone":"1","railway":"tram_stop","operator":"Metrolink","wheelchair":"yes","public_transport":"stop_position"}},
{"type":"Feature","geometry":{"type":"Point","coordinates":[-2.2822449,53.4681989]},"properties":{"crossing:barrier":"no","railway":"level_crossing"}},
{"type":"Feature","geometry":{"type":"Point","coordinates":[-2.2457628,53.531925]},"properties":{"name":"Middleton Road","usage":"tourism","railway":"tram_stop"}},
{"type":"Feature","geometry":{"type":"Point","coordinates":[-2.2563988,53.5318644]},"properties":{"name":"Lakeside","usage":"tourism","railway":"tram_stop"}},
{"type":"Feature","geometry":{"type":"Point","coordinates":[-2.1831176,53.4827741]},"properties":{"railway":"level_crossing"}},
{"type":"Feature","geometry":{"type":"Point","coordinates":[-2.2393597,53.4821672]},"properties":{"railway":"crossing"}},
{"type":"Feature","geometry":{"type":"Point","coordinates":[-2.2386228,53.4819168]},"properties":{"name":"Market Street","tram":"yes","zone":"1","railway":"tram_stop","operator":"Metrolink","wheelchair":"yes","public_transport":"stop_position"}},
{"type":"Feature","geometry":{"type":"Point","coordinates":[-2.2440769,53.4775119]},"properties":{"railway":"level_crossing"}},
{"type":"Feature","geometry":{"type":"Point","coordinates":[-2.2453105,53.4765662]},"properties":{"railway":"switch"}},
{"type":"Feature","geometry":{"type":"Point","coordinates":[-2.2440173,53.4774879]},"properties":{"railway":"level_crossing"}},
{"type":"Feature","geometry":{"type":"Point","coordinates":[-2.2492403,53.4747002]},"properties":{"railway":"switch"}},
{"type":"Feature","geometry":{"type":"Point","coordinates":[-2.2871462,53.4748787]},"properties":{"crossing:barrier":"no","railway":"level_crossing"}},
{"type":"Feature","geometry":{"type":"Point","coordinates":[-2.1521971,53.6110596]},"properties":{"railway":"tram_crossing"}},
{"type":"Feature","geometry":{"type":"Point","coordinates":[-2.1546329,53.6112846]},"properties":{"railway":"tram_crossing"}},
{"type":"Feature","geometry":{"type":"Point","coordinates":[-2.2411517,53.4863374]},"properties":{"railway":"level_crossing"}},
{"type":"Feature","geometry":{"type":"Point","coordinates":[-2.2374818,53.4806028]},"properties":{"railway":"crossing","crossing":"uncontrolled"}},
{"type":"Feature","geometry":{"type":"Point","coordinates":[-2.2390374,53.4831951]},"properties":{"railway":"level_crossing"}},
{"type":"Feature","geometry":{"type":"Point","coordinates":[-2.2413453,53.4867282]},"properties":{"railway":"crossing"}},
{"type":"Feature","geometry":{"type":"Point","coordinates":[-2.2389861,53.4831881]},"properties":{"railway":"level_crossing"}},
{"type":"Feature","geometry":{"type":"Point","coordinates":[-2.2386558,53.4848406]},"properties":{"railway":"level_crossing"}},
{"type":"Feature","geometry":{"type":"Point","coordinates":[-2.2321221,53.4775271]},"properties":{"highway":"crossing","crossing":"marked"}},
{"type":"Feature","geometry":{"type":"Point","coordinates":[-2.2375204,53.4805742]},"properties":{"railway":"crossing","crossing":"uncontrolled"}},
{"type":"Feature","geometry":{"type":"Point","coordinates":[-2.2453606,53.4764667]},"properties":{"railway":"level_crossing"}},
{"type":"Feature","geometry":{"type":"Point","coordinates":[-2.2339246,53.4784418]},"properties":{"highway":"crossing","railway":"crossing","crossing":"unmarked"}},
{"type":"Feature","geometry":{"type":"Point","coordinates":[-2.2453781,53.4765219]},"properties":{"railway":"level_crossing"}},
{"type":"Feature","geometry":{"type":"Point","coordinates":[-2.2337057,53.4783446]},"properties":{"highway":"crossing","crossing":"marked"}},
{"type":"Feature","geometry":{"type":"Point","coordinates":[-2.1449881,53.4795368]},"properties":{"name":"Droylsden","tram":"yes","zone":"3","railway":"tram_stop","operator":"Metrolink","public_transport":"stop_position"}},
{"type":"Feature","geometry":{"type":"Point","coordinates":[-2.191093,53.4827514]},"properties":{"railway":"level_crossing"}},
{"type":"Feature","geometry":{"type":"Point","coordinates":[-2.1550133,53.4798624]},"properties":{"name":"Cemetery Road","tram":"yes","zone":"3","railway":"tram_stop","operator":"Metrolink","start_date":"2012","public_transport":"stop_position"}},
{"type":"Feature","geometry":{"type":"Point","coordinates":[-2.1930162,53.4822995]},"properties":{"name":"Velopark","tram":"yes","zone":"2","railway":"tram_stop","operator":"Metrolink","start_date":"2012","public_transport":"stop_position"}},
{"type":"Feature","geometry":{"type":"Point","coordinates":[-2.1824292,53.4828103]},"properties":{"name":"Clayton Hall","tram":"yes","zone":"2","railway":"tram_stop","operator":"Metrolink","start_date":"2012","public_transport":"stop_position"}},
{"type":"Feature","geometry":{"type":"Point","coordinates":[-2.2197957,53.4810431]},"properties":{"name":"New Islington","tram":"yes","zone":"1","railway":"tram_stop","operator":"Metrolink","public_transport":"stop_position"}},
{"type":"Feature","geometry":{"type":"Point","coordinates":[-2.2489429,53.5320232]},"properties":{"name":"Depot","usage":"tourism","railway":"tram_stop"}},
{"type":"Feature","geometry":{"type":"Point","coordinates":[-2.2531162,53.5326447]},"properties":{"name":"White Gate","usage":"tourism","railway":"tram_stop"}},
{"type":"Feature","geometry":{"type":"Point","coordinates":[-2.2632909,53.4379205]},"properties":{"railway":"railway_crossing"}},
{"type":"Feature","geometry":{"type":"Point","coordinates":[-2.2635453,53.4380484]},"properties":{"railway":"switch"}},
{"type":"Feature","geometry":{"type":"Point","coordinates":[-2.2626603,53.4373076]},"properties":{"railway":"crossing"}},
{"type":"Feature","geometry":{"type":"Point","coordinates":[-2.2636865,53.4358726]},"properties":{"railway":"level_crossing"}},
{"type":"Feature","geometry":{"type":"Point","coordinates":[-2.2646675,53.3785846]},"properties":{"railway":"level_crossing"}},
{"type":"Feature","geometry":{"type":"Point","coordinates":[-2.2863178,53.4746921]},"properties":{"railway":"level_crossing"}},
{"type":"Feature","geometry":{"type":"Point","coordinates":[-2.1310087,53.4781712]},"properties":{"name":"Audenshaw","tram":"yes","zone":"3","railway":"tram_stop","operator":"Metrolink","public_transport":"stop_position"}},
{"type":"Feature","geometry":{"type":"Point","coordinates":[-2.0980678,53.4903037]},"properties":{"name":"Ashton-under-Lyne","tram":"yes","zone":"3","railway":"tram_stop","operator":"Metrolink","brand:wikidata":"Q18548","public_transport":"stop_position"}},
{"type":"Feature","geometry":{"type":"Point","coordinates":[-2.105242,53.4904132]},"properties":{"railway":"crossing"}},
{"type":"Feature","geometry":{"type":"Point","coordinates":[-2.1266605,53.4790427]},"properties":{"railway":"level_crossing"}},
{"type":"Feature","geometry":{"type":"Point","coordinates":[-2.1266944,53.4790682]},"properties":{"highway":"traffic_signals","railway":"level_crossing"}},
{"type":"Feature","geometry":{"type":"Point","coordinates":[-2.1052497,53.4904488]},"properties":{"railway":"crossing"}},
{"type":"Feature","geometry":{"type":"Point","coordinates":[-2.1045088,53.4904831]},"properties":{"railway":"level_crossing"}},
{"type":"Feature","geometry":{"type":"Point","coordinates":[-2.2189164,53.4814375]},"properties":{"railway":"level_crossing"}},
{"type":"Feature","geometry":{"type":"Point","coordinates":[-2.1555869,53.479912]},"properties":{"railway":"crossing"}},
{"type":"Feature","geometry":{"type":"Point","coordinates":[-2.098078,53.4903741]},"properties":{"name":"Ashton-under-Lyne","tram":"yes","zone":"3","railway":"tram_stop","operator":"Metrolink","brand:wikidata":"Q18548","public_transport":"stop_position"}},
{"type":"Feature","geometry":{"type":"Point","coordinates":[-2.1000064,53.4901994]},"properties":{"railway":"switch"}},
{"type":"Feature","geometry":{"type":"Point","coordinates":[-2.0987888,53.4903346]},"properties":{"railway":"tram_crossing"}},
{"type":"Feature","geometry":{"type":"Point","coordinates":[-2.1012526,53.4901232]},"properties":{"railway":"tram_crossing"}},
{"type":"Feature","geometry":{"type":"Point","coordinates":[-2.1003277,53.4902023]},"properties":{"railway":"switch"}},
{"type":"Feature","geometry":{"type":"Point","coordinates":[-2.1539146,53.4797834]},"properties":{"railway":"crossing"}},
{"type":"Feature","geometry":{"type":"Point","coordinates":[-2.1640463,53.4807343]},"properties":{"railway":"level_crossing"}},
{"type":"Feature","geometry":{"type":"Point","coordinates":[-2.1640251,53.480785]},"properties":{"railway":"level_crossing"}},
{"type":"Feature","geometry":{"type":"Point","coordinates":[-2.1665879,53.4809565]},"properties":{"railway":"level_crossing"}},
{"type":"Feature","geometry":{"type":"Point","coordinates":[-2.1666127,53.481007]},"properties":{"railway":"level_crossing"}},
{"type":"Feature","geometry":{"type":"Point","coordinates":[-2.1868762,53.4830021]},"properties":{"railway":"level_crossing"}},
{"type":"Feature","geometry":{"type":"Point","coordinates":[-2.1884436,53.4831305]},"properties":{"railway":"level_crossing"}},
{"type":"Feature","geometry":{"type":"Point","coordinates":[-2.2272136,53.502488]},"properties":{"railway":"switch"}},
{"type":"Feature","geometry":{"type":"Point","coordinates":[-2.212971,53.4828262]},"properties":{"bicycle":"yes","railway":"level_crossing"}},
{"type":"Feature","geometry":{"type":"Point","coordinates":[-2.1212876,53.5399764]},"properties":{"railway":"level_crossing"}},
{"type":"Feature","geometry":{"type":"Point","coordinates":[-2.2318073,53.4772788]},"properties":{"railway":"level_crossing"}},
{"type":"Feature","geometry":{"type":"Point","coordinates":[-2.2318805,53.4774015]},"properties":{"railway":"level_crossing"}},
{"type":"Feature","geometry":{"type":"Point","coordinates":[-2.2952117,53.4804994]},"properties":{"railway":"crossing"}},
{"type":"Feature","geometry":{"type":"Point","coordinates":[-2.122419,53.5401168]},"properties":{"railway":"level_crossing"}},
{"type":"Feature","geometry":{"type":"Point","coordinates":[-2.1226106,53.5401419]},"properties":{"railway":"level_crossing"}},
{"type":"Feature","geometry":{"type":"Point","coordinates":[-2.2391028,53.4852432]},"properties":{"name":"Shudehill","tram":"yes","zone":"1","railway":"tram_stop","operator":"Metrolink","wheelchair":"yes","public_transport":"stop_position"}},
{"type":"Feature","geometry":{"type":"Point","coordinates":[-2.2839317,53.4707868]},"properties":{"railway":"crossing"}},
{"type":"Feature","geometry":{"type":"Point","coordinates":[-2.2820925,53.4665258]},"properties":{"railway":"level_crossing"}},
{"type":"Feature","geometry":{"type":"Point","coordinates":[-2.2838758,53.4707894]},"properties":{"railway":"crossing"}},
{"type":"Feature","geometry":{"type":"Point","coordinates":[-2.2951812,53.4802564]},"properties":{"highway":"traffic_signals","traffic_signals":"signal","traffic_signals:direction":"both"}},
{"type":"Feature","geometry":{"type":"Point","coordinates":[-2.2922361,53.4738771]},"properties":{"railway":"crossing"}},
{"type":"Feature","geometry":{"type":"Point","coordinates":[-2.2922511,53.4739055]},"properties":{"railway":"crossing"}},
{"type":"Feature","geometry":{"type":"Point","coordinates":[-2.2449307,53.4807901]},"properties":{"railway":"level_crossing"}},
{"type":"Feature","geometry":{"type":"Point","coordinates":[-2.154001,53.6104453]},"properties":{"railway":"tram_crossing"}},
{"type":"Feature","geometry":{"type":"Point","coordinates":[-2.2433853,53.4833959]},"properties":{"railway":"switch"}},
{"type":"Feature","geometry":{"type":"Point","coordinates":[-2.2428189,53.4782623]},"properties":{"name":"St. Peter's Square","tram":"yes","zone":"1","network":"Manchester Metrolink","railway":"tram_stop","operator":"Metrolink","wheelchair":"yes","public_transport":"stop_position"}},
{"type":"Feature","geometry":{"type":"Point","coordinates":[-2.2976852,53.4720478]},"properties":{"railway":"buffer_stop"}},
{"type":"Feature","geometry":{"type":"Point","coordinates":[-2.2976627,53.4720174]},"properties":{"railway":"buffer_stop"}},
{"type":"Feature","geometry":{"type":"Point","coordinates":[-2.1910695,53.4827222]},"properties":{"railway":"level_crossing"}},
{"type":"Feature","geometry":{"type":"Point","coordinates":[-2.1884949,53.4831117]},"properties":{"railway":"level_crossing"}},
{"type":"Feature","geometry":{"type":"Point","coordinates":[-2.236904,53.4802768]},"properties":{"name":"Piccadilly Gardens","tram":"yes","zone":"1","railway":"tram_stop","operator":"Metrolink","wheelchair":"yes","public_transport":"stop_position"}},
{"type":"Feature","geometry":{"type":"Point","coordinates":[-2.2130109,53.4828483]},"properties":{"bicycle":"yes","railway":"crossing"}},
{"type":"Feature","geometry":{"type":"Point","coordinates":[-2.2198244,53.481064]},"properties":{"name":"New Islington","tram":"yes","zone":"1","railway":"tram_stop","operator":"Metrolink","public_transport":"stop_position"}},
{"type":"Feature","geometry":{"type":"Point","coordinates":[-2.1868397,53.4829871]},"properties":{"railway":"level_crossing"}},
{"type":"Feature","geometry":{"type":"Point","coordinates":[-2.1831251,53.4827464]},"properties":{"railway":"level_crossing"}},
{"type":"Feature","geometry":{"type":"Point","coordinates":[-2.1446443,53.4794432]},"properties":{"name":"Droylsden","tram":"yes","zone":"3","railway":"tram_stop","operator":"Metrolink","public_transport":"stop_position"}},
{"type":"Feature","geometry":{"type":"Point","coordinates":[-2.2120488,53.4833053]},"properties":{"name":"Holt Town","tram":"yes","zone":"2","railway":"tram_stop","operator":"Metrolink","public_transport":"stop_position"}},
{"type":"Feature","geometry":{"type":"Point","coordinates":[-2.2971436,53.4721415]},"properties":{"name":"MediaCityUK","tram":"yes","zone":"2","railway":"tram_stop","operator":"Metrolink","wheelchair":"yes","public_transport":"stop_position"}},
{"type":"Feature","geometry":{"type":"Point","coordinates":[-2.1543894,53.6110189]},"properties":{"name":"Rochdale Railway Station","tram":"yes","zone":"4","network":"Manchester Metrolink","railway":"tram_stop","shelter":"yes","operator":"Metrolink","public_transport":"stop_position"}},
{"type":"Feature","geometry":{"type":"Point","coordinates":[-2.2938243,53.4737315]},"properties":{"railway":"crossing"}},
{"type":"Feature","geometry":{"type":"Point","coordinates":[-2.2938447,53.4736593]},"properties":{"railway":"crossing"}},
{"type":"Feature","geometry":{"type":"Point","coordinates":[-2.2831774,53.4693953]},"properties":{"railway":"level_crossing"}},
{"type":"Feature","geometry":{"type":"Point","coordinates":[-2.2870799,53.4749241]},"properties":{"railway":"level_crossing"}},
{"type":"Feature","geometry":{"type":"Point","coordinates":[-2.2829585,53.4693222]},"properties":{"railway":"level_crossing"}},
{"type":"Feature","geometry":{"type":"Point","coordinates":[-2.2863012,53.4747507]},"properties":{"railway":"level_crossing"}},
{"type":"Feature","geometry":{"type":"Point","coordinates":[-2.2846028,53.4719088]},"properties":{"crossing:barrier":"no","railway":"level_crossing"}},
{"type":"Feature","geometry":{"type":"Point","coordinates":[-2.284021,53.4711043]},"properties":{"railway":"level_crossing"}},
{"type":"Feature","geometry":{"type":"Point","coordinates":[-2.283188,53.469359]},"properties":{"railway":"level_crossing"}},
{"type":"Feature","geometry":{"type":"Point","coordinates":[-2.218945,53.4814735]},"properties":{"railway":"level_crossing"}},
{"type":"Feature","geometry":{"type":"Point","coordinates":[-2.1548689,53.6125523]},"properties":{"railway":"tram_crossing"}},
{"type":"Feature","geometry":{"type":"Point","coordinates":[-2.155918,53.6172127]},"properties":{"railway":"crossing"}},
{"type":"Feature","geometry":{"type":"Point","coordinates":[-2.1542221,53.6106028]},"properties":{"railway":"tram_crossing"}},
{"type":"Feature","geometry":{"type":"Point","coordinates":[-2.1542654,53.6105197]},"properties":{"railway":"tram_crossing"}},
{"type":"Feature","geometry":{"type":"Point","coordinates":[-2.1539597,53.6105011]},"properties":{"railway":"tram_crossing"}},
{"type":"Feature","geometry":{"type":"Point","coordinates":[-2.2353437,53.4795251]},"properties":{"railway":"crossing"}},
{"type":"Feature","geometry":{"type":"Point","coordinates":[-2.2353721,53.4795066]},"properties":{"railway":"crossing"}},
{"type":"Feature","geometry":{"type":"Point","coordinates":[-2.2375778,53.4805318]},"properties":{"railway":"crossing","crossing":"uncontrolled"}},
{"type":"Feature","geometry":{"type":"Point","coordinates":[-2.2347575,53.4790824]},"properties":{"railway":"crossing"}},
{"type":"Feature","geometry":{"type":"Point","coordinates":[-2.2361718,53.4799808]},"properties":{"bicycle":"yes","railway":"crossing","crossing":"uncontrolled"}},
{"type":"Feature","geometry":{"type":"Point","coordinates":[-2.2347923,53.4790609]},"properties":{"railway":"crossing"}},
{"type":"Feature","geometry":{"type":"Point","coordinates":[-2.2362626,53.47996]},"properties":{"bicycle":"yes","railway":"crossing","crossing":"uncontrolled"}},
{"type":"Feature","geometry":{"type":"Point","coordinates":[-2.2362041,53.479953]},"properties":{"railway":"crossing","crossing":"uncontrolled"}},
{"type":"Feature","geometry":{"type":"Point","coordinates":[-2.2339879,53.4784312]},"properties":{"railway":"crossing","crossing":"unmarked"}},
{"type":"Feature","geometry":{"type":"Point","coordinates":[-2.2840758,53.471093]},"properties":{"railway":"level_crossing"}},
{"type":"Feature","geometry":{"type":"Point","coordinates":[-2.2839865,53.4710439]},"properties":{"railway":"level_crossing"}},
{"type":"Feature","geometry":{"type":"Point","coordinates":[-2.2938185,53.4735649]},"properties":{"railway":"crossing"}},
{"type":"Feature","geometry":{"type":"Point","coordinates":[-2.2821891,53.4681939]},"properties":{"crossing:barrier":"no","railway":"level_crossing"}},
{"type":"Feature","geometry":{"type":"Point","coordinates":[-2.2824579,53.4671445]},"properties":{"railway":"crossing"}},
{"type":"Feature","geometry":{"type":"Point","coordinates":[-2.2825095,53.4671495]},"properties":{"railway":"crossing"}},
{"type":"Feature","geometry":{"type":"Point","coordinates":[-2.2811651,53.4664125]},"properties":{"railway":"level_crossing"}},
{"type":"Feature","geometry":{"type":"Point","coordinates":[-2.1341259,53.4785841]},"properties":{"highway":"crossing"}},
{"type":"Feature","geometry":{"type":"Point","coordinates":[-2.0988377,53.4902589]},"properties":{"railway":"tram_crossing"}},
{"type":"Feature","geometry":{"type":"Point","coordinates":[-2.0995949,53.4902732]},"properties":{"railway":"switch"}},
{"type":"Feature","geometry":{"type":"Point","coordinates":[-2.099856,53.4902152]},"properties":{"railway":"switch"}},
{"type":"Feature","geometry":{"type":"Point","coordinates":[-2.2489402,53.5320476]},"properties":{"name":"Depot","usage":"tourism","railway":"tram_stop"}},
{"type":"Feature","geometry":{"type":"Point","coordinates":[-2.2457605,53.5319493]},"properties":{"name":"Middleton Road","usage":"tourism","railway":"tram_stop"}},
{"type":"Feature","geometry":{"type":"Point","coordinates":[-2.2635609,53.3805731]},"properties":{"railway":"level_crossing"}},
{"type":"Feature","geometry":{"type":"Point","coordinates":[-2.1211815,53.5399649]},"properties":{"railway":"level_crossing"}},
{"type":"Feature","geometry":{"type":"Point","coordinates":[-2.1218112,53.5400391]},"properties":{"railway":"crossing"}},
{"type":"Feature","geometry":{"type":"Point","coordinates":[-2.241508,53.4866261]},"properties":{"railway":"crossing"}},
{"type":"Feature","geometry":{"type":"Point","coordinates":[-2.2439185,53.4774454]},"properties":{"railway":"level_crossing"}},
{"type":"Feature","geometry":{"type":"Point","coordinates":[-2.2427696,53.4787605]},"properties":{"railway":"crossing"}},
{"type":"Feature","geometry":{"type":"Point","coordinates":[-2.2432286,53.4837202]},"properties":{"railway":"switch"}},
{"type":"Feature","geometry":{"type":"Point","coordinates":[-2.2395725,53.4856731]},"properties":{"railway":"level_crossing"}},
{"type":"Feature","geometry":{"type":"Point","coordinates":[-2.2395515,53.4857098]},"properties":{"railway":"level_crossing"}},
{"type":"Feature","geometry":{"type":"Point","coordinates":[-2.1046849,53.4904382]},"properties":{"railway":"level_crossing"}},
{"type":"Feature","geometry":{"type":"Point","coordinates":[-2.2447214,53.4817151]},"properties":{"railway":"level_crossing"}},
{"type":"Feature","geometry":{"type":"Point","coordinates":[-2.1121615,53.5402846]},"properties":{"name":"Oldham Central","tram":"yes","zone":"3","network":"Manchester Metrolink","railway":"tram_stop","operator":"Metrolink","public_transport":"stop_position"}},
{"type":"Feature","geometry":{"type":"Point","coordinates":[-2.2201991,53.4808732]},"properties":{"railway":"crossing"}},
{"type":"Feature","geometry":{"type":"Point","coordinates":[-2.220171,53.4808535]},"properties":{"railway":"crossing"}},
{"type":"Feature","geometry":{"type":"Point","coordinates":[-2.2124347,53.4830952]},"properties":{"railway":"crossing"}},
{"type":"Feature","geometry":{"type":"Point","coordinates":[-2.2124601,53.4831132]},"properties":{"railway":"crossing"}},
{"type":"Feature","geometry":{"type":"Point","coordinates":[-2.1665222,53.4809515]},"properties":{"railway":"crossing"}},
{"type":"Feature","geometry":{"type":"Point","coordinates":[-2.1664845,53.481004]},"properties":{"railway":"crossing"}},
{"type":"Feature","geometry":{"type":"Point","coordinates":[-2.165979,53.4809756]},"properties":{"railway":"crossing"}},
{"type":"Feature","geometry":{"type":"Point","coordinates":[-2.1659912,53.4809114]},"properties":{"railway":"crossing"}},
{"type":"Feature","geometry":{"type":"Point","coordinates":[-2.1645175,53.4808682]},"properties":{"railway":"crossing"}},
{"type":"Feature","geometry":{"type":"Point","coordinates":[-2.1642195,53.4807594]},"properties":{"railway":"crossing"}},
{"type":"Feature","geometry":{"type":"Point","coordinates":[-2.1455344,53.4795854]},"properties":{"railway":"crossing"}},
{"type":"Feature","geometry":{"type":"Point","coordinates":[-2.1455517,53.4795224]},"properties":{"railway":"crossing"}},
{"type":"Feature","geometry":{"type":"Point","coordinates":[-2.144158,53.4794589]},"properties":{"railway":"crossing"}},
{"type":"Feature","geometry":{"type":"Point","coordinates":[-2.1441737,53.4793986]},"properties":{"railway":"crossing"}},
{"type":"Feature","geometry":{"type":"Point","coordinates":[-2.2692454,53.4328367]},"properties":{"name":"Barlow Moor Road","tram":"yes","zone":"2&3","railway":"tram_stop","operator":"Metrolink","public_transport":"stop_position"}},
{"type":"Feature","geometry":{"type":"Point","coordinates":[-2.2703509,53.4325343]},"properties":{"railway":"level_crossing"}},
{"type":"Feature","geometry":{"type":"Point","coordinates":[-2.2703944,53.4325637]},"properties":{"railway":"level_crossing"}},
{"type":"Feature","geometry":{"type":"Point","coordinates":[-2.2700079,53.4326314]},"properties":{"railway":"crossing"}},
{"type":"Feature","geometry":{"type":"Point","coordinates":[-2.2685055,53.4330333]},"properties":{"railway":"crossing"}},
{"type":"Feature","geometry":{"type":"Point","coordinates":[-2.2823278,53.4676667]},"properties":{"name":"Exchange Quay","operator":"Metrolink","public_transport":"stop_position","railway":"tram_stop","tram":"yes","wheelchair":"yes","zone":"2"}},
{"type":"Feature","geometry":{"type":"Point","coordinates":[-2.2823755,53.4676708]},"properties":{"name":"Exchange Quay","operator":"Metrolink","public_transport":"stop_position","railway":"tram_stop","tram":"yes","wheelchair":"yes","zone":"2"}},
{"type":"Feature","geometry":{"type":"Point","coordinates":[-2.2411856,53.4862924]},"properties":{"railway":"level_crossing"}},
{"type":"Feature","geometry":{"type":"Point","coordinates":[-2.2413895,53.4866988]},"properties":{"railway":"crossing"}},
{"type":"Feature","geometry":{"type":"Point","coordinates":[-2.241466,53.4866523]},"properties":{"railway":"crossing"}},
{"type":"Feature","geometry":{"type":"Point","coordinates":[-2.1565469,53.6171888]},"properties":{"railway":"level_crossing"}},
{"type":"Feature","geometry":{"type":"Point","coordinates":[-2.1564548,53.6172174]},"properties":{"railway":"level_crossing"}},
{"type":"Feature","geometry":{"type":"Point","coordinates":[-2.1034434,53.54244]},"properties":{"name":"Oldham Mumps","tram":"yes","zone":"3","network":"Manchester Metrolink","railway":"tram_stop","operator":"Metrolink","start_date":"2014","public_transport":"stop_position"}},
{"type":"Feature","geometry":{"type":"Point","coordinates":[-2.1034248,53.5424109]},"properties":{"name":"Oldham Mumps","tram":"yes","zone":"3","network":"Manchester Metrolink","railway":"tram_stop","operator":"Metrolink","start_date":"2014","public_transport":"stop_position"}},
{"type":"Feature","geometry":{"type":"Point","coordinates":[-2.28404,53.4710343]},"properties":{"railway":"level_crossing"}},
{"type":"Feature","geometry":{"type":"Point","coordinates":[-2.2395007,53.4822231]},"properties":{"railway":"crossing"}},
{"type":"Feature","geometry":{"type":"Point","coordinates":[-2.2394066,53.4822191]},"properties":{"railway":"crossing"}},
{"type":"Feature","geometry":{"type":"Point","coordinates":[-2.2394805,53.4821488]},"properties":{"railway":"crossing"}},
{"type":"Feature","geometry":{"type":"Point","coordinates":[-2.32683,53.4839993]},"properties":{"name":"Ladywell","tram":"yes","zone":"2","railway":"tram_stop","operator":"Metrolink","public_transport":"stop_position"}},
{"type":"Feature","geometry":{"type":"Point","coordinates":[-2.3265953,53.4839702]},"properties":{"name":"Ladywell","tram":"yes","zone":"2","railway":"tram_stop","operator":"Metrolink","public_transport":"stop_position"}},
{"type":"Feature","geometry":{"type":"Point","coordinates":[-2.3073913,53.4823857]},"properties":{"name":"Weaste","tram":"yes","zone":"2","railway":"tram_stop","operator":"Metrolink","public_transport":"stop_position"}},
{"type":"Feature","geometry":{"type":"Point","coordinates":[-2.2961742,53.480623]},"properties":{"name":"Langworthy","tram":"yes","zone":"2","railway":"tram_stop","operator":"Metrolink","public_transport":"stop_position"}},
{"type":"Feature","geometry":{"type":"Point","coordinates":[-2.2950101,53.4748038]},"properties":{"name":"Broadway","tram":"yes","zone":"2","railway":"tram_stop","operator":"Metrolink","public_transport":"stop_position"}},
{"type":"Feature","geometry":{"type":"Point","coordinates":[-2.2952559,53.4752069]},"properties":{"railway":"crossing"}},
{"type":"Feature","geometry":{"type":"Point","coordinates":[-2.2949267,53.4748282]},"properties":{"name":"Broadway","tram":"yes","zone":"2","railway":"tram_stop","operator":"Metrolink","public_transport":"stop_position"}},
{"type":"Feature","geometry":{"type":"Point","coordinates":[-2.2915507,53.4740285]},"properties":{"name":"Harbour City","tram":"yes","zone":"2","railway":"tram_stop","operator":"Metrolink","public_transport":"stop_position"}},
{"type":"Feature","geometry":{"type":"Point","coordinates":[-2.2896288,53.4743366]},"properties":{"name":"Harbour City","tram":"yes","zone":"2","railway":"tram_stop","operator":"Metrolink","public_transport":"stop_position"}},
{"type":"Feature","geometry":{"type":"Point","coordinates":[-2.2860028,53.4743305]},"properties":{"name":"Anchorage","tram":"yes","zone":"2","railway":"tram_stop","operator":"Metrolink","public_transport":"stop_position"}},
{"type":"Feature","geometry":{"type":"Point","coordinates":[-2.2860548,53.4743194]},"properties":{"name":"Anchorage","tram":"yes","zone":"2","railway":"tram_stop","operator":"Metrolink","public_transport":"stop_position"}},
{"type":"Feature","geometry":{"type":"Point","coordinates":[-2.2840286,53.4703213]},"properties":{"name":"Salford Quays","operator":"Metrolink","public_transport":"stop_position","railway":"tram_stop","tram":"yes","wheelchair":"yes","zone":"2"}},
{"type":"Feature","geometry":{"type":"Point","coordinates":[-2.2839732,53.4703164]},"properties":{"name":"Salford Quays","operator":"Metrolink","public_transport":"stop_position","railway":"tram_stop","tram":"yes","wheelchair":"yes","zone":"2"}},
{"type":"Feature","geometry":{"type":"Point","coordinates":[-2.2786458,53.4651008]},"properties":{"railway":"switch"}},
{"type":"Feature","geometry":{"type":"Point","coordinates":[-2.2637135,53.438079]},"properties":{"railway":"switch"}},
{"type":"Feature","geometry":{"type":"Point","coordinates":[-2.2953449,53.475178]},"properties":{"railway":"crossing"}},
{"type":"Feature","geometry":{"type":"Point","coordinates":[-2.2945715,53.4744294]},"properties":{"railway":"crossing"}},
{"type":"Feature","geometry":{"type":"Point","coordinates":[-2.2954221,53.4805103]},"properties":{"railway":"crossing"}},
{"type":"Feature","geometry":{"type":"Point","coordinates":[-2.2954062,53.4805497]},"properties":{"railway":"crossing"}},
{"type":"Feature","geometry":{"type":"Point","coordinates":[-2.2971319,53.4807595]},"properties":{"railway":"crossing"}},
{"type":"Feature","geometry":{"type":"Point","coordinates":[-2.2971012,53.4807922]},"properties":{"railway":"crossing"}},
{"type":"Feature","geometry":{"type":"Point","coordinates":[-2.306386,53.4822532]},"properties":{"railway":"crossing"}},
{"type":"Feature","geometry":{"type":"Point","coordinates":[-2.3063935,53.4822269]},"properties":{"railway":"crossing"}},
{"type":"Feature","geometry":{"type":"Point","coordinates":[-2.3083634,53.4825243]},"properties":{"railway":"crossing"}},
{"type":"Feature","geometry":{"type":"Point","coordinates":[-2.3083526,53.4825547]},"properties":{"railway":"crossing"}},
{"type":"Feature","geometry":{"type":"Point","coordinates":[-2.3092716,53.4826501]},"properties":{"highway":"traffic_signals","traffic_signals":"signal","traffic_signals:direction":"forward"}},
{"type":"Feature","geometry":{"type":"Point","coordinates":[-2.2653337,53.4344521]},"properties":{"railway":"crossing"}},
{"type":"Feature","geometry":{"type":"Point","coordinates":[-2.265041,53.4346438]},"properties":{"railway":"level_crossing"}},
{"type":"Feature","geometry":{"type":"Point","coordinates":[-2.2652915,53.4344239]},"properties":{"railway":"crossing"}},
{"type":"Feature","geometry":{"type":"Point","coordinates":[-2.2648302,53.4348207]},"properties":{"railway":"crossing"}},
{"type":"Feature","geometry":{"type":"Point","coordinates":[-2.2634786,53.4362529]},"properties":{"railway":"crossing"}},
{"type":"Feature","geometry":{"type":"Point","coordinates":[-2.2636651,53.4359437]},"properties":{"railway":"crossing"}},
{"type":"Feature","geometry":{"type":"Point","coordinates":[-2.2954519,53.4753047]},"properties":{"railway":"crossing"}},
{"type":"Feature","geometry":{"type":"Point","coordinates":[-2.2953755,53.4753443]},"properties":{"railway":"crossing"}},
{"type":"Feature","geometry":{"type":"Point","coordinates":[-2.2952175,53.4803797]},"properties":{"railway":"crossing"}},
{"type":"Feature","geometry":{"type":"Point","coordinates":[-2.2785722,53.4303388]},"properties":{"railway":"level_crossing"}},
{"type":"Feature","geometry":{"type":"Point","coordinates":[-2.2785169,53.4303545]},"properties":{"railway":"level_crossing"}},
{"type":"Feature","geometry":{"type":"Point","coordinates":[-2.2635299,53.4362719]},"properties":{"railway":"crossing"}},
{"type":"Feature","geometry":{"type":"Point","coordinates":[-2.2637498,53.4358904]},"properties":{"railway":"crossing"}},
{"type":"Feature","geometry":{"type":"Point","coordinates":[-2.2637762,53.4357992]},"properties":{"railway":"level_crossing"}},
{"type":"Feature","geometry":{"type":"Point","coordinates":[-2.2648773,53.43484]},"properties":{"railway":"crossing"}},
{"type":"Feature","geometry":{"type":"Point","coordinates":[-2.2650907,53.4346642]},"properties":{"railway":"level_crossing"}},
{"type":"Feature","geometry":{"type":"Point","coordinates":[-2.2685285,53.4330607]},"properties":{"railway":"crossing"}},
{"type":"Feature","geometry":{"type":"Point","coordinates":[-2.2692655,53.4328622]},"properties":{"name":"Barlow Moor Road","tram":"yes","zone":"2&3","railway":"tram_stop","operator":"Metrolink","public_transport":"stop_position"}},
{"type":"Feature","geometry":{"type":"Point","coordinates":[-2.270029,53.4326561]},"properties":{"railway":"crossing"}},
{"type":"Feature","geometry":{"type":"Point","coordinates":[-2.2705995,53.4325058]},"properties":{"railway":"crossing"}},
{"type":"Feature","geometry":{"type":"Point","coordinates":[-2.279344,53.4301522]},"properties":{"railway":"level_crossing"}},
{"type":"Feature","geometry":{"type":"Point","coordinates":[-2.2705722,53.4324738]},"properties":{"railway":"crossing"}},
{"type":"Feature","geometry":{"type":"Point","coordinates":[-2.2793359,53.4301152]},"properties":{"railway":"level_crossing"}},
{"type":"Feature","geometry":{"type":"Point","coordinates":[-2.2627585,53.4373046]},"properties":{"railway":"crossing"}},
{"type":"Feature","geometry":{"type":"Point","coordinates":[-2.2801143,53.4587226]},"properties":{"railway":"level_crossing"}},
{"type":"Feature","geometry":{"type":"Point","coordinates":[-2.3344891,53.4830722]},"properties":{"name":"Eccles","tram":"yes","zone":"2","railway":"tram_stop","operator":"Metrolink","public_transport":"stop_position"}},
{"type":"Feature","geometry":{"type":"Point","coordinates":[-2.2321883,53.4775027]},"properties":{"highway":"crossing","crossing":"marked"}},
{"type":"Feature","geometry":{"type":"Point","coordinates":[-2.2337847,53.4783291]},"properties":{"highway":"crossing","crossing":"marked"}},
{"type":"Feature","geometry":{"type":"Point","coordinates":[-2.1555797,53.4799379]},"properties":{"railway":"crossing"}},
{"type":"Feature","geometry":{"type":"Point","coordinates":[-2.1254087,53.4796058]},"properties":{"railway":"crossing"}},
{"type":"Feature","geometry":{"type":"Point","coordinates":[-2.1254302,53.4796331]},"properties":{"railway":"crossing"}},
{"type":"Feature","geometry":{"type":"Point","coordinates":[-2.1539234,53.4798127]},"properties":{"railway":"crossing"}},
{"type":"Feature","geometry":{"type":"Point","coordinates":[-2.2641714,53.3790398]},"properties":{"railway":"crossing"}},
{"type":"Feature","geometry":{"type":"Point","coordinates":[-2.2635228,53.3805691]},"properties":{"railway":"level_crossing"}},
{"type":"Feature","geometry":{"type":"Point","coordinates":[-2.262924,53.3810369]},"properties":{"railway":"crossing"}},
{"type":"Feature","geometry":{"type":"Point","coordinates":[-2.2629397,53.3810557]},"properties":{"railway":"crossing"}},
{"type":"Feature","geometry":{"type":"Point","coordinates":[-2.2635664,53.3804615]},"properties":{"railway":"crossing"}},
{"type":"Feature","geometry":{"type":"Point","coordinates":[-2.2636019,53.3804667]},"properties":{"railway":"crossing"}},
{"type":"Feature","geometry":{"type":"Point","coordinates":[-2.2638227,53.3797899]},"properties":{"railway":"crossing"}},
{"type":"Feature","geometry":{"type":"Point","coordinates":[-2.263864,53.379796]},"properties":{"railway":"crossing"}},
{"type":"Feature","geometry":{"type":"Point","coordinates":[-2.2642594,53.3789402]},"properties":{"railway":"level_crossing"}},
{"type":"Feature","geometry":{"type":"Point","coordinates":[-2.2641266,53.3790338]},"properties":{"railway":"crossing"}},
{"type":"Feature","geometry":{"type":"Point","coordinates":[-2.2642206,53.3789183]},"properties":{"railway":"level_crossing"}},
{"type":"Feature","geometry":{"type":"Point","coordinates":[-2.2645865,53.3785462]},"properties":{"railway":"level_crossing"}},
{"type":"Feature","geometry":{"type":"Point","coordinates":[-2.2645269,53.3786471]},"properties":{"railway":"crossing"}},
{"type":"Feature","geometry":{"type":"Point","coordinates":[-2.2645766,53.378672]},"properties":{"railway":"crossing"}},
{"type":"Feature","geometry":{"type":"Point","coordinates":[-2.2637593,53.3800676]},"properties":{"name":"Wythenshawe Town Centre","tram":"yes","zone":"4","network":"Manchester Metrolink","railway":"tram_stop","operator":"Metrolink","public_transport":"stop_position"}},
{"type":"Feature","geometry":{"type":"Point","coordinates":[-2.2637182,53.3800639]},"properties":{"name":"Wythenshawe Town Centre","tram":"yes","zone":"4","network":"Manchester Metrolink","railway":"tram_stop","operator":"Metrolink","public_transport":"stop_position"}},
{"type":"Feature","geometry":{"type":"Point","coordinates":[-2.270988,53.4324007]},"properties":{"railway":"level_crossing"}},
{"type":"Feature","geometry":{"type":"Point","coordinates":[-2.2710061,53.4323559]},"properties":{"railway":"level_crossing"}},
{"type":"Feature","geometry":{"type":"Point","coordinates":[-2.2710267,53.4323498]},"properties":{"railway":"level_crossing"}},
{"type":"Feature","geometry":{"type":"Point","coordinates":[-2.1226002,53.5401076]},"properties":{"railway":"level_crossing"}},
{"type":"Feature","geometry":{"type":"Point","coordinates":[-2.1224476,53.5400896]},"properties":{"railway":"level_crossing"}},
{"type":"Feature","geometry":{"type":"Point","coordinates":[-2.1218271,53.5400101]},"properties":{"railway":"crossing"}},
{"type":"Feature","geometry":{"type":"Point","coordinates":[-2.1212672,53.5399421]},"properties":{"railway":"level_crossing"}},
{"type":"Feature","geometry":{"type":"Point","coordinates":[-2.1211981,53.5399355]},"properties":{"railway":"level_crossing"}},
{"type":"Feature","geometry":{"type":"Point","coordinates":[-2.2955414,53.4755325]},"properties":{"highway":"traffic_signals","traffic_signals":"signal","traffic_signals:direction":"forward"}},
{"type":"Feature","geometry":{"type":"Point","coordinates":[-2.2955218,53.4755109]},"properties":{"highway":"crossing","crossing":"traffic_signals"}},
{"type":"Feature","geometry":{"type":"Point","coordinates":[-2.2956401,53.4755186]},"properties":{"highway":"crossing","crossing":"traffic_signals"}},
{"type":"Feature","geometry":{"type":"Point","coordinates":[-2.2427592,53.484472]},"properties":{"name":"Exchange Square","tram":"yes","zone":"1","network":"Manchester Metrolink","railway":"tram_stop","operator":"Metrolink","wikidata":"Q5419588","wikipedia":"en:Exchange Square tram stop","public_transport":"stop_position"}},
{"type":"Feature","geometry":{"type":"Point","coordinates":[-2.242632,53.4844398]},"properties":{"name":"Exchange Square","tram":"yes","zone":"1","network":"Manchester Metrolink","railway":"tram_stop","operator":"Metrolink","wikidata":"Q5419588","wikipedia":"en:Exchange Square tram stop","public_transport":"stop_position"}},
{"type":"Feature","geometry":{"type":"Point","coordinates":[-2.2644002,53.3891296]},"properties":{"railway":"level_crossing"}},
{"type":"Feature","geometry":{"type":"Point","coordinates":[-2.3258665,53.4839995]},"properties":{"railway":"crossing"}},
{"type":"Feature","geometry":{"type":"Point","coordinates":[-2.3258666,53.4839678]},"properties":{"railway":"crossing"}},
{"type":"Feature","geometry":{"type":"Point","coordinates":[-2.3276866,53.4839749]},"properties":{"railway":"crossing"}},
{"type":"Feature","geometry":{"type":"Point","coordinates":[-2.3276861,53.4840033]},"properties":{"railway":"crossing"}},
{"type":"Feature","geometry":{"type":"Point","coordinates":[-2.1545218,53.6110062]},"properties":{"name":"Rochdale Railway Station","network":"Manchester Metrolink","operator":"Metrolink","public_transport":"stop_position","railway":"tram_stop","shelter":"yes","tram":"yes","zone":"4"}},
{"type":"Feature","geometry":{"type":"Point","coordinates":[-2.1540887,53.610524]},"properties":{"railway":"tram_level_crossing"}},
{"type":"Feature","geometry":{"type":"Point","coordinates":[-2.1541339,53.6104692]},"properties":{"railway":"tram_level_crossing"}},
{"type":"Feature","geometry":{"type":"Point","coordinates":[-2.1121894,53.5403412]},"properties":{"name":"Oldham Central","tram":"yes","zone":"3","network":"Manchester Metrolink","railway":"tram_stop","operator":"Metrolink","public_transport":"stop_position"}},
{"type":"Feature","geometry":{"type":"Point","coordinates":[-2.1567377,53.6169791]},"properties":{"railway":"level_crossing"}},
{"type":"Feature","geometry":{"type":"Point","coordinates":[-2.155429,53.6172752]},"properties":{"name":"Rochdale Town Centre","tram":"yes","zone":"4","network":"Manchester Metrolink","railway":"tram_stop","operator":"Metrolink","public_transport":"stop_position"}},
{"type":"Feature","geometry":{"type":"Point","coordinates":[-2.155456,53.6173496]},"properties":{"name":"Rochdale Town Centre","tram":"yes","zone":"4","network":"Manchester Metrolink","railway":"tram_stop","operator":"Metrolink","public_transport":"stop_position"}},
{"type":"Feature","geometry":{"type":"Point","coordinates":[-2.2433569,53.4782055]},"properties":{"name":"St. Peter's Square","tram":"yes","zone":"1","network":"Manchester Metrolink","railway":"tram_stop","operator":"Metrolink","wheelchair":"yes","public_transport":"stop_position"}},
{"type":"Feature","geometry":{"type":"Point","coordinates":[-2.2430529,53.478219]},"properties":{"name":"St. Peter's Square","tram":"yes","zone":"1","network":"Manchester Metrolink","railway":"tram_stop","operator":"Metrolink","wheelchair":"yes","public_transport":"stop_position"}},
{"type":"Feature","geometry":{"type":"Point","coordinates":[-2.2431051,53.4782472]},"properties":{"name":"St. Peter's Square","tram":"yes","zone":"1","network":"Manchester Metrolink","railway":"tram_stop","operator":"Metrolink","wheelchair":"yes","public_transport":"stop_position"}},
{"type":"Feature","geometry":{"type":"Point","coordinates":[-2.2390989,53.4852867]},"properties":{"name":"Shudehill","tram":"yes","zone":"1","railway":"tram_stop","operator":"Metrolink","wheelchair":"yes","public_transport":"stop_position"}},
{"type":"Feature","geometry":{"type":"Point","coordinates":[-2.2945382,53.4011319]},"properties":{"railway":"tram_crossing"}},
{"type":"Feature","geometry":{"type":"Point","coordinates":[-2.2944715,53.401304]},"properties":{"railway":"tram_level_crossing"}},
{"type":"Feature","geometry":{"type":"Point","coordinates":[-2.2944287,53.4010499]},"properties":{"railway":"tram_level_crossing"}},
{"type":"Feature","geometry":{"type":"Point","coordinates":[-2.2945317,53.4012196]},"properties":{"railway":"tram_level_crossing"}},
{"type":"Feature","geometry":{"type":"Point","coordinates":[-2.2947094,53.4008189]},"properties":{"railway":"tram_crossing"}},
{"type":"Feature","geometry":{"type":"Point","coordinates":[-2.2944488,53.4009146]},"properties":{"railway":"tram_level_crossing"}},
{"type":"Feature","geometry":{"type":"Point","coordinates":[-2.2944877,53.4007206]},"properties":{"railway":"tram_level_crossing"}},
{"type":"Feature","geometry":{"type":"Point","coordinates":[-2.2946064,53.4009683]},"properties":{"railway":"tram_level_crossing"}},
{"type":"Feature","geometry":{"type":"Point","coordinates":[-2.294654,53.4008963]},"properties":{"railway":"tram_level_crossing"}},
{"type":"Feature","geometry":{"type":"Point","coordinates":[-2.2944363,53.4009922]},"properties":{"railway":"tram_level_crossing"}},
{"type":"Feature","geometry":{"type":"Point","coordinates":[-2.29445,53.4008897]},"properties":{"railway":"tram_level_crossing"}},
{"type":"Feature","geometry":{"type":"Point","coordinates":[-2.2945598,53.4010525]},"properties":{"railway":"tram_level_crossing"}},
{"type":"Feature","geometry":{"type":"Point","coordinates":[-2.2947762,53.4006705]},"properties":{"railway":"tram_level_crossing"}},
{"type":"Feature","geometry":{"type":"Point","coordinates":[-2.1309906,53.4782398]},"properties":{"name":"Audenshaw","tram":"yes","zone":"3","railway":"tram_stop","operator":"Metrolink","public_transport":"stop_position"}},
{"type":"Feature","geometry":{"type":"Point","coordinates":[-2.1550084,53.4798903]},"properties":{"name":"Cemetery Road","tram":"yes","zone":"3","railway":"tram_stop","operator":"Metrolink","start_date":"2012","public_transport":"stop_position"}},
{"type":"Feature","geometry":{"type":"Point","coordinates":[-2.1652709,53.4809244]},"properties":{"name":"Edge Lane","tram":"yes","zone":"2&3","railway":"tram_stop","operator":"Metrolink","start_date":"2012","public_transport":"stop_position"}},
{"type":"Feature","geometry":{"type":"Point","coordinates":[-2.1652786,53.4808576]},"properties":{"name":"Edge Lane","tram":"yes","zone":"2&3","railway":"tram_stop","operator":"Metrolink","start_date":"2012","public_transport":"stop_position"}},
{"type":"Feature","geometry":{"type":"Point","coordinates":[-2.182324,53.4827942]},"properties":{"name":"Clayton Hall","tram":"yes","zone":"2","railway":"tram_stop","operator":"Metrolink","start_date":"2012","public_transport":"stop_position"}},
{"type":"Feature","geometry":{"type":"Point","coordinates":[-2.1929896,53.4822661]},"properties":{"name":"Velopark","tram":"yes","zone":"2","railway":"tram_stop","operator":"Metrolink","start_date":"2012","public_transport":"stop_position"}},
{"type":"Feature","geometry":{"type":"Point","coordinates":[-2.2120261,53.4832849]},"properties":{"name":"Holt Town","tram":"yes","zone":"2","railway":"tram_stop","operator":"Metrolink","public_transport":"stop_position"}},
{"type":"Feature","geometry":{"type":"Point","coordinates":[-2.2370562,53.4802654]},"properties":{"name":"Piccadilly Gardens","tram":"yes","zone":"1","railway":"tram_stop","operator":"Metrolink","wheelchair":"yes","public_transport":"stop_position"}},
{"type":"Feature","geometry":{"type":"Point","coordinates":[-2.2824328,53.4672479]},"properties":{"railway":"crossing"}},
{"type":"Feature","geometry":{"type":"Point","coordinates":[-2.2824822,53.4672522]},"properties":{"railway":"crossing"}},
{"type":"Feature","geometry":{"type":"Point","coordinates":[-2.2971618,53.4721716]},"properties":{"name":"MediaCityUK","tram":"yes","zone":"2","railway":"tram_stop","operator":"Metrolink","wheelchair":"yes","public_transport":"stop_position"}},
{"type":"Feature","geometry":{"type":"Point","coordinates":[-2.2946583,53.4744049]},"properties":{"railway":"crossing"}},
{"type":"Feature","geometry":{"type":"Point","coordinates":[-2.1514824,53.4797188]},"properties":{"railway":"level_crossing"}},
{"type":"Feature","geometry":{"type":"Point","coordinates":[-2.2427888,53.4786432]},"properties":{"railway":"crossing"}},
{"type":"Feature","geometry":{"type":"Point","coordinates":[-2.2957837,53.4725839]},"properties":{"railway":"crossing"}},
{"type":"Feature","geometry":{"type":"Point","coordinates":[-2.2964082,53.4723497]},"properties":{"railway":"crossing"}},
{"type":"Feature","geometry":{"type":"Point","coordinates":[-2.2963857,53.4723199]},"properties":{"railway":"crossing"}},
{"type":"Feature","geometry":{"type":"Point","coordinates":[-2.2822651,53.4665227]},"properties":{"railway":"level_crossing"}},
{"type":"Feature","geometry":{"type":"Point","coordinates":[-2.2505535,53.5327395]},"properties":{"railway":"level_crossing"}},
{"type":"Feature","geometry":{"type":"Point","coordinates":[-2.2506878,53.5327982]},"properties":{"railway":"level_crossing"}},
{"type":"Feature","geometry":{"type":"Point","coordinates":[-2.24445,53.4798442]},"properties":{"railway":"level_crossing"}},
{"type":"Feature","geometry":{"type":"Point","coordinates":[-2.2444702,53.4819058]},"properties":{"railway":"level_crossing"}},
{"type":"Feature","geometry":{"type":"Point","coordinates":[-2.2449621,53.4806728]},"properties":{"railway":"level_crossing"}},
{"type":"Feature","geometry":{"type":"Point","coordinates":[-2.2450031,53.4805175]},"properties":{"railway":"level_crossing"}},
{"type":"Feature","geometry":{"type":"Point","coordinates":[-2.2451383,53.4802221]},"properties":{"railway":"level_crossing"}},
{"type":"Feature","geometry":{"type":"Point","coordinates":[-2.2436869,53.4830045]},"properties":{"railway":"crossing"}},
{"type":"Feature","geometry":{"type":"Point","coordinates":[-2.2446676,53.4817102]},"properties":{"railway":"level_crossing"}},
{"type":"Feature","geometry":{"type":"Point","coordinates":[-2.2449841,53.4807963]},"properties":{"railway":"level_crossing"}},
{"type":"Feature","geometry":{"type":"Point","coordinates":[-2.2437386,53.4830158]},"properties":{"railway":"level_crossing"}},
{"type":"Feature","geometry":{"type":"Point","coordinates":[-2.2944715,53.4007932]},"properties":{"railway":"tram_level_crossing"}},
{"type":"Feature","geometry":{"type":"Point","coordinates":[-2.2944635,53.400829]},"properties":{"railway":"tram_crossing"}},
{"type":"Feature","geometry":{"type":"Point","coordinates":[-2.2144943,53.4824818]},"properties":{"railway":"crossing"}},
{"type":"Feature","geometry":{"type":"Point","coordinates":[-2.2168763,53.482098]},"properties":{"railway":"level_crossing"}},
{"type":"Feature","geometry":{"type":"Point","coordinates":[-2.2167959,53.4821787]},"properties":{"railway":"level_crossing"}},
{"type":"Feature","geometry":{"type":"Point","coordinates":[-2.2433164,53.4835384]},"properties":{"railway":"crossing"}},
{"type":"Feature","geometry":{"type":"Point","coordinates":[-2.241269,53.4861798]},"properties":{"railway":"level_crossing"}},
{"type":"Feature","geometry":{"type":"Point","coordinates":[-2.2416645,53.4856044]},"properties":{"railway":"level_crossing"}},
{"type":"Feature","geometry":{"type":"Point","coordinates":[-2.2420346,53.4850992]},"properties":{"railway":"level_crossing"}},
{"type":"Feature","geometry":{"type":"Point","coordinates":[-2.2429225,53.4840407]},"properties":{"railway":"crossing"}},
{"type":"Feature","geometry":{"type":"Point","coordinates":[-2.242976,53.4839666]},"properties":{"railway":"crossing"}},
{"type":"Feature","geometry":{"type":"Point","coordinates":[-2.2423685,53.4848697]},"properties":{"railway":"crossing"}},
{"type":"Feature","geometry":{"type":"Point","coordinates":[-2.1542232,53.6152446]},"properties":{"railway":"tram_crossing"}},
{"type":"Feature","geometry":{"type":"Point","coordinates":[-2.1537868,53.614897]},"properties":{"railway":"tram_level_crossing"}},
{"type":"Feature","geometry":{"type":"Point","coordinates":[-2.3024411,53.4815592]},"properties":{"railway":"crossing"}},
{"type":"Feature","geometry":{"type":"Point","coordinates":[-2.3024289,53.4815936]},"properties":{"railway":"crossing"}},
{"type":"Feature","geometry":{"type":"Point","coordinates":[-2.1551067,53.6160043]},"properties":{"railway":"tram_crossing"}},
{"type":"Feature","geometry":{"type":"Point","coordinates":[-2.1544263,53.6153587]},"properties":{"railway":"tram_crossing"}},
{"type":"Feature","geometry":{"type":"Point","coordinates":[-2.1547086,53.6131399]},"properties":{"railway":"tram_crossing"}},
{"type":"Feature","geometry":{"type":"Point","coordinates":[-2.1547499,53.6131593]},"properties":{"railway":"tram_crossing"}},
{"type":"Feature","geometry":{"type":"Point","coordinates":[-2.283363,53.4693859]},"properties":{"railway":"crossing"}},
{"type":"Feature","geometry":{"type":"Point","coordinates":[-2.2833501,53.4694221]},"properties":{"railway":"crossing"}},
{"type":"Feature","geometry":{"type":"Point","coordinates":[-2.2828704,53.4693498]},"properties":{"railway":"crossing"}},
{"type":"Feature","geometry":{"type":"Point","coordinates":[-2.2828712,53.4693122]},"properties":{"railway":"crossing"}},
{"type":"Feature","geometry":{"type":"Point","coordinates":[-2.282174,53.4682502]},"properties":{"railway":"crossing"}},
{"type":"Feature","geometry":{"type":"Point","coordinates":[-2.2822329,53.4682565]},"properties":{"railway":"crossing"}},
{"type":"Feature","geometry":{"type":"Point","coordinates":[-2.2830587,53.4693383]},"properties":{"railway":"level_crossing"}},
{"type":"Feature","geometry":{"type":"Point","coordinates":[-2.2830245,53.4693709]},"properties":{"railway":"level_crossing"}},
{"type":"Feature","geometry":{"type":"Point","coordinates":[-2.0990943,53.4902619]},"properties":{"railway":"tram_crossing"}},
{"type":"Feature","geometry":{"type":"Point","coordinates":[-2.0991077,53.4903162]},"properties":{"railway":"tram_crossing"}},
{"type":"Feature","geometry":{"type":"Point","coordinates":[-2.1012406,53.490156]},"properties":{"railway":"tram_crossing"}},
{"type":"Feature","geometry":{"type":"Point","coordinates":[-2.1547097,53.6120324]},"properties":{"railway":"tram_level_crossing"}},
{"type":"Feature","geometry":{"type":"Point","coordinates":[-2.1547413,53.6121959]},"properties":{"railway":"tram_level_crossing"}},
{"type":"Feature","geometry":{"type":"Point","coordinates":[-2.1547588,53.6120344]},"properties":{"railway":"tram_level_crossing"}},
{"type":"Feature","geometry":{"type":"Point","coordinates":[-2.1547836,53.6121829]},"properties":{"railway":"tram_level_crossing"}},
{"type":"Feature","geometry":{"type":"Point","coordinates":[-2.1547975,53.6125584]},"properties":{"railway":"tram_crossing"}},
{"type":"Feature","geometry":{"type":"LineString","coordinates":[[-2.2382517,53.4818141],[-2.2381708,53.4817807],[-2.2381197,53.4817493],[-2.2380781,53.4817156],[-2.2380567,53.4816924],[-2.2380387,53.4816673],[-2.2380278,53.4816431],[-2.2380214,53.4816186],[-2.2380183,53.4815809],[-2.2380236,53.4815566],[-2.2380395,53.4815198],[-2.2380607,53.4814935],[-2.238089,53.4814629],[-2.2381386,53.4814292],[-2.2383264,53.4813005],[-2.2384435,53.4812203],[-2.2384636,53.4812085],[-2.2385399,53.4811636],[-2.2387146,53.4810544],[-2.2387521,53.4810272],[-2.2388236,53.4809743],[-2.2388743,53.4809406]]},"properties":{"gauge":"1435","oneway":"yes","railway":"tram","voltage":"750","frequency":"0","electrified":"contact_line"}},
{"type":"Feature","geometry":{"type":"LineString","coordinates":[[-2.2791975,53.4649841],[-2.2790072,53.4650216],[-2.2786458,53.4651008]]},"properties":{"name":"Metrolink","gauge":"1435","layer":"1","bridge":"yes","oneway":"yes","railway":"tram","voltage":"750","frequency":"0","electrified":"contact_line"}},
{"type":"Feature","geometry":{"type":"LineString","coordinates":[[-2.3299631,53.483902],[-2.3295216,53.4839508],[-2.3293915,53.4839591],[-2.3288006,53.4839968],[-2.3282427,53.484007],[-2.3276861,53.4840033],[-2.3274162,53.4840011],[-2.3272749,53.4840015]]},"properties":{"name":"Metrolink","gauge":"1435","oneway":"yes","railway":"tram","voltage":"750","frequency":"0","electrified":"contact_line"}},
{"type":"Feature","geometry":{"type":"LineString","coordinates":[[-2.3332257,53.4832689],[-2.3334243,53.4832315],[-2.3338848,53.4831537]]},"properties":{"name":"Metrolink","gauge":"1435","usage":"branch","railway":"tram","voltage":"750","frequency":"0","electrified":"contact_line"}},
{"type":"Feature","geometry":{"type":"LineString","coordinates":[[-2.33186,53.4835694],[-2.331221,53.4837057],[-2.3305773,53.4838231],[-2.3299631,53.483902]]},"properties":{"gauge":"1435","layer":"-1","oneway":"yes","tunnel":"yes","railway":"tram","voltage":"750","frequency":"0","electrified":"contact_line"}},
{"type":"Feature","geometry":{"type":"LineString","coordinates":[[-2.2387012,53.4848238],[-2.2387622,53.4849131],[-2.2388356,53.4849962],[-2.2391028,53.4852432],[-2.2393717,53.4854926],[-2.2395725,53.4856731],[-2.239634,53.4857321],[-2.2396959,53.4857817],[-2.2398045,53.4858388],[-2.2399368,53.4858779],[-2.2402283,53.4859598],[-2.2403826,53.4860045],[-2.2407845,53.4861141],[-2.2409254,53.486167],[-2.2410383,53.4862095],[-2.2411106,53.4862452],[-2.2411856,53.4862924],[-2.2412424,53.4863422],[-2.2412688,53.4863816],[-2.2412902,53.4864448],[-2.2413616,53.4866313],[-2.2413895,53.4866988],[-2.2414665,53.4867899],[-2.2415383,53.4868572]]},"properties":{"gauge":"1435","level":"-0.5","oneway":"yes","railway":"tram","voltage":"750","frequency":"0","electrified":"contact_line"}},
{"type":"Feature","geometry":{"type":"LineString","coordinates":[[-2.2383588,53.4813541],[-2.238277,53.4814033],[-2.2382113,53.4814518],[-2.2381826,53.4814845],[-2.2381702,53.4815106],[-2.2381659,53.4815379],[-2.2381649,53.4815799],[-2.2381797,53.4816278],[-2.2381964,53.4816547],[-2.2382156,53.4816764],[-2.2382485,53.4816992],[-2.2382781,53.4817178],[-2.2383131,53.4817359],[-2.2383728,53.481758],[-2.2389248,53.4819132],[-2.2392373,53.4819991],[-2.2393319,53.4820328],[-2.2393905,53.4820658],[-2.2394506,53.482111],[-2.2394805,53.4821488],[-2.2394983,53.4821831],[-2.2395007,53.4822231],[-2.2394891,53.4822612],[-2.2394653,53.4823288]]},"properties":{"gauge":"1435","oneway":"yes","railway":"tram","voltage":"750","maxspeed":"10 mph","frequency":"0","electrified":"contact_line"}},
{"type":"Feature","geometry":{"type":"LineString","coordinates":[[-2.2397964,53.4804172],[-2.2396678,53.480476],[-2.2394336,53.4806192],[-2.2390342,53.4808941],[-2.2389445,53.4809559]]},"properties":{"name":"Metrolink","gauge":"1435","oneway":"yes","railway":"tram","voltage":"750","frequency":"0","electrified":"contact_line"}},
{"type":"Feature","geometry":{"type":"LineString","coordinates":[[-2.2389445,53.4809559],[-2.238858,53.4809984],[-2.238812,53.4810119],[-2.2387632,53.4810254],[-2.2387521,53.4810272],[-2.2387159,53.4810312],[-2.2386654,53.4810373],[-2.2386088,53.4810393],[-2.238546,53.4810366],[-2.2384949,53.4810301],[-2.2384279,53.4810179],[-2.2383857,53.4810053],[-2.2383755,53.4810026],[-2.2383306,53.4809884],[-2.2382617,53.4809632],[-2.2382092,53.4809396],[-2.2381429,53.4809014],[-2.238013,53.4808192],[-2.237784,53.4806993],[-2.2376419,53.4806248],[-2.2375816,53.4805983],[-2.2375204,53.4805742],[-2.2372954,53.4804834]]},"properties":{"gauge":"1435","oneway":"yes","railway":"tram","voltage":"750","frequency":"0","electrified":"contact_line"}},
{"type":"Feature","geometry":{"type":"LineString","coordinates":[[-2.2382875,53.4809308],[-2.2383461,53.4809715],[-2.2383857,53.4810053],[-2.2384074,53.4810259],[-2.238441,53.4810681],[-2.2384559,53.4810985],[-2.2384666,53.4811222],[-2.2384696,53.4811389],[-2.2384692,53.4811652],[-2.2384636,53.4812085],[-2.2384468,53.4812506],[-2.2384157,53.4812998],[-2.2383838,53.4813302],[-2.2383588,53.4813541]]},"properties":{"gauge":"1435","oneway":"yes","railway":"tram","voltage":"750","frequency":"0","electrified":"contact_line"}},
{"type":"Feature","geometry":{"type":"LineString","coordinates":[[-2.2382517,53.4818141],[-2.2381002,53.4817702],[-2.2378977,53.4817108],[-2.2378537,53.4816946],[-2.237816,53.4816761],[-2.2377999,53.481666],[-2.2377705,53.4816409],[-2.2377493,53.4816198],[-2.237728,53.4815956],[-2.2377086,53.4815651],[-2.237698,53.4815293],[-2.2376962,53.4814977],[-2.2377086,53.4814534],[-2.237736,53.4814106],[-2.2380125,53.4811289],[-2.2380345,53.48109],[-2.2380514,53.4810426],[-2.2380561,53.4810054],[-2.2380439,53.4809693],[-2.2380211,53.4809264],[-2.2379538,53.4808694],[-2.23782,53.4807811],[-2.2374818,53.4806028],[-2.2372954,53.4804834]]},"properties":{"gauge":"1435","oneway":"yes","railway":"tram","voltage":"750","maxspeed":"10 mph","frequency":"0","electrified":"contact_line"}},
{"type":"Feature","geometry":{"type":"LineString","coordinates":[[-2.3263952,53.483997],[-2.325891,53.4839968],[-2.3258665,53.4839995],[-2.3257536,53.4840121],[-2.3255378,53.4840709],[-2.3254966,53.4840857],[-2.3254378,53.4841041],[-2.3253807,53.4841175],[-2.3253597,53.4841219],[-2.3253235,53.4841308],[-2.325268,53.4841441],[-2.325206,53.4841486],[-2.3251153,53.4841489],[-2.3246442,53.4841344],[-2.3239042,53.484094],[-2.323297,53.4840593],[-2.3227577,53.4840408],[-2.3222203,53.4840275],[-2.321943,53.4840268],[-2.3214577,53.4840236],[-2.3209153,53.484013],[-2.3208291,53.4840115],[-2.3199292,53.4839774],[-2.3197705,53.4839658],[-2.3191067,53.4838945],[-2.3184558,53.4838194],[-2.3179103,53.4837699],[-2.317596,53.4837452],[-2.3173953,53.483723],[-2.3168577,53.4836556],[-2.3166425,53.4836297],[-2.3163173,53.4835871]]},"properties":{"name":"Metrolink","gauge":"1435","oneway":"yes","railway":"tram","voltage":"750","frequency":"0","electrified":"contact_line"}},
{"type":"Feature","geometry":{"type":"LineString","coordinates":[[-2.2453865,53.5318869],[-2.2454148,53.5318983],[-2.2454523,53.5319092],[-2.245502,53.531916],[-2.2455609,53.5319187],[-2.2457628,53.531925],[-2.2463606,53.5319435],[-2.2487858,53.5320184],[-2.2489429,53.5320232],[-2.2493528,53.5320359],[-2.2495842,53.5320443],[-2.2497055,53.532061],[-2.2497932,53.5320874],[-2.2498546,53.5321246],[-2.2499352,53.5321731],[-2.250029,53.532251],[-2.2503771,53.5326054],[-2.2504611,53.5326796],[-2.2505535,53.5327395],[-2.2505853,53.5327601],[-2.250659,53.5327895],[-2.2506878,53.5327982],[-2.2507453,53.5328155],[-2.2508946,53.5328441],[-2.2510063,53.5328568],[-2.2511637,53.5328694],[-2.2512796,53.532874],[-2.251539,53.5328739],[-2.2518068,53.5328602],[-2.2520106,53.5328404],[-2.2522413,53.5328102],[-2.2524737,53.5327679],[-2.2528902,53.5326857],[-2.2530688,53.532653],[-2.2531162,53.5326447],[-2.2532239,53.5326264],[-2.2537237,53.5325539],[-2.2538272,53.532549],[-2.2539693,53.5325522],[-2.2540734,53.5325499],[-2.254172,53.5325418],[-2.2543047,53.5325178],[-2.2544849,53.5324735],[-2.2553002,53.5321964],[-2.2553974,53.5321612],[-2.2556114,53.5320839],[-2.2557196,53.5320516],[-2.2557858,53.532038],[-2.2558576,53.5320275],[-2.2559188,53.5320244],[-2.2559773,53.5320237],[-2.2561012,53.5320243],[-2.2561447,53.5320225],[-2.2561849,53.5320164],[-2.2562261,53.5320055],[-2.2562761,53.5319857],[-2.2563119,53.5319636],[-2.2563988,53.5318644],[-2.2565262,53.5317036]]},"properties":{"name":"Heaton Park Tramway","usage":"tourism","railway":"tram","voltage":"650","frequency":"0","electrified":"contact_line","opening_hours":"Jun-Aug Su,PH 12:00-17:00; Dec-Feb Su,PH 12:00-16:00"}},
{"type":"Feature","geometry":{"type":"LineString","coordinates":[[-2.2360626,53.4799642],[-2.2359096,53.4799175],[-2.2357887,53.4798578],[-2.2356233,53.4797334],[-2.2353437,53.4795251],[-2.2351002,53.4793386],[-2.2348271,53.479135],[-2.2347575,53.4790824],[-2.2344248,53.4788303],[-2.2342242,53.4786781],[-2.2340627,53.4785505],[-2.2339896,53.4784883]]},"properties":{"name":"Metrolink","gauge":"1435","oneway":"yes","railway":"tram","voltage":"750","maxspeed":"30 mph","frequency":"0","electrified":"contact_line"}},
{"type":"Feature","geometry":{"type":"LineString","coordinates":[[-2.2977583,53.4720304],[-2.2976852,53.4720478],[-2.2971618,53.4721716],[-2.2964082,53.4723497],[-2.2962489,53.4723874],[-2.2961926,53.4724008],[-2.2961283,53.4724172],[-2.2960733,53.472433]]},"properties":{"name":"Metrolink","gauge":"1435","railway":"tram","voltage":"750","frequency":"0","electrified":"contact_line"}},
{"type":"Feature","geometry":{"type":"LineString","coordinates":[[-2.2943751,53.4733848],[-2.2942856,53.4734342],[-2.2942533,53.473457],[-2.2942172,53.4734908],[-2.2941734,53.4735493],[-2.294148,53.473623],[-2.2941489,53.4736853],[-2.2941527,53.4737262],[-2.294182,53.4738437],[-2.2942032,53.4738854],[-2.2942329,53.4739326]]},"properties":{"name":"Metrolink","gauge":"1435","railway":"tram","voltage":"750","frequency":"0","electrified":"contact_line"}},
{"type":"Feature","geometry":{"type":"LineString","coordinates":[[-2.2382875,53.4809308],[-2.2383463,53.4809528],[-2.2384423,53.4809806],[-2.2385255,53.4809918],[-2.2385977,53.4809931],[-2.2386585,53.4809893],[-2.2387203,53.4809816],[-2.2387459,53.4809792],[-2.2387887,53.4809706],[-2.2388743,53.4809406]]},"properties":{"gauge":"1435","oneway":"yes","railway":"tram","voltage":"750","frequency":"0","electrified":"contact_line"}},
{"type":"Feature","geometry":{"type":"LineString","coordinates":[[-2.2497789,53.5322448],[-2.2492453,53.532229]]},"properties":{"name":"Heaton Park Tramway","usage":"tourism","covered":"yes","railway":"tram","service":"siding","voltage":"650","frequency":"0","electrified":"contact_line"}},
{"type":"Feature","geometry":{"type":"LineString","coordinates":[[-2.2635453,53.4380484],[-2.2632909,53.4379205],[-2.2630582,53.4377804],[-2.2629204,53.4376702],[-2.2628293,53.4375815],[-2.2627539,53.4374934],[-2.2626972,53.4374019],[-2.2626603,53.4373076],[-2.262646,53.4372262],[-2.2626515,53.4371322]]},"properties":{"name":"Metrolink","gauge":"1435","oneway":"yes","railway":"tram","voltage":"750","frequency":"0","electrified":"contact_line"}},
{"type":"Feature","geometry":{"type":"LineString","coordinates":[[-2.1556651,53.6163045],[-2.1557938,53.6163705],[-2.1560367,53.6164867],[-2.1562772,53.6166155],[-2.1564307,53.6167138],[-2.1566262,53.616836],[-2.1566822,53.6168876],[-2.1567194,53.6169354],[-2.1567377,53.6169791],[-2.1567311,53.6170311],[-2.156718,53.6170629],[-2.1566717,53.6171196],[-2.1566201,53.6171559],[-2.1565469,53.6171888],[-2.1564548,53.6172174],[-2.1563661,53.6172331]]},"properties":{"gauge":"1435","tracks":"1","railway":"tram","voltage":"750","operator":"Metrolink","frequency":"0","electrified":"contact_line"}},
{"type":"Feature","geometry":{"type":"LineString","coordinates":[[-2.0975737,53.4903343],[-2.0980678,53.4903037]]},"properties":{"railway":"tram","voltage":"750","maxspeed":"15 mph","frequency":"0","electrified":"contact_line"}},
{"type":"Feature","geometry":{"type":"LineString","coordinates":[[-2.2316486,53.4772372],[-2.2318073,53.4772788],[-2.2319671,53.4773424],[-2.2320557,53.4773872],[-2.2321538,53.4774614],[-2.2321883,53.4775027],[-2.232197,53.4775131],[-2.2322525,53.4775948],[-2.2323388,53.4777308],[-2.2324554,53.4779155],[-2.2324885,53.4779559],[-2.2325443,53.4780139],[-2.2326193,53.4780619],[-2.2326974,53.4780916],[-2.2327788,53.4781102],[-2.2336586,53.4782981],[-2.2337514,53.4783178],[-2.2337847,53.4783291],[-2.2338355,53.4783464],[-2.2339087,53.4783746]]},"properties":{"gauge":"1435","oneway":"yes","railway":"tram","voltage":"750","maxspeed":"10 mph","frequency":"0","electrified":"contact_line"}},
{"type":"Feature","geometry":{"type":"LineString","coordinates":[[-2.2960733,53.472433],[-2.2961796,53.4723831],[-2.2962406,53.4723607],[-2.2963087,53.4723397],[-2.2963857,53.4723199],[-2.2964017,53.4723158],[-2.2971436,53.4721415]]},"properties":{"name":"Metrolink","gauge":"1435","railway":"tram","voltage":"750","frequency":"0","electrified":"contact_line"}},
{"type":"Feature","geometry":{"type":"LineString","coordinates":[[-2.1637067,53.4806974],[-2.1639071,53.4807172],[-2.1640463,53.4807343],[-2.1641166,53.4807434],[-2.1642195,53.4807594],[-2.1643387,53.480778],[-2.1645295,53.480801],[-2.1652786,53.4808576],[-2.1659737,53.4809101],[-2.1659912,53.4809114],[-2.1665222,53.4809515],[-2.1665879,53.4809565]]},"properties":{"gauge":"1435","oneway":"yes","railway":"tram","voltage":"750","maxspeed":"15 mph","frequency":"0","electrified":"contact_line"}},
{"type":"Feature","geometry":{"type":"LineString","coordinates":[[-2.1668711,53.4810058],[-2.1667313,53.4810077],[-2.1666127,53.481007],[-2.1665247,53.4810052],[-2.1664845,53.481004],[-2.1662802,53.4809977],[-2.165979,53.4809756],[-2.1652709,53.4809244],[-2.1645175,53.4808682],[-2.1645033,53.4808672],[-2.1643431,53.4808472],[-2.1641956,53.4808233],[-2.164067,53.4807945],[-2.1640251,53.480785],[-2.1639071,53.4807634],[-2.1637036,53.4807375]]},"properties":{"gauge":"1435","oneway":"yes","railway":"tram","voltage":"750","maxspeed":"15 mph","frequency":"0","electrified":"contact_line"}},
{"type":"Feature","geometry":{"type":"LineString","coordinates":[[-2.1892845,53.4831302],[-2.1899553,53.4829793],[-2.1904572,53.4828688],[-2.1910695,53.4827222],[-2.1913345,53.4826513],[-2.1915323,53.4825968],[-2.1919245,53.4825026],[-2.1923383,53.4824112],[-2.1925399,53.4823679],[-2.1929896,53.4822661],[-2.1935717,53.4821345],[-2.1938254,53.4820803]]},"properties":{"gauge":"1435","oneway":"yes","railway":"tram","voltage":"750","maxspeed":"30 mph","frequency":"0","electrified":"contact_line"}},
{"type":"Feature","geometry":{"type":"LineString","coordinates":[[-2.1893315,53.4831536],[-2.1890373,53.4832199],[-2.1889869,53.48323]]},"properties":{"gauge":"1435","layer":"1","bridge":"yes","oneway":"yes","tracks":"1","railway":"tram","voltage":"750","maxspeed":"30 mph","frequency":"0","electrified":"contact_line"}},
{"type":"Feature","geometry":{"type":"LineString","coordinates":[[-2.1615451,53.4805291],[-2.1631976,53.4806557],[-2.1637067,53.4806974]]},"properties":{"gauge":"1435","railway":"tram","voltage":"750","maxspeed":"30 mph","frequency":"0","electrified":"contact_line"}},
{"type":"Feature","geometry":{"type":"LineString","coordinates":[[-2.227611,53.5031576],[-2.2275123,53.502948]]},"properties":{"gauge":"1435","oneway":"yes","railway":"tram","voltage":"750","frequency":"0","electrified":"contact_line"}},
{"type":"Feature","geometry":{"type":"LineString","coordinates":[[-2.2272136,53.502488],[-2.2272731,53.5025771],[-2.2275123,53.502948]]},"properties":{"gauge":"1435","railway":"tram","voltage":"750","frequency":"0","electrified":"contact_line"}},
{"type":"Feature","geometry":{"type":"LineString","coordinates":[[-2.3071303,53.4823701],[-2.306679,53.4823002],[-2.306386,53.4822532],[-2.3061142,53.4822082],[-2.3059532,53.4821686],[-2.3058423,53.4821316],[-2.3056639,53.4820701],[-2.305608,53.4820509],[-2.305439,53.4820142],[-2.3039094,53.4817917],[-2.3032425,53.481699],[-2.3024289,53.4815936],[-2.3022339,53.4815683],[-2.300824,53.481385],[-2.2995723,53.4812251],[-2.2982483,53.4810594],[-2.2976741,53.4809885],[-2.2976004,53.480979],[-2.2975084,53.4809564],[-2.2974458,53.4809374],[-2.2974162,53.4809238],[-2.2973612,53.4809016],[-2.297318,53.4808834],[-2.2972509,53.4808551],[-2.2971431,53.480807],[-2.2971012,53.4807922],[-2.2970468,53.4807729],[-2.2969633,53.4807556],[-2.2966279,53.4807128]]},"properties":{"electrified":"contact_line","frequency":"0","gauge":"1435","name":"Metrolink","oneway":"yes","railway":"tram","voltage":"750"}},
{"type":"Feature","geometry":{"type":"LineString","coordinates":[[-2.2930577,53.4737139],[-2.2929343,53.4737434],[-2.2928394,53.4737724],[-2.2927665,53.4737953],[-2.2925947,53.4738435]]},"properties":{"name":"Metrolink","gauge":"1435","oneway":"yes","tracks":"1","railway":"tram","service":"crossover","voltage":"750","frequency":"0","electrified":"contact_line"}},
{"type":"Feature","geometry":{"type":"LineString","coordinates":[[-2.295736,53.4805962],[-2.2954702,53.4805596],[-2.2954062,53.4805497],[-2.2953433,53.4805399],[-2.2952748,53.4805222],[-2.2952117,53.4804994],[-2.2951242,53.4804556],[-2.2950777,53.4804143],[-2.2950423,53.4803656],[-2.2950115,53.4802719],[-2.295033,53.4802083],[-2.2950677,53.4801009],[-2.2952455,53.4795597]]},"properties":{"name":"Metrolink","gauge":"1435","oneway":"yes","railway":"tram","voltage":"750","frequency":"0","electrified":"contact_line"}},
{"type":"Feature","geometry":{"type":"LineString","coordinates":[[-2.3299571,53.4838768],[-2.3305874,53.4837922],[-2.3312016,53.4836773],[-2.3318397,53.48354]]},"properties":{"name":"Metrolink","gauge":"1435","layer":"-1","oneway":"yes","tunnel":"yes","railway":"tram","voltage":"750","frequency":"0","electrified":"contact_line"}},
{"type":"Feature","geometry":{"type":"LineString","coordinates":[[-2.3318397,53.48354],[-2.3321545,53.4834668],[-2.3323101,53.4834241],[-2.3324692,53.4833799],[-2.3326607,53.4833357],[-2.3328726,53.4832974],[-2.3332257,53.4832689]]},"properties":{"name":"Metrolink","gauge":"1435","oneway":"yes","railway":"tram","voltage":"750","frequency":"0","electrified":"contact_line"}},
{"type":"Feature","geometry":{"type":"LineString","coordinates":[[-2.1519783,53.6111103],[-2.1516942,53.6111568],[-2.1514955,53.6112089]]},"properties":{"gauge":"1435","tracks":"1","railway":"tram","voltage":"750","operator":"Metrolink","frequency":"0","electrified":"contact_line"}},
{"type":"Feature","geometry":{"type":"LineString","coordinates":[[-2.1521971,53.6110596],[-2.1519783,53.6111103]]},"properties":{"gauge":"1435","layer":"1","bridge":"yes","tracks":"1","railway":"tram","voltage":"750","operator":"Metrolink","frequency":"0","electrified":"contact_line"}},
{"type":"Feature","geometry":{"type":"LineString","coordinates":[[-2.1514955,53.6112089],[-2.1512409,53.6112903]]},"properties":{"gauge":"1435","layer":"1","bridge":"yes","tracks":"1","railway":"tram","voltage":"750","operator":"Metrolink","frequency":"0","electrified":"contact_line"}},
{"type":"Feature","geometry":{"type":"LineString","coordinates":[[-2.2934036,53.4736453],[-2.293516,53.4736314],[-2.2936187,53.4736304],[-2.2936867,53.4736348],[-2.2937538,53.4736427],[-2.2938115,53.4736511],[-2.2938447,53.4736593],[-2.2938745,53.4736667],[-2.2939288,53.4736832],[-2.2939856,53.4737107],[-2.2940507,53.4737456],[-2.2941011,53.47378],[-2.2941388,53.473816],[-2.2942329,53.4739326]]},"properties":{"name":"Metrolink","gauge":"1435","oneway":"yes","railway":"tram","voltage":"750","frequency":"0","electrified":"contact_line"}},
{"type":"Feature","geometry":{"type":"LineString","coordinates":[[-2.2945328,53.4743881],[-2.2945018,53.474347],[-2.2944798,53.4743033],[-2.2944369,53.4741868],[-2.2944218,53.4741506],[-2.2943838,53.4741029]]},"properties":{"name":"Metrolink","gauge":"1435","oneway":"yes","tracks":"1","railway":"tram","service":"crossover","voltage":"750","frequency":"0","electrified":"contact_line"}},
{"type":"Feature","geometry":{"type":"LineString","coordinates":[[-2.1889869,53.48323],[-2.1889433,53.4832382],[-2.1888869,53.4832402],[-2.1888048,53.4832437],[-2.1887363,53.4832357],[-2.1886648,53.4832173],[-2.1886128,53.4832011],[-2.1885584,53.4831783]]},"properties":{"gauge":"1435","oneway":"yes","tracks":"1","railway":"tram","voltage":"750","maxspeed":"5 mph","frequency":"0","electrified":"contact_line"}},
{"type":"Feature","geometry":{"type":"LineString","coordinates":[[-2.1889374,53.4832034],[-2.1889777,53.483197],[-2.1892845,53.4831302]]},"properties":{"gauge":"1435","layer":"1","bridge":"yes","oneway":"yes","railway":"tram","voltage":"750","maxspeed":"30 mph","frequency":"0","electrified":"contact_line"}},
{"type":"Feature","geometry":{"type":"LineString","coordinates":[[-2.3163073,53.4835278],[-2.3172638,53.4836505],[-2.3180198,53.4837232]]},"properties":{"name":"Metrolink","gauge":"1435","oneway":"yes","railway":"tram","voltage":"750","frequency":"0","electrified":"contact_line"}},
{"type":"Feature","geometry":{"type":"LineString","coordinates":[[-2.3154141,53.4834071],[-2.3163073,53.4835278]]},"properties":{"name":"Metrolink","gauge":"1435","layer":"1","bridge":"yes","oneway":"yes","railway":"tram","voltage":"750","frequency":"0","electrified":"contact_line"}},
{"type":"Feature","geometry":{"type":"LineString","coordinates":[[-2.1938254,53.4820803],[-2.1939847,53.4820568]]},"properties":{"gauge":"1435","oneway":"yes","railway":"tram","voltage":"750","frequency":"0","electrified":"contact_line"}},
{"type":"Feature","geometry":{"type":"LineString","coordinates":[[-2.1665879,53.4809565],[-2.1667397,53.4809758],[-2.1668816,53.4809911],[-2.1670184,53.4810071],[-2.1676343,53.481082],[-2.16805,53.4811332],[-2.1686063,53.4812019],[-2.1692344,53.481285],[-2.1698482,53.4813694],[-2.1705402,53.4814588],[-2.1714509,53.4815784],[-2.1722335,53.4816793],[-2.1722798,53.4816892],[-2.1728967,53.4817732],[-2.17335,53.4818354],[-2.174439,53.4819855],[-2.1753681,53.4821005],[-2.1757785,53.4821515],[-2.1767307,53.4822712],[-2.1773691,53.4823494],[-2.1776709,53.4823912],[-2.1779983,53.4824356],[-2.1788496,53.4825409],[-2.1795443,53.4826255],[-2.1798973,53.4826798],[-2.1804563,53.4827484]]},"properties":{"gauge":"1435","oneway":"yes","tracks":"1","railway":"tram","voltage":"750","maxspeed":"30 mph","frequency":"0","electrified":"contact_line"}},
{"type":"Feature","geometry":{"type":"LineString","coordinates":[[-2.1282639,53.4784696],[-2.1286398,53.4783101],[-2.1286605,53.4783026],[-2.1288233,53.4782432],[-2.1292413,53.4781509],[-2.1293984,53.4781324],[-2.1295126,53.4781189],[-2.1296611,53.4781102],[-2.1298132,53.4781013],[-2.1300693,53.4780965],[-2.1301426,53.478097]]},"properties":{"gauge":"1435","oneway":"yes","railway":"tram","voltage":"750","maxspeed":"20 mph","frequency":"0","electrified":"contact_line"}},
{"type":"Feature","geometry":{"type":"LineString","coordinates":[[-2.2372954,53.4804834],[-2.2372106,53.4804383],[-2.236904,53.4802768],[-2.2365961,53.4801154],[-2.2365106,53.4800718],[-2.2364173,53.4800345],[-2.2362822,53.4799984],[-2.2361718,53.4799808],[-2.2360626,53.4799642]]},"properties":{"name":"Metrolink","gauge":"1435","oneway":"yes","railway":"tram","voltage":"750","maxspeed":"10 mph","frequency":"0","electrified":"contact_line"}},
{"type":"Feature","geometry":{"type":"LineString","coordinates":[[-2.1528092,53.6108714],[-2.1530171,53.6107579],[-2.153268,53.6106441],[-2.1534706,53.6105623],[-2.1535524,53.6105292],[-2.153642,53.6104958],[-2.1537494,53.6104658],[-2.153843,53.6104486],[-2.1539426,53.6104439],[-2.154001,53.6104453],[-2.1540624,53.6104532],[-2.1541339,53.6104692],[-2.1542127,53.6104977],[-2.1542654,53.6105197],[-2.1543289,53.6105556],[-2.1543815,53.6106241],[-2.1545218,53.6110062],[-2.1546329,53.6112846]]},"properties":{"electrified":"contact_line","frequency":"0","gauge":"1435","oneway":"yes","operator":"Metrolink","railway":"tram","voltage":"750"}},
{"type":"Feature","geometry":{"type":"LineString","coordinates":[[-2.1545616,53.6114021],[-2.1543894,53.6110189],[-2.1542221,53.6106028],[-2.1542097,53.6105894],[-2.1541685,53.6105587],[-2.1540887,53.610524],[-2.1540242,53.6105062],[-2.1539597,53.6105011],[-2.1538459,53.6105041],[-2.1537304,53.610524],[-2.1536011,53.6105673],[-2.153365,53.6106601],[-2.153112,53.6107523],[-2.1528092,53.6108714]]},"properties":{"electrified":"contact_line","frequency":"0","gauge":"1435","oneway":"yes","operator":"Metrolink","railway":"tram","voltage":"750"}},
{"type":"Feature","geometry":{"type":"LineString","coordinates":[[-2.1528092,53.6108714],[-2.1526074,53.6109452],[-2.1523854,53.6110118],[-2.1521971,53.6110596]]},"properties":{"gauge":"1435","tracks":"1","railway":"tram","voltage":"750","operator":"Metrolink","frequency":"0","electrified":"contact_line"}},
{"type":"Feature","geometry":{"type":"LineString","coordinates":[[-2.2960733,53.472433],[-2.2958668,53.4725332],[-2.2958002,53.4725724],[-2.2957837,53.4725839],[-2.2957457,53.4726106],[-2.2956852,53.4726672],[-2.2956184,53.4727242],[-2.2955451,53.4727944],[-2.295468,53.4728583],[-2.295386,53.4729161],[-2.295284,53.4729793],[-2.2951387,53.4730611],[-2.2949788,53.4731438],[-2.2948388,53.4732058],[-2.2945685,53.4733091],[-2.2943751,53.4733848]]},"properties":{"name":"Metrolink","gauge":"1435","railway":"tram","voltage":"750","electrified":"contact_line"}},
{"type":"Feature","geometry":{"type":"LineString","coordinates":[[-2.1532898,53.4799108],[-2.1514784,53.4797636],[-2.1505822,53.4796912],[-2.1501095,53.4796566],[-2.149395,53.4795938],[-2.1477681,53.4794502],[-2.1474699,53.4794294],[-2.1473129,53.4794341],[-2.1466179,53.4794788],[-2.1460709,53.4795333],[-2.145743,53.4795728]]},"properties":{"gauge":"1435","railway":"tram","voltage":"750","maxspeed":"30 mph","frequency":"0","electrified":"contact_line"}},
{"type":"Feature","geometry":{"type":"LineString","coordinates":[[-2.2942329,53.4739326],[-2.2943838,53.4741029]]},"properties":{"name":"Metrolink","gauge":"1435","railway":"tram","voltage":"750","frequency":"0","electrified":"contact_line"}},
{"type":"Feature","geometry":{"type":"LineString","coordinates":[[-2.2943838,53.4741029],[-2.2946583,53.4744049],[-2.294795,53.4745582]]},"properties":{"name":"Metrolink","gauge":"1435","oneway":"yes","railway":"tram","voltage":"750","frequency":"0","electrified":"contact_line"}},
{"type":"Feature","geometry":{"type":"LineString","coordinates":[[-2.2945328,53.4743881],[-2.2941303,53.4739374],[-2.2940603,53.473868],[-2.2939925,53.4738144],[-2.2939214,53.4737729],[-2.2938466,53.4737377],[-2.2938243,53.4737315],[-2.2937677,53.4737145],[-2.2936749,53.4736962],[-2.2935884,53.4736854],[-2.293494,53.4736834],[-2.2933954,53.473691],[-2.2932866,53.4737099],[-2.2930789,53.4737466],[-2.2928816,53.4737849],[-2.2925947,53.4738435]]},"properties":{"name":"Metrolink","gauge":"1435","oneway":"yes","railway":"tram","voltage":"750","frequency":"0","electrified":"contact_line"}},
{"type":"Feature","geometry":{"type":"LineString","coordinates":[[-2.2798772,53.465514400000007],[-2.2803931,53.4658799],[-2.2807572,53.4661245],[-2.2810192,53.4663034],[-2.2810585,53.4663254],[-2.2811127,53.4663525],[-2.281158,53.4663722],[-2.2812055,53.4663874],[-2.2812769,53.4664019],[-2.2813395,53.4664093],[-2.2820824,53.4664876],[-2.2822002,53.4665068],[-2.2822651,53.4665227],[-2.2823095,53.4665336],[-2.2823905,53.4665711],[-2.2824704,53.466618],[-2.2825122,53.4666513],[-2.2825418,53.4666865],[-2.2825651,53.4667229],[-2.282584,53.466791],[-2.2825865,53.4668489],[-2.2825762,53.4669069],[-2.2825095,53.4671495],[-2.2824822,53.4672522],[-2.2824391,53.4674126]]},"properties":{"name":"Metrolink","gauge":"1435","oneway":"yes","railway":"tram","voltage":"750","frequency":"0","electrified":"contact_line"}},
{"type":"Feature","geometry":{"type":"LineString","coordinates":[[-2.2630108,53.5079611],[-2.2629864,53.5080374]]},"properties":{"source":"Bing","railway":"tram","source:1":"http://www.flickr.com/photos/ingythewingy/sets/72157627125583105/detail/"}},
{"type":"Feature","geometry":{"type":"LineString","coordinates":[[-2.1556651,53.6163045],[-2.155416,53.6162167],[-2.1553669,53.6162015],[-2.1552035,53.6161211],[-2.1550797,53.6160505],[-2.154956,53.615948],[-2.1548042,53.6157998],[-2.1546641,53.6156613],[-2.1543629,53.6153662],[-2.1542602,53.6152748],[-2.1542232,53.6152446],[-2.1541924,53.6152194],[-2.1540243,53.6151003],[-2.1538259,53.6149396],[-2.1537868,53.614897],[-2.1537395,53.6148454],[-2.1536717,53.614754],[-2.153618,53.6146695],[-2.153576,53.6145836],[-2.1535312,53.6144546],[-2.1535305,53.6143511],[-2.1535467,53.6142284],[-2.1535704,53.6141457],[-2.1536324,53.6140262],[-2.1536851,53.6139447],[-2.1537709,53.6138346],[-2.1538695,53.6137366],[-2.1539981,53.6136396],[-2.1541183,53.6135588],[-2.1542687,53.613456],[-2.1544762,53.6133155],[-2.1546192,53.613207],[-2.1547086,53.6131399],[-2.1547309,53.6131231],[-2.1547892,53.6130643],[-2.1548275,53.6130254],[-2.1548647,53.6129704],[-2.1548654,53.6129147],[-2.1548644,53.6128349],[-2.1548404,53.6127427],[-2.1548208,53.6126498],[-2.1548002,53.6125826],[-2.1547975,53.6125584],[-2.1547875,53.6124685],[-2.1547577,53.6122857],[-2.1547413,53.6121959],[-2.1547269,53.6121174],[-2.1547097,53.6120324],[-2.1546938,53.6119542],[-2.1546528,53.611737],[-2.1546018,53.6115468],[-2.1545616,53.6114021]]},"properties":{"electrified":"contact_line","frequency":"0","gauge":"1435","oneway":"yes","operator":"Metrolink","railway":"tram","voltage":"750"}},
{"type":"Feature","geometry":{"type":"LineString","coordinates":[[-2.1549599,53.6173361],[-2.155429,53.6172752]]},"properties":{"gauge":"1435","railway":"tram","voltage":"750","operator":"Metrolink","frequency":"0","electrified":"contact_line"}},
{"type":"Feature","geometry":{"type":"LineString","coordinates":[[-2.2856902,53.4735015],[-2.2856416,53.4732296],[-2.2856373,53.4731936],[-2.2856373,53.4731635],[-2.2856374,53.4731351],[-2.2856418,53.47311],[-2.2856449,53.4730866],[-2.2856565,53.4730566],[-2.2856681,53.473032],[-2.2857096,53.4729594],[-2.285772,53.4728737],[-2.2858067,53.472822],[-2.2858268,53.4727924],[-2.2858449,53.4727649],[-2.2858585,53.4727355],[-2.2858685,53.4727091],[-2.2858744,53.4726794],[-2.2858803,53.4726468],[-2.2858813,53.4726066],[-2.2858739,53.4725711],[-2.2858604,53.4725321],[-2.2858403,53.4724992],[-2.285818,53.4724705],[-2.2857887,53.4724415],[-2.2857543,53.4724153],[-2.2857234,53.4723928],[-2.2856742,53.4723661],[-2.2856271,53.4723432],[-2.2855525,53.4723159],[-2.2855032,53.4723018],[-2.2854652,53.4722928],[-2.2852754,53.4722543],[-2.2850912,53.4722183],[-2.2849776,53.4721936],[-2.2849293,53.4721813],[-2.2848896,53.4721678],[-2.2848556,53.4721551]]},"properties":{"name":"Metrolink","gauge":"1435","layer":"1","bridge":"yes","oneway":"yes","railway":"tram","voltage":"750","frequency":"0","electrified":"contact_line"}},
{"type":"Feature","geometry":{"type":"LineString","coordinates":[[-2.2848556,53.4721551],[-2.2847957,53.4721313],[-2.2847278,53.4720959],[-2.2846854,53.4720673],[-2.2846285,53.4720178],[-2.2845864,53.4719743],[-2.2845657,53.4719512],[-2.2845393,53.4719231],[-2.2844949,53.4718761],[-2.2844261,53.47177],[-2.284021,53.4711043],[-2.2839865,53.4710439],[-2.2839656,53.4710055],[-2.2839349,53.4709493],[-2.2838961,53.4708583],[-2.2838758,53.4707894],[-2.2838711,53.4707253],[-2.2838827,53.4706592],[-2.2839032,53.470573]]},"properties":{"name":"Metrolink","gauge":"1435","oneway":"yes","railway":"tram","voltage":"750","frequency":"0","electrified":"contact_line"}},
{"type":"Feature","geometry":{"type":"LineString","coordinates":[[-2.2848768,53.4721177],[-2.2849285,53.4721388],[-2.2849943,53.47216],[-2.2851067,53.4721866],[-2.2854575,53.4722568],[-2.28554,53.4722733],[-2.2856107,53.4722955],[-2.2856754,53.4723208],[-2.285737,53.4723505],[-2.2857873,53.4723814],[-2.2858248,53.4724085],[-2.2858569,53.4724373],[-2.285888,53.4724732],[-2.2859139,53.4725156],[-2.2859322,53.4725532],[-2.2859398,53.4725914],[-2.2859422,53.4726285],[-2.2859378,53.4726629],[-2.2859303,53.4727005],[-2.2859194,53.4727351],[-2.2858882,53.4728002],[-2.2858472,53.4728592],[-2.2857813,53.4729601],[-2.2857219,53.4730496],[-2.2857048,53.4730933],[-2.2856963,53.4731308],[-2.2856943,53.4731784],[-2.2857422,53.4734963]]},"properties":{"name":"Metrolink","gauge":"1435","layer":"1","bridge":"yes","oneway":"yes","railway":"tram","voltage":"750","frequency":"0","electrified":"contact_line"}},
{"type":"Feature","geometry":{"type":"LineString","coordinates":[[-2.2857422,53.4734963],[-2.285804,53.4738808],[-2.2858108,53.4739238],[-2.285824,53.4739579],[-2.2858512,53.4740111],[-2.2858803,53.4740584],[-2.2858954,53.4740792]]},"properties":{"name":"Metrolink","gauge":"1435","oneway":"yes","railway":"tram","voltage":"750","frequency":"0","electrified":"contact_line"}},
{"type":"Feature","geometry":{"type":"LineString","coordinates":[[-2.1003277,53.4902023],[-2.1000064,53.4901994]]},"properties":{"oneway":"yes","railway":"tram","service":"crossover","voltage":"750","maxspeed":"5 mph","frequency":"0","electrified":"contact_line"}},
{"type":"Feature","geometry":{"type":"LineString","coordinates":[[-2.0995949,53.4902732],[-2.099856,53.4902152]]},"properties":{"oneway":"yes","railway":"tram","service":"crossover","voltage":"750","maxspeed":"5 mph","frequency":"0","electrified":"contact_line"}},
{"type":"Feature","geometry":{"type":"LineString","coordinates":[[-2.143578,53.4793302],[-2.1438928,53.4793709],[-2.1441737,53.4793986],[-2.1446443,53.4794432],[-2.1454072,53.4795143],[-2.1455517,53.4795224],[-2.1456545,53.4795195],[-2.1457352,53.4795157]]},"properties":{"gauge":"1435","oneway":"yes","tracks":"1","railway":"tram","voltage":"750","maxspeed":"10 mph","frequency":"0","electrified":"contact_line"}},
{"type":"Feature","geometry":{"type":"LineString","coordinates":[[-2.145743,53.4795728],[-2.1456079,53.4795842],[-2.1455344,53.4795854],[-2.1454754,53.4795832],[-2.1449881,53.4795368],[-2.144158,53.4794589],[-2.1440106,53.4794403],[-2.1437076,53.4793887]]},"properties":{"gauge":"1435","oneway":"yes","tracks":"1","railway":"tram","voltage":"750","maxspeed":"10 mph","frequency":"0","electrified":"contact_line"}},
{"type":"Feature","geometry":{"type":"LineString","coordinates":[[-2.1301426,53.478097],[-2.1302228,53.4781014],[-2.1310087,53.4781712],[-2.1315422,53.4782191],[-2.131731,53.4782415],[-2.1318677,53.4782694],[-2.1319542,53.4782997],[-2.1320301,53.4783324],[-2.1321936,53.4783987],[-2.1322683,53.4784249],[-2.1323643,53.4784453],[-2.1324713,53.4784569]]},"properties":{"oneway":"yes","tracks":"2","railway":"tram","voltage":"750","maxspeed":"10 mph","frequency":"0","electrified":"contact_line"}},
{"type":"Feature","geometry":{"type":"LineString","coordinates":[[-2.2943751,53.4733848],[-2.2940902,53.4734869],[-2.2939271,53.4735383],[-2.2938185,53.4735649],[-2.2937104,53.4735889],[-2.293629,53.4736046],[-2.2934036,53.4736453]]},"properties":{"name":"Metrolink","gauge":"1435","railway":"tram","voltage":"750","electrified":"contact_line"}},
{"type":"Feature","geometry":{"type":"LineString","coordinates":[[-2.3332257,53.4832689],[-2.3325554,53.4833967],[-2.33186,53.4835694]]},"properties":{"name":"Metrolink","gauge":"1435","oneway":"yes","railway":"tram","voltage":"750","frequency":"0","electrified":"contact_line"}},
{"type":"Feature","geometry":{"type":"LineString","coordinates":[[-2.2930577,53.4737139],[-2.2934036,53.4736453]]},"properties":{"name":"Metrolink","gauge":"1435","railway":"tram","voltage":"750","frequency":"0","electrified":"contact_line"}},
{"type":"Feature","geometry":{"type":"LineString","coordinates":[[-2.2389445,53.4809559],[-2.2388283,53.4810364],[-2.2388117,53.4810484],[-2.2386061,53.4811937],[-2.2383588,53.4813541]]},"properties":{"gauge":"1435","oneway":"yes","railway":"tram","voltage":"750","frequency":"0","electrified":"contact_line"}},
{"type":"Feature","geometry":{"type":"LineString","coordinates":[[-2.2925947,53.4738435],[-2.2923835,53.4738838],[-2.2922511,53.4739055],[-2.2919369,53.4739607]]},"properties":{"name":"Metrolink","gauge":"1435","oneway":"yes","railway":"tram","voltage":"750","frequency":"0","electrified":"contact_line"}},
{"type":"Feature","geometry":{"type":"LineString","coordinates":[[-2.1951966,53.4826699],[-2.1951696,53.4826291],[-2.1951081,53.4825361],[-2.1950035,53.4823813],[-2.194908,53.482292],[-2.1947755,53.4822089],[-2.1946747,53.4821611],[-2.1945084,53.4821132],[-2.1943517,53.4820924],[-2.194231,53.4820876],[-2.1940672,53.48209],[-2.1938506,53.4821234],[-2.1937984,53.4821325]]},"properties":{"gauge":"1435","railway":"tram","voltage":"750","maxspeed":"15 mph","frequency":"0","electrified":"contact_line"}},
{"type":"Feature","geometry":{"type":"LineString","coordinates":[[-2.1000064,53.4901994],[-2.1007606,53.4901195],[-2.1009791,53.4901095],[-2.1011268,53.4901145],[-2.1012526,53.4901232],[-2.1013961,53.4901462],[-2.1014735,53.4901665],[-2.1017199,53.4902469],[-2.1019889,53.4903392],[-2.1022608,53.4904595],[-2.1024836,53.4905557],[-2.1026315,53.4906013],[-2.1028016,53.4906373],[-2.1029951,53.4906582],[-2.1032006,53.4906544],[-2.1034399,53.4906211],[-2.1037987,53.490553]]},"properties":{"oneway":"yes","railway":"tram","voltage":"750","maxspeed":"15 mph","frequency":"0","electrified":"contact_line"}},
{"type":"Feature","geometry":{"type":"LineString","coordinates":[[-2.0995949,53.4902732],[-2.0992364,53.4903081],[-2.0991077,53.4903162],[-2.0990224,53.4903216],[-2.0988966,53.4903282],[-2.0988623,53.4903302],[-2.0987888,53.4903346],[-2.0985078,53.4903492],[-2.098078,53.4903741]]},"properties":{"electrified":"contact_line","frequency":"0","maxspeed":"15 mph","railway":"tram","voltage":"750"}},
{"type":"Feature","geometry":{"type":"LineString","coordinates":[[-2.2493499,53.5320602],[-2.2489402,53.5320476],[-2.2485355,53.5320351],[-2.2483698,53.5320299],[-2.2461102,53.5319601],[-2.2457605,53.5319493],[-2.2455579,53.5319431],[-2.2454951,53.5319402],[-2.2454305,53.5319348],[-2.2453758,53.5319236]]},"properties":{"name":"Heaton Park Tramway","usage":"tourism","railway":"tram","voltage":"650","frequency":"0","electrified":"contact_line","opening_hours":"Jun-Aug Su,PH 12:00-17:00; Dec-Feb Su,PH 12:00-16:00"}},
{"type":"Feature","geometry":{"type":"LineString","coordinates":[[-2.2563119,53.5319636],[-2.256341,53.5319254],[-2.2563507,53.5318903],[-2.2563455,53.5318071],[-2.2563471,53.5317526],[-2.256367,53.5317008],[-2.2564802,53.5315589],[-2.2565278,53.5315045]]},"properties":{"usage":"tourism","railway":"tram","service":"siding","voltage":"650","frequency":"0","electrified":"contact_line"}},
{"type":"Feature","geometry":{"type":"LineString","coordinates":[[-2.2463606,53.5319435],[-2.2463119,53.5319436],[-2.2462841,53.5319445],[-2.2462583,53.5319471],[-2.2462098,53.531954],[-2.2461816,53.5319576],[-2.2461467,53.5319601],[-2.2461102,53.5319601]]},"properties":{"usage":"tourism","railway":"tram","service":"crossover","voltage":"650","frequency":"0","electrified":"contact_line"}},
{"type":"Feature","geometry":{"type":"LineString","coordinates":[[-2.2558581,53.5320681],[-2.2556684,53.5321235],[-2.2556164,53.5321354],[-2.2555686,53.5321398],[-2.255499,53.5321421],[-2.2554714,53.532144],[-2.25544,53.5321492],[-2.2553974,53.5321612]]},"properties":{"usage":"tourism","railway":"tram","service":"siding","voltage":"650","frequency":"0","electrified":"contact_line"}},
{"type":"Feature","geometry":{"type":"LineString","coordinates":[[-2.2487858,53.5320184],[-2.2487371,53.5320184],[-2.2487094,53.5320193],[-2.2486836,53.5320219],[-2.248635,53.5320288],[-2.2486069,53.5320324],[-2.248572,53.5320349],[-2.2485355,53.5320351]]},"properties":{"usage":"tourism","railway":"tram","service":"crossover","voltage":"650","frequency":"0","electrified":"contact_line"}},
{"type":"Feature","geometry":{"type":"LineString","coordinates":[[-2.3018162,53.4701861],[-2.3016926,53.4706593]]},"properties":{"name":"Weatherfield Tram","bridge":"yes","railway":"tram","electrified":"yes"}},
{"type":"Feature","geometry":{"type":"LineString","coordinates":[[-2.1168098,53.53956],[-2.1165866,53.5395687],[-2.1164782,53.5395769],[-2.1163401,53.5395914],[-2.1162033,53.5396123],[-2.1158875,53.5396587],[-2.1151189,53.5398007],[-2.1134782,53.5401022],[-2.112929,53.540204],[-2.1121894,53.5403412],[-2.1115088,53.5404632],[-2.111171,53.540527]]},"properties":{"gauge":"1435","oneway":"yes","railway":"tram","voltage":"750","frequency":"0","electrified":"contact_line"}},
{"type":"Feature","geometry":{"type":"LineString","coordinates":[[-2.2492403,53.4747002],[-2.2490792,53.4747073],[-2.2489196,53.4747221],[-2.2487987,53.4747427],[-2.2486729,53.4747771],[-2.2485593,53.4748166],[-2.2484498,53.4748628],[-2.2482395,53.474968],[-2.2475044,53.4753356],[-2.2463196,53.4759136],[-2.2462025,53.4759766],[-2.2460914,53.4760348],[-2.2459783,53.476107],[-2.2458353,53.4762052],[-2.2456029,53.4763706]]},"properties":{"gauge":"1435","layer":"2","bridge":"viaduct","oneway":"yes","railway":"tram","voltage":"750","operator":"Metrolink","frequency":"0","electrified":"contact_line"}},
{"type":"Feature","geometry":{"type":"LineString","coordinates":[[-2.2388743,53.4809406],[-2.238974,53.4808712],[-2.239243,53.480684],[-2.2397154,53.4803759],[-2.2397646,53.4803613],[-2.2398143,53.4803451],[-2.2398581,53.4803254],[-2.2399118,53.4802934],[-2.2399828,53.4802396],[-2.2402447,53.4800568],[-2.240718,53.479714],[-2.2415481,53.4791519],[-2.2422624,53.4786389],[-2.2425438,53.4784577],[-2.2428189,53.4782623],[-2.243105,53.478055],[-2.2437578,53.477557]]},"properties":{"gauge":"1435","oneway":"yes","network":"Metrolink","railway":"tram","voltage":"750","frequency":"0","electrified":"contact_line"}},
{"type":"Feature","geometry":{"type":"LineString","coordinates":[[-2.2435907,53.4831394],[-2.2436869,53.4830045],[-2.2438723,53.4827447],[-2.2442249,53.4822428],[-2.2443197,53.4821079],[-2.2443818,53.4820194],[-2.2444345,53.4819443],[-2.2444702,53.4819058],[-2.2445227,53.4818492],[-2.2445953,53.4817833],[-2.2446548,53.4817295],[-2.2446676,53.4817102],[-2.2446803,53.481691],[-2.2447908,53.48132],[-2.2447919,53.4813162],[-2.2448491,53.481095],[-2.2448616,53.4810467],[-2.2449307,53.4807901],[-2.2449533,53.4807061],[-2.2449621,53.4806728],[-2.2450031,53.4805175],[-2.2450576,53.4803115],[-2.2450919,53.4801911],[-2.2450758,53.4801323],[-2.2450082,53.4800859],[-2.2449521,53.4800527],[-2.2448762,53.4800191],[-2.2447621,53.4799666],[-2.244547,53.4799133],[-2.2444914,53.4798941],[-2.2443416,53.4798319],[-2.243806,53.4795137],[-2.2429717,53.4790004],[-2.2428666,53.4789357],[-2.2427587,53.4788713],[-2.2426886,53.4788213],[-2.2426653,53.4788047],[-2.2426188,53.47876],[-2.2425994,53.4787324],[-2.2425778,53.4786932],[-2.2425759,53.4786483],[-2.2425826,53.4786062],[-2.2426112,53.4785629],[-2.2426268,53.4785482],[-2.2426906,53.478488]]},"properties":{"gauge":"1435","oneway":"yes","network":"Metrolink","railway":"tram","voltage":"750","frequency":"0","start_date":"2016","electrified":"contact_line"}},
{"type":"Feature","geometry":{"type":"LineString","coordinates":[[-2.2436449,53.4831477],[-2.243558,53.483256],[-2.2432286,53.4837202],[-2.2430523,53.4840697],[-2.2429395,53.4842401],[-2.2427592,53.484472],[-2.2425781,53.484703],[-2.242483,53.4847969],[-2.2423685,53.4848697],[-2.2422949,53.4849165],[-2.2421755,53.4850059],[-2.2421122,53.4850722],[-2.2420076,53.4852207],[-2.2415999,53.4857713],[-2.2413809,53.4860549],[-2.2413612,53.4861148],[-2.2413563,53.4861701],[-2.24136,53.4862276],[-2.241369,53.4863076],[-2.2413971,53.4863955]]},"properties":{"electrified":"contact_line","frequency":"0","gauge":"1435","network":"Metrolink","oneway":"yes","railway":"tram","start_date":"2015","voltage":"750"}},
{"type":"Feature","geometry":{"type":"LineString","coordinates":[[-2.2433853,53.4833959],[-2.2433164,53.4835384],[-2.2432286,53.4837202]]},"properties":{"electrified":"contact_line","frequency":"0","gauge":"1435","network":"Metrolink","railway":"tram","service":"crossover","start_date":"2015","voltage":"750"}},
{"type":"Feature","geometry":{"type":"LineString","coordinates":[[-2.2423221,53.4786721],[-2.2415817,53.479168],[-2.240753,53.4797314],[-2.2397964,53.4804172]]},"properties":{"gauge":"1435","oneway":"yes","railway":"tram","voltage":"750","frequency":"0","electrified":"contact_line"}},
{"type":"Feature","geometry":{"type":"LineString","coordinates":[[-2.2413971,53.4863955],[-2.2414472,53.4865118],[-2.241508,53.4866261],[-2.2416261,53.4868116]]},"properties":{"gauge":"1435","oneway":"yes","network":"Metrolink","railway":"tram","voltage":"750","frequency":"0","start_date":"2015","electrified":"contact_line"}},
{"type":"Feature","geometry":{"type":"LineString","coordinates":[[-2.1546329,53.6112846],[-2.1546792,53.6114769],[-2.1547295,53.6118114],[-2.1547499,53.6119714],[-2.1547588,53.6120344],[-2.1547684,53.6121022],[-2.1547836,53.6121829],[-2.1548081,53.6123136],[-2.1548689,53.6125523],[-2.1549404,53.6127695],[-2.1549895,53.6128529],[-2.1549892,53.6129378],[-2.1549495,53.6130194],[-2.1548853,53.6130694],[-2.1547711,53.6131439],[-2.1547499,53.6131593],[-2.1545431,53.6133095],[-2.1543554,53.6134386],[-2.1541911,53.613546],[-2.1540218,53.6136638],[-2.1538598,53.6138021],[-2.1537934,53.61388],[-2.1537237,53.6139818],[-2.1536624,53.6141092],[-2.1536224,53.6142589],[-2.1536117,53.6143671],[-2.1536143,53.61441],[-2.153617,53.6144546],[-2.1536359,53.614551],[-2.1536947,53.6146611],[-2.1537554,53.6147345],[-2.1542271,53.6151791],[-2.1543368,53.6152733],[-2.1544263,53.6153587],[-2.154582,53.6155074],[-2.1547245,53.6156501],[-2.1548692,53.6157886],[-2.1550654,53.6159756],[-2.1551067,53.6160043],[-2.1551611,53.6160421],[-2.1553362,53.6161363],[-2.1556651,53.6163045]]},"properties":{"electrified":"contact_line","frequency":"0","gauge":"1435","oneway":"yes","operator":"Metrolink","railway":"tram","voltage":"750"}},
{"type":"Feature","geometry":{"type":"LineString","coordinates":[[-2.2412331,53.4864488],[-2.2412003,53.4863913],[-2.2411517,53.4863374],[-2.2411045,53.4862968],[-2.241054,53.4862644],[-2.2409649,53.4862299],[-2.2399645,53.4859198],[-2.2398025,53.4858693],[-2.2396835,53.4858112],[-2.2396111,53.4857617],[-2.2395515,53.4857098],[-2.2395058,53.4856674],[-2.2390989,53.4852867],[-2.238803,53.4850098],[-2.2387355,53.4849417],[-2.2386882,53.484893],[-2.2386558,53.4848406],[-2.2386272,53.4847892],[-2.2386177,53.4847606],[-2.2385834,53.4846454],[-2.2385624,53.4845844],[-2.2385548,53.4845339],[-2.2385548,53.4844768]]},"properties":{"gauge":"1435","oneway":"yes","railway":"tram","voltage":"750","frequency":"0","electrified":"contact_line"}},
{"type":"Feature","geometry":{"type":"LineString","coordinates":[[-2.2385548,53.4844768],[-2.2385548,53.4844272],[-2.2385605,53.4843549],[-2.2385624,53.4842787],[-2.2385653,53.4842387],[-2.2385824,53.4841682],[-2.2386091,53.4840863],[-2.2386272,53.4840329],[-2.2386644,53.4839529],[-2.2387015,53.4838662],[-2.2387406,53.4837786],[-2.2387758,53.4836996],[-2.2388167,53.4836081],[-2.238872,53.4834853],[-2.2389091,53.4833995],[-2.2389491,53.483311],[-2.2389653,53.4832529],[-2.2389861,53.4831881],[-2.2389966,53.4831345],[-2.2390419,53.4830258],[-2.2392609,53.4826248],[-2.239405,53.4822992]]},"properties":{"gauge":"1435","oneway":"yes","railway":"tram","voltage":"750","maxspeed":"20 mph","frequency":"0","electrified":"contact_line"}},
{"type":"Feature","geometry":{"type":"LineString","coordinates":[[-2.2394653,53.4823288],[-2.2393161,53.4826384],[-2.2392519,53.4827736],[-2.2391862,53.4828908],[-2.239093,53.48305],[-2.2390625,53.4831138],[-2.2390374,53.4831951],[-2.2390101,53.4832938],[-2.2389806,53.4833586],[-2.2389425,53.48345],[-2.2388872,53.4835796],[-2.2388444,53.4836853],[-2.2387958,53.4837929],[-2.2387577,53.4838786],[-2.2387266,53.4839461],[-2.2386834,53.4840501],[-2.238658,53.4841249],[-2.2386453,53.4841758],[-2.2386243,53.4842387],[-2.2386186,53.484271],[-2.2386043,53.484373],[-2.2386037,53.4844738],[-2.2386205,53.4845768],[-2.2386358,53.484632],[-2.2386567,53.4847082],[-2.2387012,53.4848238]]},"properties":{"gauge":"1435","railway":"tram","voltage":"750","maxspeed":"20 mph","frequency":"0","electrified":"contact_line"}},
{"type":"Feature","geometry":{"type":"LineString","coordinates":[[-2.239405,53.4822992],[-2.2394109,53.4822725],[-2.2394112,53.4822461],[-2.2394066,53.4822191],[-2.2393921,53.4821924],[-2.2393597,53.4821672],[-2.2393124,53.4821325],[-2.2392587,53.4821029],[-2.239159,53.4820674],[-2.2386228,53.4819168],[-2.2382517,53.4818141]]},"properties":{"gauge":"1435","oneway":"yes","railway":"tram","voltage":"750","maxspeed":"10 mph","frequency":"0","electrified":"contact_line"}},
{"type":"Feature","geometry":{"type":"LineString","coordinates":[[-2.2339896,53.4784883],[-2.2339246,53.4784418],[-2.2338794,53.4784098],[-2.2337965,53.4783702],[-2.2337057,53.4783446],[-2.2336153,53.4783247],[-2.2327559,53.4781422],[-2.2326341,53.4781111],[-2.2325816,53.4780892],[-2.2325317,53.4780607],[-2.2324733,53.4780155],[-2.232422,53.4779642],[-2.2323902,53.477913],[-2.2322986,53.4777653],[-2.2322037,53.4776162],[-2.2321549,53.4775564],[-2.2321221,53.4775271],[-2.2320709,53.4774891],[-2.2318805,53.4774015],[-2.231828,53.4773857],[-2.2316764,53.4773456]]},"properties":{"gauge":"1435","oneway":"yes","railway":"tram","voltage":"750","maxspeed":"10 mph","frequency":"0","electrified":"contact_line"}},
{"type":"Feature","geometry":{"type":"LineString","coordinates":[[-2.2339087,53.4783746],[-2.2339879,53.4784312],[-2.2340337,53.4784704],[-2.2341264,53.4785508],[-2.2342142,53.4786196],[-2.2342942,53.4786797],[-2.2345441,53.4788695],[-2.2347923,53.4790609],[-2.2353238,53.47947],[-2.2353721,53.4795066],[-2.2355393,53.479631],[-2.2356286,53.4797011],[-2.2357117,53.4797614],[-2.2357937,53.4798212],[-2.2358588,53.4798549],[-2.2359455,53.4798953],[-2.236012,53.4799156],[-2.2360886,53.479934],[-2.2362041,53.479953],[-2.2362626,53.47996],[-2.2363393,53.4799696],[-2.2364656,53.4799847],[-2.2365848,53.4800248],[-2.2367255,53.4800955],[-2.2370562,53.4802654],[-2.2374548,53.4804715],[-2.2375778,53.4805318],[-2.2380372,53.4807817],[-2.2381603,53.4808585],[-2.2382875,53.4809308]]},"properties":{"gauge":"1435","oneway":"yes","railway":"tram","voltage":"750","maxspeed":"30 mph","frequency":"0","electrified":"contact_line"}},
{"type":"Feature","geometry":{"type":"LineString","coordinates":[[-2.1038226,53.4905857],[-2.1034531,53.4906551],[-2.1031889,53.4906857],[-2.1029951,53.4906912],[-2.1027951,53.4906716],[-2.1026217,53.4906352],[-2.1024791,53.490592],[-2.102326,53.49053],[-2.1021383,53.490445],[-2.1019603,53.490367],[-2.101748,53.4902903],[-2.1014602,53.4902036],[-2.1013622,53.4901771],[-2.1012406,53.490156],[-2.1012237,53.4901531],[-2.1010445,53.4901398],[-2.1008137,53.4901495],[-2.1003277,53.4902023]]},"properties":{"electrified":"contact_line","frequency":"0","maxspeed":"15 mph","oneway":"yes","railway":"tram","voltage":"750"}},
{"type":"Feature","geometry":{"type":"LineString","coordinates":[[-2.1052497,53.4904488],[-2.1045088,53.4904831],[-2.1038226,53.4905857]]},"properties":{"oneway":"yes","railway":"tram","voltage":"750","maxspeed":"25 mph","frequency":"0","electrified":"contact_line"}},
{"type":"Feature","geometry":{"type":"LineString","coordinates":[[-2.1037987,53.490553],[-2.1046849,53.4904382],[-2.105242,53.4904132]]},"properties":{"oneway":"yes","railway":"tram","voltage":"750","maxspeed":"25 mph","frequency":"0","electrified":"contact_line"}},
{"type":"Feature","geometry":{"type":"LineString","coordinates":[[-2.1216798,53.4839824],[-2.1215635,53.4840927],[-2.1214937,53.4841476],[-2.1214533,53.4841793],[-2.1213352,53.4842599],[-2.1212162,53.48432],[-2.1211162,53.4843624],[-2.1210077,53.4844107],[-2.1208607,53.4844684],[-2.1207074,53.4845506],[-2.120562,53.4846489]]},"properties":{"gauge":"1435","oneway":"yes","railway":"tram","voltage":"750","maxspeed":"15 mph","frequency":"0","electrified":"contact_line"}},
{"type":"Feature","geometry":{"type":"LineString","coordinates":[[-2.1324713,53.4784569],[-2.1326082,53.4784727],[-2.1331921,53.4785122],[-2.1341259,53.4785841],[-2.1343669,53.4786016],[-2.1345359,53.4786159],[-2.135595,53.4787185],[-2.1360853,53.4787619],[-2.1375507,53.4788539],[-2.1391074,53.4789728],[-2.1403098,53.4790641],[-2.1409688,53.4791141],[-2.1413879,53.4791459],[-2.143578,53.4793302]]},"properties":{"gauge":"1435","railway":"tram","voltage":"750","maxspeed":"30 mph","frequency":"0","electrified":"contact_line"}},
{"type":"Feature","geometry":{"type":"LineString","coordinates":[[-2.1457352,53.4795157],[-2.1458861,53.479503],[-2.1471808,53.4793902],[-2.1474732,53.4793886],[-2.1477736,53.4794093],[-2.1494058,53.4795473],[-2.1505891,53.4796514],[-2.1514824,53.4797188],[-2.1519388,53.4797533],[-2.1527383,53.4798211],[-2.1533684,53.479873]]},"properties":{"gauge":"1435","railway":"tram","voltage":"750","maxspeed":"30 mph","frequency":"0","electrified":"contact_line"}},
{"type":"Feature","geometry":{"type":"LineString","coordinates":[[-2.1565338,53.4801214],[-2.1568469,53.4801433],[-2.1573214,53.4801803],[-2.1585872,53.4802801],[-2.1600483,53.4803974],[-2.1615451,53.4805291]]},"properties":{"gauge":"1435","railway":"tram","voltage":"750","maxspeed":"30 mph","frequency":"0","electrified":"contact_line"}},
{"type":"Feature","geometry":{"type":"LineString","coordinates":[[-2.1809521,53.4828372],[-2.1797575,53.4826819],[-2.1781773,53.4824786],[-2.1776626,53.4824135],[-2.1756274,53.4821535],[-2.1747416,53.482041099999999],[-2.1733103,53.4818462],[-2.1722238,53.4817047],[-2.1714433,53.4816006],[-2.1698452,53.4813909],[-2.1696186,53.4813609],[-2.1692256,53.481309],[-2.1685995,53.4812263],[-2.1676186,53.4811034],[-2.1670975,53.4810299],[-2.1668711,53.4810058]]},"properties":{"gauge":"1435","oneway":"yes","tracks":"1","railway":"tram","voltage":"750","maxspeed":"30 mph","frequency":"0","electrified":"contact_line"}},
{"type":"Feature","geometry":{"type":"LineString","coordinates":[[-2.1804563,53.4827484],[-2.1809927,53.4828202],[-2.1811295,53.4828346],[-2.1812205,53.4828416],[-2.1813319,53.4828448],[-2.1814915,53.4828417],[-2.1817891,53.4828231],[-2.182324,53.4827942],[-2.1831251,53.4827464],[-2.1833589,53.482734],[-2.1835694,53.4827294],[-2.1837581,53.482739],[-2.1839663,53.4827632],[-2.184485,53.4828282],[-2.1849731,53.4828841],[-2.185192,53.4829064],[-2.1857939,53.4829878],[-2.1861238,53.4830341],[-2.1863431,53.4830489],[-2.1864805,53.4830485]]},"properties":{"gauge":"1435","oneway":"yes","tracks":"1","railway":"tram","voltage":"750","maxspeed":"15 mph","frequency":"0","electrified":"contact_line"}},
{"type":"Feature","geometry":{"type":"LineString","coordinates":[[-2.1885936,53.483156],[-2.1886504,53.4831746],[-2.1886987,53.4831906],[-2.188755,53.4832018],[-2.1888033,53.4832082],[-2.188857,53.4832098],[-2.1888972,53.4832098],[-2.1889374,53.4832034]]},"properties":{"gauge":"1435","oneway":"yes","tracks":"1","railway":"tram","voltage":"750","maxspeed":"5 mph","frequency":"0","electrified":"contact_line"}},
{"type":"Feature","geometry":{"type":"LineString","coordinates":[[-2.1885584,53.4831783],[-2.1884436,53.4831305],[-2.1883528,53.4830676],[-2.1881475,53.4829729],[-2.1880694,53.4829456],[-2.1879911,53.4829214],[-2.1878979,53.4829],[-2.1878228,53.4828867],[-2.1877496,53.4828789],[-2.1876423,53.4828744],[-2.1875494,53.4828785],[-2.187462,53.4828833],[-2.187374,53.4828957],[-2.1872599,53.482917],[-2.1870426,53.4829656],[-2.1868762,53.4830021],[-2.1867376,53.4830323],[-2.1866333,53.4830509],[-2.1865446,53.4830623],[-2.1864559,53.4830669],[-2.186359,53.4830687],[-2.1862767,53.483066],[-2.1861265,53.4830527],[-2.1857107,53.482996],[-2.1852118,53.4829353],[-2.1840839,53.482808],[-2.1837301,53.4827648],[-2.1835323,53.4827577],[-2.1833279,53.4827632],[-2.1831176,53.4827741],[-2.1824292,53.4828103],[-2.1817937,53.4828452],[-2.1815189,53.4828632],[-2.1813609,53.4828692],[-2.1812147,53.4828645],[-2.1810807,53.4828517],[-2.1809521,53.4828372]]},"properties":{"gauge":"1435","oneway":"yes","tracks":"1","railway":"tram","voltage":"750","maxspeed":"15 mph","frequency":"0","electrified":"contact_line"}},
{"type":"Feature","geometry":{"type":"LineString","coordinates":[[-2.1939847,53.4820568],[-2.1942282,53.4820293],[-2.1943618,53.4820292],[-2.1944854,53.4820384],[-2.1946096,53.4820583],[-2.1947105,53.4820854],[-2.1947497,53.4821009],[-2.1948701,53.4821487],[-2.1949589,53.4821949],[-2.1950767,53.4822779],[-2.1951376,53.4823522],[-2.1952282,53.482505]]},"properties":{"gauge":"1435","oneway":"yes","railway":"tram","voltage":"750","maxspeed":"15 mph","frequency":"0","electrified":"contact_line"}},
{"type":"Feature","geometry":{"type":"LineString","coordinates":[[-2.1937984,53.4821325],[-2.1935432,53.4821861],[-2.1930162,53.4822995],[-2.1923586,53.4824448],[-2.1919402,53.4825347],[-2.191423,53.4826574],[-2.191093,53.4827514],[-2.1905245,53.4828873],[-2.1893315,53.4831536]]},"properties":{"gauge":"1435","railway":"tram","voltage":"750","maxspeed":"30 mph","frequency":"0","electrified":"contact_line"}},
{"type":"Feature","geometry":{"type":"LineString","coordinates":[[-2.2127485,53.4829446],[-2.212971,53.4828262],[-2.213086,53.4827776],[-2.2132143,53.4827172]]},"properties":{"gauge":"1435","oneway":"yes","railway":"tram","voltage":"750","maxspeed":"15 mph","frequency":"0","electrified":"contact_line"}},
{"type":"Feature","geometry":{"type":"LineString","coordinates":[[-2.2133509,53.4827101],[-2.2132248,53.4827564],[-2.2130109,53.4828483],[-2.2127758,53.4829602],[-2.2124601,53.4831132],[-2.2120488,53.4833053],[-2.2116652,53.4834837],[-2.2113947,53.4836124]]},"properties":{"gauge":"1435","oneway":"yes","railway":"tram","voltage":"750","maxspeed":"15 mph","frequency":"0","electrified":"contact_line"}},
{"type":"Feature","geometry":{"type":"LineString","coordinates":[[-2.2132143,53.4827172],[-2.2133328,53.4826771],[-2.2134077,53.482652],[-2.2135069,53.4826359],[-2.2135495,53.4826296],[-2.2136989,53.4826064],[-2.2144789,53.4824842],[-2.2144943,53.4824818],[-2.2151566,53.4823802],[-2.2163003,53.4822274],[-2.2165831,53.4821822],[-2.2167384,53.4821344],[-2.2168763,53.482098],[-2.2169521,53.482078]]},"properties":{"gauge":"1435","oneway":"yes","railway":"tram","voltage":"750","maxspeed":"30 mph","frequency":"0","electrified":"contact_line"}},
{"type":"Feature","geometry":{"type":"LineString","coordinates":[[-2.2168662,53.482153],[-2.2167959,53.4821787],[-2.2167654,53.4821898],[-2.2165856,53.4822265],[-2.2160803,53.4822967],[-2.2155905,53.4823701],[-2.2148572,53.4824771],[-2.2139882,53.4826063],[-2.2135211,53.4826756],[-2.2133509,53.4827101]]},"properties":{"gauge":"1435","oneway":"yes","railway":"tram","voltage":"750","maxspeed":"30 mph","frequency":"0","electrified":"contact_line"}},
{"type":"Feature","geometry":{"type":"LineString","coordinates":[[-2.2190426,53.4814468],[-2.218945,53.4814735],[-2.2188068,53.4814994],[-2.21866,53.4815255],[-2.2184239,53.4815674],[-2.2182368,53.481604],[-2.2181225,53.4816328],[-2.217864,53.4817205],[-2.2176853,53.4817908],[-2.2175046,53.4818849],[-2.2173206,53.4819728],[-2.2171328,53.482051],[-2.2168662,53.482153]]},"properties":{"gauge":"1435","oneway":"yes","railway":"tram","voltage":"750","maxspeed":"20 mph","frequency":"0","electrified":"contact_line"}},
{"type":"Feature","geometry":{"type":"LineString","coordinates":[[-2.2192296,53.4813224],[-2.2193832,53.48125],[-2.2197957,53.4810431],[-2.220171,53.4808535],[-2.2204114,53.4807225],[-2.220839,53.4805084],[-2.2210991,53.4803796],[-2.2212169,53.4803255]]},"properties":{"gauge":"1435","oneway":"yes","railway":"tram","voltage":"750","maxspeed":"30 mph","frequency":"0","electrified":"contact_line"}},
{"type":"Feature","geometry":{"type":"LineString","coordinates":[[-2.1864805,53.4830485],[-2.1867192,53.4830133],[-2.1868397,53.4829871],[-2.1870132,53.4829495],[-2.1872074,53.4829032],[-2.1874515,53.4828617],[-2.1876516,53.4828537],[-2.1878565,53.4828713],[-2.1880952,53.4829272],[-2.1882347,53.4829782],[-2.1883972,53.4830596],[-2.1884949,53.4831117],[-2.1885936,53.483156]]},"properties":{"gauge":"1435","oneway":"yes","tracks":"1","railway":"tram","voltage":"750","maxspeed":"10 mph","frequency":"0","electrified":"contact_line"}},
{"type":"Feature","geometry":{"type":"LineString","coordinates":[[-2.2642048,53.378182],[-2.2644935,53.378306],[-2.2645951,53.3783559],[-2.2646683,53.378421],[-2.26469,53.3784771],[-2.2646924,53.3785282],[-2.2646675,53.3785846],[-2.2646471,53.3786114],[-2.2646112,53.378642],[-2.2645766,53.378672],[-2.2643455,53.3788612],[-2.2642594,53.3789402],[-2.264215,53.3789907],[-2.2641714,53.3790398],[-2.26413,53.3791014],[-2.2640985,53.3791702],[-2.2638981,53.3797064],[-2.263864,53.379796],[-2.2637593,53.3800676],[-2.2636019,53.3804667],[-2.2635609,53.3805731],[-2.2635024,53.3807301],[-2.2634458,53.3808098],[-2.2634177,53.3808354],[-2.2633681,53.3808805],[-2.2632788,53.3809319],[-2.2631886,53.3809728],[-2.2630904,53.381009],[-2.2629397,53.3810557],[-2.2628672,53.3810781]]},"properties":{"name":"Metrolink","gauge":"1435","oneway":"yes","railway":"tram","voltage":"750","frequency":"0","electrified":"contact_line"}},
{"type":"Feature","geometry":{"type":"LineString","coordinates":[[-2.2607352,53.3817624],[-2.2606007,53.3817995],[-2.2603577,53.3818526],[-2.2601733,53.3818909],[-2.2600111,53.3819175]]},"properties":{"name":"Metrolink","gauge":"1435","oneway":"yes","railway":"tram","voltage":"750","frequency":"0","electrified":"contact_line"}},
{"type":"Feature","geometry":{"type":"LineString","coordinates":[[-2.2565202,53.3882721],[-2.256604,53.3883145],[-2.2566796,53.3883436],[-2.2567742,53.3883641],[-2.2570848,53.388404800000007],[-2.2577331,53.3884875],[-2.2581019,53.3885294],[-2.2589049,53.3886222],[-2.2605673,53.388796]]},"properties":{"name":"Metrolink","gauge":"1435","oneway":"yes","railway":"tram","voltage":"750","frequency":"0","electrified":"contact_line"}},
{"type":"Feature","geometry":{"type":"LineString","coordinates":[[-2.2169521,53.482078],[-2.2170388,53.4820511],[-2.2171468,53.4820032],[-2.2172882,53.4819445],[-2.2174987,53.4818383],[-2.2176659,53.4817545],[-2.217833,53.481684],[-2.218105,53.4815965],[-2.2183107,53.4815526],[-2.2185572,53.481513],[-2.2187811,53.4814702],[-2.2189164,53.4814375],[-2.2190137,53.4814134],[-2.2191186,53.4813743],[-2.2192296,53.4813224]]},"properties":{"gauge":"1435","oneway":"yes","railway":"tram","voltage":"750","maxspeed":"20 mph","frequency":"0","electrified":"contact_line"}},
{"type":"Feature","geometry":{"type":"LineString","coordinates":[[-2.2802637,53.4589229],[-2.2801143,53.4587226],[-2.2800748,53.4586696],[-2.2799814,53.4585216],[-2.2798997,53.4583519],[-2.2798483,53.458263]]},"properties":{"railway":"tram","service":"siding","voltage":"750","frequency":"0","electrified":"contact_line"}},
{"type":"Feature","geometry":{"type":"LineString","coordinates":[[-2.309035,53.583189],[-2.308942,53.5832645]]},"properties":{"name":"Metrolink","gauge":"1435","layer":"1","bridge":"yes","railway":"tram","voltage":"750","operator":"Metrolink","frequency":"0","electrified":"contact_line"}},
{"type":"Feature","geometry":{"type":"LineString","coordinates":[[-2.3088981,53.5832396],[-2.3089761,53.5831761]]},"properties":{"name":"Metrolink","gauge":"1435","layer":"1","bridge":"yes","railway":"tram","voltage":"750","operator":"Metrolink","frequency":"0","electrified":"contact_line"}},
{"type":"Feature","geometry":{"type":"LineString","coordinates":[[-2.1113597,53.5404301],[-2.1114794,53.540409],[-2.1121615,53.5402846],[-2.1128996,53.54015],[-2.1134517,53.5400493],[-2.115093,53.539748],[-2.1158746,53.5396335],[-2.1161484,53.5395904],[-2.1162919,53.5395687],[-2.116438,53.5395531],[-2.1165796,53.53954],[-2.1168064,53.5395311]]},"properties":{"gauge":"1435","oneway":"yes","railway":"tram","voltage":"750","frequency":"0","electrified":"contact_line"}},
{"type":"Feature","geometry":{"type":"LineString","coordinates":[[-2.2453105,53.4765662],[-2.24506,53.4767246],[-2.2448407,53.4768845],[-2.244292,53.4772606],[-2.2441608,53.4773751],[-2.2440173,53.4774879],[-2.2439184,53.4775999],[-2.2438187,53.4777139],[-2.2436719,53.4778291],[-2.2434909,53.4779587],[-2.2433828,53.4780422],[-2.2431051,53.4782472],[-2.2428679,53.4784223],[-2.2427281,53.4785139],[-2.2426584,53.47854],[-2.2426268,53.4785482],[-2.2425091,53.4785787],[-2.2424258,53.4786115],[-2.2423221,53.4786721]]},"properties":{"gauge":"1435","oneway":"yes","network":"Metrolink","railway":"tram","voltage":"750","frequency":"0","electrified":"contact_line"}},
{"type":"Feature","geometry":{"type":"LineString","coordinates":[[-2.2427738,53.4786602],[-2.2427604,53.4787147],[-2.2427696,53.4787605],[-2.2427737,53.4787811],[-2.2427945,53.4788143],[-2.2428091,53.4788376],[-2.2428925,53.4788997],[-2.2430001,53.4789639],[-2.2430126,53.4789717],[-2.2439867,53.4795765],[-2.2443653,53.4798115],[-2.24445,53.4798442],[-2.2445557,53.4798849],[-2.2447874,53.4799487],[-2.2449071,53.4799964],[-2.2449854,53.4800313],[-2.2450496,53.4800666],[-2.2451227,53.4801246],[-2.2451358,53.4801546],[-2.2451457,53.4801946],[-2.2451383,53.4802221],[-2.2449841,53.4807963],[-2.2449024,53.4811006],[-2.2448453,53.4813215],[-2.2448439,53.4813261],[-2.2447214,53.4817151],[-2.2447031,53.4817444],[-2.2446405,53.481801],[-2.2445691,53.4818658],[-2.2444833,53.4819583],[-2.2443696,53.4821203],[-2.2443537,53.4821429],[-2.2439227,53.4827564],[-2.2437386,53.4830158],[-2.2436449,53.4831477]]},"properties":{"gauge":"1435","oneway":"yes","network":"Metrolink","railway":"tram","voltage":"750","frequency":"0","start_date":"2016","electrified":"contact_line"}},
{"type":"Feature","geometry":{"type":"LineString","coordinates":[[-2.2426906,53.478488],[-2.2427993,53.4784039],[-2.2430529,53.478219],[-2.2433478,53.4780044],[-2.2436221,53.4777634],[-2.2437578,53.477557]]},"properties":{"name":"Metrolink","gauge":"1435","oneway":"yes","railway":"tram","voltage":"750","frequency":"0","electrified":"contact_line"}},
{"type":"Feature","geometry":{"type":"LineString","coordinates":[[-2.111171,53.540527],[-2.1102902,53.5406807],[-2.1092908,53.5408592],[-2.10912,53.5408915],[-2.1089177,53.5409289],[-2.1084831,53.5410046],[-2.1081737,53.5410588],[-2.1078011,53.5411271],[-2.1070572,53.5412669],[-2.1066801,53.5413452],[-2.1064392,53.5414275],[-2.1052548,53.541901]]},"properties":{"gauge":"1435","railway":"tram","voltage":"750","frequency":"0","electrified":"contact_line"}},
{"type":"Feature","geometry":{"type":"LineString","coordinates":[[-2.1027618,53.5425787],[-2.1026165,53.5426496]]},"properties":{"railway":"tram","voltage":"750","electrified":"contact_line"}},
{"type":"Feature","geometry":{"type":"LineString","coordinates":[[-2.3338848,53.4831537],[-2.3344891,53.4830722]]},"properties":{"name":"Metrolink","gauge":"1435","usage":"branch","railway":"tram","voltage":"750","frequency":"0","electrified":"contact_line"}},
{"type":"Feature","geometry":{"type":"LineString","coordinates":[[-2.3272749,53.4840015],[-2.32683,53.4839993],[-2.3263952,53.483997]]},"properties":{"name":"Metrolink","gauge":"1435","oneway":"yes","railway":"tram","voltage":"750","frequency":"0","electrified":"contact_line"}},
{"type":"Feature","geometry":{"type":"LineString","coordinates":[[-2.3270701,53.4839722],[-2.3274138,53.4839737],[-2.3276866,53.4839749],[-2.3282565,53.4839773],[-2.3287957,53.4839646],[-2.3295091,53.4839199],[-2.3299571,53.4838768]]},"properties":{"name":"Metrolink","gauge":"1435","oneway":"yes","railway":"tram","voltage":"750","frequency":"0","electrified":"contact_line"}},
{"type":"Feature","geometry":{"type":"LineString","coordinates":[[-2.3261651,53.4839686],[-2.3265953,53.4839702],[-2.3270701,53.4839722]]},"properties":{"name":"Metrolink","gauge":"1435","oneway":"yes","railway":"tram","voltage":"750","frequency":"0","electrified":"contact_line"}},
{"type":"Feature","geometry":{"type":"LineString","coordinates":[[-2.3163173,53.4835871],[-2.3158474,53.4835275],[-2.3154189,53.483474]]},"properties":{"name":"Metrolink","gauge":"1435","layer":"1","bridge":"yes","oneway":"yes","railway":"tram","voltage":"750","frequency":"0","electrified":"contact_line"}},
{"type":"Feature","geometry":{"type":"LineString","coordinates":[[-2.3154189,53.483474],[-2.3146881,53.4833791],[-2.3141472,53.4833124],[-2.3137521,53.4832545],[-2.3133995,53.4832028],[-2.3123059,53.4830435],[-2.3117089,53.482966],[-2.3110561,53.4828664],[-2.310456,53.4827933],[-2.3103474,53.4827801],[-2.3100853,53.4827459],[-2.3096941,53.4826948],[-2.3096439,53.4826882],[-2.3094328,53.4826666],[-2.3092716,53.4826501],[-2.3091938,53.4826422],[-2.3090014,53.4826225],[-2.3087852,53.4826088],[-2.3085054,53.4825779],[-2.3083526,53.4825547],[-2.3080081,53.4825031]]},"properties":{"name":"Metrolink","gauge":"1435","oneway":"yes","railway":"tram","voltage":"750","frequency":"0","electrified":"contact_line"}},
{"type":"Feature","geometry":{"type":"LineString","coordinates":[[-2.3078057,53.4824495],[-2.3082508,53.4825117],[-2.3083634,53.4825243],[-2.3084698,53.4825306],[-2.3085985,53.4825309],[-2.3087712,53.4825224],[-2.3089014,53.4825168],[-2.3090602,53.4825111],[-2.309171,53.4825135],[-2.3094556,53.4825458],[-2.3102168,53.4826614],[-2.3107031,53.4827273],[-2.3116979,53.4828791],[-2.3132118,53.4831147],[-2.3146967,53.483319],[-2.3148168,53.4833343],[-2.3154141,53.4834071]]},"properties":{"name":"Metrolink","gauge":"1435","oneway":"yes","railway":"tram","voltage":"750","frequency":"0","electrified":"contact_line"}},
{"type":"Feature","geometry":{"type":"LineString","coordinates":[[-2.3080081,53.4825031],[-2.3075833,53.4824402],[-2.3071303,53.4823701]]},"properties":{"name":"Metrolink","gauge":"1435","oneway":"yes","railway":"tram","voltage":"750","frequency":"0","electrified":"contact_line"}},
{"type":"Feature","geometry":{"type":"LineString","coordinates":[[-2.3069656,53.4823196],[-2.3073913,53.4823857],[-2.3078057,53.4824495]]},"properties":{"name":"Metrolink","gauge":"1435","oneway":"yes","railway":"tram","voltage":"750","frequency":"0","electrified":"contact_line"}},
{"type":"Feature","geometry":{"type":"LineString","coordinates":[[-2.2966279,53.4807128],[-2.2961659,53.4806525],[-2.295736,53.4805962]]},"properties":{"name":"Metrolink","gauge":"1435","oneway":"yes","railway":"tram","voltage":"750","frequency":"0","electrified":"contact_line"}},
{"type":"Feature","geometry":{"type":"LineString","coordinates":[[-2.2966367,53.4806851],[-2.2969234,53.4807236],[-2.2971005,53.4807501],[-2.2971319,53.4807595],[-2.2972479,53.4807944],[-2.2973348,53.4808323],[-2.2973595,53.4808431],[-2.2974514,53.4808771],[-2.2975556,53.4809111],[-2.2977223,53.4809368],[-2.2997856,53.4812124],[-2.3011963,53.4813988],[-2.3024411,53.4815592],[-2.3049562,53.4818833],[-2.3054486,53.4819608],[-2.3055522,53.4819827],[-2.3056764,53.482023],[-2.3057598,53.4820597],[-2.30599,53.4821477],[-2.3061385,53.4821852],[-2.3063935,53.4822269],[-2.3069656,53.4823196]]},"properties":{"electrified":"contact_line","frequency":"0","gauge":"1435","name":"Metrolink","oneway":"yes","railway":"tram","voltage":"750"}},
{"type":"Feature","geometry":{"type":"LineString","coordinates":[[-2.2957411,53.4805647],[-2.2961742,53.480623],[-2.2966367,53.4806851]]},"properties":{"name":"Metrolink","gauge":"1435","oneway":"yes","railway":"tram","voltage":"750","frequency":"0","electrified":"contact_line"}},
{"type":"Feature","geometry":{"type":"LineString","coordinates":[[-2.2952165,53.4750393],[-2.2953449,53.475178],[-2.2954519,53.4753047],[-2.2955022,53.4753636],[-2.2956276,53.4755045],[-2.2956401,53.4755186],[-2.2957622,53.475664],[-2.2960702,53.4760204],[-2.2961226,53.4760905],[-2.2961653,53.4761563],[-2.296219,53.4762521],[-2.2962335,53.4762863],[-2.2962686,53.4763822],[-2.2962926,53.4764832],[-2.2963005,53.4765651],[-2.296301,53.4766346],[-2.2962927,53.4767343],[-2.2962786,53.4768205],[-2.2962564,53.4769049],[-2.2962295,53.4769894],[-2.2961047,53.4773764],[-2.2960914,53.4774142],[-2.2958315,53.4781558],[-2.2956758,53.4786101],[-2.2956656,53.4786415],[-2.2955577,53.4789551],[-2.2954513,53.4792644],[-2.2954362,53.4793082],[-2.2953542,53.4795732],[-2.2953136,53.4797046],[-2.2952981,53.4797675],[-2.2952143,53.4801075],[-2.2951812,53.4802564],[-2.2951793,53.4803053],[-2.295201,53.480363],[-2.2952175,53.4803797],[-2.295255,53.4804175],[-2.2953194,53.4804637],[-2.2954085,53.4805068],[-2.2954221,53.4805103],[-2.2955018,53.4805308],[-2.2957411,53.4805647]]},"properties":{"name":"Metrolink","gauge":"1435","oneway":"yes","railway":"tram","voltage":"750","frequency":"0","electrified":"contact_line"}},
{"type":"Feature","geometry":{"type":"LineString","coordinates":[[-2.2951317,53.4750643],[-2.2949267,53.4748282],[-2.294711,53.4745851]]},"properties":{"name":"Metrolink","gauge":"1435","oneway":"yes","railway":"tram","voltage":"750","frequency":"0","electrified":"contact_line"}},
{"type":"Feature","geometry":{"type":"LineString","coordinates":[[-2.294795,53.4745582],[-2.2950101,53.4748038],[-2.2952165,53.4750393]]},"properties":{"name":"Metrolink","gauge":"1435","oneway":"yes","railway":"tram","voltage":"750","frequency":"0","electrified":"contact_line"}},
{"type":"Feature","geometry":{"type":"LineString","coordinates":[[-2.294711,53.4745851],[-2.2945715,53.4744294],[-2.2945328,53.4743881]]},"properties":{"name":"Metrolink","gauge":"1435","oneway":"yes","railway":"tram","voltage":"750","frequency":"0","electrified":"contact_line"}},
{"type":"Feature","geometry":{"type":"LineString","coordinates":[[-2.2900374,53.4742638],[-2.2904269,53.4741944],[-2.2909755,53.4740977],[-2.2922361,53.4738771],[-2.2923524,53.4738568],[-2.2930577,53.4737139]]},"properties":{"name":"Metrolink","gauge":"1435","oneway":"yes","railway":"tram","voltage":"750","frequency":"0","electrified":"contact_line"}},
{"type":"Feature","geometry":{"type":"LineString","coordinates":[[-2.2892434,53.4744068],[-2.2896288,53.4743366],[-2.2900374,53.4742638]]},"properties":{"name":"Metrolink","gauge":"1435","oneway":"yes","railway":"tram","voltage":"750","frequency":"0","electrified":"contact_line"}},
{"type":"Feature","geometry":{"type":"LineString","coordinates":[[-2.2911613,53.4740962],[-2.2909924,53.4741263],[-2.2908008,53.4741583],[-2.2904394,53.4742214],[-2.2898151,53.4743318],[-2.2892596,53.4744349],[-2.2889655,53.4744892],[-2.2887211,53.4745401],[-2.2884422,53.4746057],[-2.2882331,53.4746501],[-2.2879002,53.4747334],[-2.2875187,53.4748423],[-2.2873794,53.4748827],[-2.2872752,53.4749061],[-2.2871697,53.4749189],[-2.2870799,53.4749241],[-2.2870392,53.4749236],[-2.2869333,53.4749235],[-2.2868353,53.4749156],[-2.2867245,53.4749018],[-2.286621,53.4748816],[-2.2865126,53.4748534],[-2.2864249,53.4748231],[-2.2863539,53.4747861],[-2.2863012,53.4747507],[-2.2862568,53.4747114],[-2.2862188,53.4746622],[-2.2861844,53.4746084],[-2.28616,53.4745705]]},"properties":{"name":"Metrolink","gauge":"1435","oneway":"yes","railway":"tram","voltage":"750","frequency":"0","electrified":"contact_line"}},
{"type":"Feature","geometry":{"type":"LineString","coordinates":[[-2.2919369,53.4739607],[-2.2915507,53.4740285],[-2.2911613,53.4740962]]},"properties":{"name":"Metrolink","gauge":"1435","oneway":"yes","railway":"tram","voltage":"750","frequency":"0","electrified":"contact_line"}},
{"type":"Feature","geometry":{"type":"LineString","coordinates":[[-2.2858954,53.4740792],[-2.2860548,53.4743194],[-2.2862127,53.4745607]]},"properties":{"name":"Metrolink","gauge":"1435","oneway":"yes","railway":"tram","voltage":"750","frequency":"0","electrified":"contact_line"}},
{"type":"Feature","geometry":{"type":"LineString","coordinates":[[-2.2858451,53.4740913],[-2.2858314,53.4740697],[-2.2858088,53.4740353],[-2.2857851,53.4739973],[-2.2857741,53.4739727],[-2.2857638,53.4739375],[-2.2856902,53.4735015]]},"properties":{"name":"Metrolink","gauge":"1435","oneway":"yes","railway":"tram","voltage":"750","frequency":"0","electrified":"contact_line"}},
{"type":"Feature","geometry":{"type":"LineString","coordinates":[[-2.2862127,53.4745607],[-2.2862365,53.4745973],[-2.2862708,53.4746457],[-2.2863178,53.4746921],[-2.2863518,53.4747199],[-2.2864003,53.4747528],[-2.2864667,53.4747876],[-2.2865465,53.4748171],[-2.2866349,53.4748437],[-2.2867296,53.4748658],[-2.2868566,53.4748801],[-2.2869866,53.4748824],[-2.2871025,53.4748793],[-2.2871462,53.4748787],[-2.2872466,53.4748712],[-2.2873107,53.4748616],[-2.2873742,53.4748509],[-2.2874527,53.474829],[-2.2877867,53.4747281],[-2.2881171,53.4746415],[-2.2883579,53.4745822],[-2.2886499,53.4745163],[-2.2889038,53.4744671],[-2.2892434,53.4744068]]},"properties":{"name":"Metrolink","gauge":"1435","oneway":"yes","railway":"tram","voltage":"750","frequency":"0","electrified":"contact_line"}},
{"type":"Feature","geometry":{"type":"LineString","coordinates":[[-2.28616,53.4745705],[-2.2860028,53.4743305],[-2.2858451,53.4740913]]},"properties":{"name":"Metrolink","gauge":"1435","oneway":"yes","railway":"tram","voltage":"750","frequency":"0","electrified":"contact_line"}},
{"type":"Feature","geometry":{"type":"LineString","coordinates":[[-2.283956,53.4705779],[-2.2839375,53.4706575],[-2.2839299,53.470724],[-2.2839317,53.4707868],[-2.2839486,53.4708493],[-2.283993,53.4709449],[-2.28404,53.4710343],[-2.2840758,53.471093],[-2.2841193,53.4711631],[-2.2845175,53.4718052],[-2.2845425,53.4718377],[-2.2846028,53.4719088],[-2.2846304,53.4719437],[-2.2846672,53.4719836],[-2.284722,53.4720336],[-2.2847697,53.4720677],[-2.2848141,53.4720923],[-2.2848768,53.4721177]]},"properties":{"name":"Metrolink","gauge":"1435","oneway":"yes","railway":"tram","voltage":"750","frequency":"0","electrified":"contact_line"}},
{"type":"Feature","geometry":{"type":"LineString","coordinates":[[-2.284108,53.4700457],[-2.2840286,53.4703213],[-2.283956,53.4705779]]},"properties":{"name":"Metrolink","gauge":"1435","oneway":"yes","railway":"tram","voltage":"750","frequency":"0","electrified":"contact_line"}},
{"type":"Feature","geometry":{"type":"LineString","coordinates":[[-2.2840483,53.4700401],[-2.284061,53.4699945],[-2.284073,53.469935],[-2.2840815,53.4698985],[-2.2840843,53.4698672],[-2.284083,53.4698246],[-2.2840753,53.4697849],[-2.2840467,53.4697367],[-2.2840153,53.4696951],[-2.2839567,53.469646],[-2.2839048,53.4696127],[-2.2838473,53.4695835],[-2.2837299,53.4695289],[-2.2836167,53.4694861],[-2.2835176,53.4694535],[-2.2834128,53.4694318],[-2.2833501,53.4694221],[-2.2831774,53.4693953],[-2.2830245,53.4693709],[-2.2829566,53.46936],[-2.2828704,53.4693498],[-2.2827696,53.4693379]]},"properties":{"electrified":"contact_line","frequency":"0","gauge":"1435","name":"Metrolink","oneway":"yes","railway":"tram","voltage":"750"}},
{"type":"Feature","geometry":{"type":"LineString","coordinates":[[-2.2839032,53.470573],[-2.2839732,53.4703164],[-2.2840483,53.4700401]]},"properties":{"name":"Metrolink","gauge":"1435","oneway":"yes","railway":"tram","voltage":"750","frequency":"0","electrified":"contact_line"}},
{"type":"Feature","geometry":{"type":"LineString","coordinates":[[-2.2823139,53.4679189],[-2.2822449,53.4681989],[-2.2822329,53.4682565],[-2.2822269,53.4682853]]},"properties":{"electrified":"contact_line","frequency":"0","gauge":"1435","name":"Metrolink","oneway":"yes","railway":"tram","voltage":"750"}},
{"type":"Feature","geometry":{"type":"LineString","coordinates":[[-2.2824391,53.4674126],[-2.2823755,53.4676708],[-2.2823139,53.4679189]]},"properties":{"name":"Metrolink","gauge":"1435","oneway":"yes","railway":"tram","voltage":"750","frequency":"0","electrified":"contact_line"}},
{"type":"Feature","geometry":{"type":"LineString","coordinates":[[-2.2822651,53.4679157],[-2.2823278,53.4676667],[-2.2823938,53.4674085]]},"properties":{"name":"Metrolink","gauge":"1435","oneway":"yes","railway":"tram","voltage":"750","frequency":"0","electrified":"contact_line"}},
{"type":"Feature","geometry":{"type":"LineString","coordinates":[[-2.2823938,53.4674085],[-2.2824328,53.4672479],[-2.2824579,53.4671445],[-2.2824824,53.467041],[-2.2825101,53.466941],[-2.2825208,53.466886],[-2.282525,53.4668309],[-2.2825052,53.4667565],[-2.2824751,53.4666993],[-2.282448,53.4666618],[-2.2823868,53.466625],[-2.2822945,53.4665789],[-2.2821832,53.4665435],[-2.2820925,53.4665258],[-2.2813207,53.4664413],[-2.281211,53.4664232]]},"properties":{"name":"Metrolink","gauge":"1435","oneway":"yes","railway":"tram","voltage":"750","frequency":"0","electrified":"contact_line"}},
{"type":"Feature","geometry":{"type":"LineString","coordinates":[[-2.2453105,53.4765662],[-2.2450665,53.4767559],[-2.2448282,53.476928],[-2.2445606,53.4771209],[-2.2443423,53.4772737],[-2.2442599,53.477341],[-2.2442009,53.4773915],[-2.2441433,53.4774479],[-2.2440769,53.4775119],[-2.2440247,53.4775998],[-2.2439808,53.4776635],[-2.2438829,53.4777889],[-2.2437498,53.4779133],[-2.2436315,53.4780086],[-2.2433569,53.4782055],[-2.2429974,53.4784633],[-2.2429106,53.4785313],[-2.2428272,53.4785994],[-2.2427888,53.4786432],[-2.2427738,53.4786602]]},"properties":{"name":"Metrolink","gauge":"1435","oneway":"yes","railway":"tram","voltage":"750","frequency":"0","electrified":"contact_line"}},
{"type":"Feature","geometry":{"type":"LineString","coordinates":[[-2.2434909,53.4779587],[-2.2436221,53.4777634]]},"properties":{"name":"Metrolink","gauge":"1435","railway":"tram","voltage":"750","frequency":"0","electrified":"contact_line"}},
{"type":"Feature","geometry":{"type":"LineString","coordinates":[[-2.2816645,53.4298673],[-2.2799197,53.4300736],[-2.279344,53.4301522],[-2.2789724,53.4302252],[-2.2785722,53.4303388],[-2.2785169,53.4303545],[-2.2783272,53.4304083],[-2.2774029,53.4306492],[-2.2770693,53.430743],[-2.2764553,53.4309152],[-2.2759919,53.4310411],[-2.2754393,53.4311912],[-2.2746456,53.4314068],[-2.2741761,53.4315343],[-2.2728012,53.4319078],[-2.270988,53.4324007],[-2.2705995,53.4325058],[-2.2703944,53.4325637],[-2.270029,53.4326561],[-2.2692655,53.4328622],[-2.2685285,53.4330607],[-2.2681192,53.4331722],[-2.2677195,53.4332834],[-2.2672323,53.4334377],[-2.2669112,53.4335537],[-2.266567,53.4337022],[-2.2662385,53.433868],[-2.2660122,53.4339939],[-2.2655549,53.434279],[-2.2653337,53.4344521],[-2.2650907,53.4346642],[-2.2648773,53.43484],[-2.2638806,53.4356526],[-2.2638248,53.4357127],[-2.2637762,53.4357992],[-2.2637498,53.4358904],[-2.2636784,53.436093],[-2.2636316,53.4361669],[-2.2635299,53.4362719],[-2.2632967,53.4364639],[-2.2629571,53.4367554],[-2.262873,53.4368415],[-2.262817,53.4369143],[-2.2627841,53.4369811]]},"properties":{"name":"Metrolink","gauge":"1435","oneway":"yes","railway":"tram","voltage":"750","frequency":"0","electrified":"contact_line"}},
{"type":"Feature","geometry":{"type":"LineString","coordinates":[[-2.2627384,53.4371292],[-2.2627403,53.4372122],[-2.2627585,53.4373046],[-2.2627893,53.4373792],[-2.2628361,53.4374597],[-2.2628966,53.4375423],[-2.2629827,53.4376335],[-2.2631269,53.4377443],[-2.2632805,53.4378511],[-2.2634913,53.4379694],[-2.2637135,53.438079]]},"properties":{"name":"Metrolink","gauge":"1435","oneway":"yes","railway":"tram","voltage":"750","frequency":"0","electrified":"contact_line"}},
{"type":"Feature","geometry":{"type":"LineString","coordinates":[[-2.2626515,53.4371322],[-2.2626625,53.4370813],[-2.2626793,53.437026],[-2.2626994,53.4369823]]},"properties":{"name":"Metrolink","gauge":"1435","layer":"1","bridge":"yes","oneway":"yes","railway":"tram","voltage":"750","frequency":"0","electrified":"contact_line"}},
{"type":"Feature","geometry":{"type":"LineString","coordinates":[[-2.2626994,53.4369823],[-2.2627531,53.4368977],[-2.2628349,53.4368012],[-2.2629279,53.4367181],[-2.2632732,53.4364209],[-2.2634786,53.4362529],[-2.2635554,53.4361761],[-2.2635982,53.4361207],[-2.2636651,53.4359437],[-2.2636865,53.4358726],[-2.2637682,53.4357102],[-2.2638154,53.4356506],[-2.2648302,53.4348207],[-2.265041,53.4346438],[-2.2652915,53.4344239],[-2.2655091,53.4342555],[-2.2659704,53.4339679],[-2.2662023,53.4338387],[-2.2665297,53.4336739],[-2.2668805,53.4335223],[-2.2672216,53.4334089],[-2.2676924,53.4332512],[-2.2680947,53.4331394],[-2.2685055,53.4330333],[-2.2692454,53.4328367],[-2.2700079,53.4326314],[-2.2703509,53.4325343],[-2.2705722,53.4324738],[-2.2710061,53.4323559],[-2.2710267,53.4323498],[-2.2727761,53.4318751],[-2.2741511,53.4315016],[-2.2752236,53.4312103],[-2.2754142,53.4311585],[-2.2764299,53.4308826],[-2.2774011,53.4306132],[-2.2783036,53.4303672],[-2.2789496,53.4301919],[-2.2793359,53.4301152],[-2.2799072,53.4300384],[-2.2816527,53.4298321]]},"properties":{"name":"Metrolink","gauge":"1435","oneway":"yes","railway":"tram","voltage":"750","frequency":"0","electrified":"contact_line"}},
{"type":"Feature","geometry":{"type":"LineString","coordinates":[[-2.2627841,53.4369811],[-2.2627683,53.4370197],[-2.2627539,53.4370647],[-2.2627384,53.4371292]]},"properties":{"name":"Metrolink","gauge":"1435","layer":"1","bridge":"yes","oneway":"yes","railway":"tram","voltage":"750","frequency":"0","electrified":"contact_line"}},
{"type":"Feature","geometry":{"type":"LineString","coordinates":[[-2.1437076,53.4793887],[-2.1418482,53.4792378],[-2.1409562,53.4791556],[-2.140301,53.4791063],[-2.1399763,53.479082],[-2.1390987,53.4790137],[-2.1384421,53.4789591],[-2.1375453,53.4788908],[-2.1368408,53.4788362],[-2.1360847,53.4787872],[-2.1355785,53.478747],[-2.1345286,53.47865],[-2.1341242,53.4786192],[-2.1325755,53.4785214],[-2.1324181,53.4785013],[-2.1323259,53.4784831],[-2.1322199,53.4784532],[-2.1321496,53.4784294],[-2.1319698,53.4783643],[-2.1318685,53.4783311],[-2.1317864,53.4783142],[-2.131438,53.4782789],[-2.1309906,53.4782398],[-2.1303294,53.478182],[-2.1302326,53.4781735]]},"properties":{"gauge":"1435","oneway":"yes","railway":"tram","voltage":"750","frequency":"0","electrified":"contact_line"}},
{"type":"Feature","geometry":{"type":"LineString","coordinates":[[-2.2113552,53.4835916],[-2.2115279,53.4835128],[-2.2116396,53.4834643],[-2.2120261,53.4832849],[-2.2124347,53.4830952],[-2.2127485,53.4829446]]},"properties":{"gauge":"1435","oneway":"yes","railway":"tram","voltage":"750","maxspeed":"25 mph","frequency":"0","electrified":"contact_line"}},
{"type":"Feature","geometry":{"type":"LineString","coordinates":[[-2.2351002,53.4793386],[-2.2353238,53.47947]]},"properties":{"name":"Metrolink","gauge":"1435","railway":"tram","voltage":"750","frequency":"0","electrified":"contact_line"}},
{"type":"Feature","geometry":{"type":"LineString","coordinates":[[-2.1533684,53.479873],[-2.1534202,53.4798721],[-2.1534796,53.4798627],[-2.153548,53.4798448],[-2.1536423,53.4798226],[-2.153707,53.4798114],[-2.1538203,53.479791],[-2.1539146,53.4797834],[-2.1540327,53.4797822],[-2.1541621,53.4797897],[-2.1544779,53.4798188],[-2.1550133,53.4798624],[-2.1554794,53.4799018],[-2.1555869,53.479912],[-2.1556684,53.479925],[-2.1557563,53.47994],[-2.1558424,53.479958],[-2.1559562,53.4799928],[-2.156231,53.4800743],[-2.1563769,53.4801042],[-2.1565338,53.4801214]]},"properties":{"gauge":"1435","railway":"tram","voltage":"750","maxspeed":"10 mph","frequency":"0","electrified":"contact_line"}},
{"type":"Feature","geometry":{"type":"LineString","coordinates":[[-2.1595483,53.4804069],[-2.1590414,53.4803813],[-2.1585759,53.4803424],[-2.1578384,53.4802788],[-2.1572338,53.4802338],[-2.1568259,53.4802026],[-2.1564898,53.4801676]]},"properties":{"gauge":"1435","railway":"tram","voltage":"750","maxspeed":"30 mph","frequency":"0","electrified":"contact_line"}},
{"type":"Feature","geometry":{"type":"LineString","coordinates":[[-2.1564898,53.4801676],[-2.156338,53.4801338],[-2.1562197,53.4801053],[-2.1558604,53.4799935],[-2.1557317,53.4799616],[-2.1555797,53.4799379],[-2.1554748,53.4799288],[-2.1550084,53.4798903],[-2.1544711,53.4798459],[-2.154125,53.4798179],[-2.1539909,53.4798116],[-2.1539234,53.4798127],[-2.1537977,53.4798283],[-2.1536394,53.4798571],[-2.1534863,53.4798959],[-2.1533532,53.4799095],[-2.1532898,53.4799108]]},"properties":{"gauge":"1435","railway":"tram","voltage":"750","maxspeed":"10 mph","frequency":"0","electrified":"contact_line"}},
{"type":"Feature","geometry":{"type":"LineString","coordinates":[[-2.1637036,53.4807375],[-2.1627455,53.4806654],[-2.1616728,53.4805882],[-2.1603396,53.4804723],[-2.1597594,53.4804213],[-2.1595483,53.4804069]]},"properties":{"gauge":"1435","oneway":"yes","railway":"tram","voltage":"750","maxspeed":"30 mph","frequency":"0","electrified":"contact_line"}},
{"type":"Feature","geometry":{"type":"LineString","coordinates":[[-2.2955738,53.407382],[-2.2955685,53.4073433],[-2.2955681,53.407303],[-2.2955774,53.4072548],[-2.2956116,53.4071899],[-2.2956408,53.4071338],[-2.2956604,53.4070825],[-2.2956655,53.4070639],[-2.2956667,53.4069948],[-2.2954128,53.4061493],[-2.2953498,53.4059381],[-2.2952613,53.4056532],[-2.2951978,53.4053822],[-2.2951708,53.4052285],[-2.2951523,53.4049829],[-2.2951113,53.4046327],[-2.2950724,53.4044469],[-2.2950787,53.4043341],[-2.2950989,53.4042755],[-2.2951786,53.4041237],[-2.2952289,53.404021],[-2.2952454,53.4039649]]},"properties":{"name":"Metrolink","gauge":"1435","oneway":"yes","railway":"tram","voltage":"750","frequency":"0","electrified":"contact_line"}},
{"type":"Feature","geometry":{"type":"LineString","coordinates":[[-2.2605673,53.388796],[-2.2628922,53.3890713],[-2.2658848,53.3890909],[-2.2690952,53.3893421],[-2.2711895,53.3895088],[-2.2713588,53.3895292],[-2.2714486,53.3895405],[-2.2715503,53.3895577],[-2.2716234,53.3895779],[-2.2716879,53.389601],[-2.2717569,53.3896256],[-2.2719397,53.3896977]]},"properties":{"name":"Metrolink","gauge":"1435","oneway":"yes","railway":"tram","voltage":"750","frequency":"0","electrified":"contact_line"}},
{"type":"Feature","geometry":{"type":"LineString","coordinates":[[-2.1052548,53.541901],[-2.1047114,53.5421074],[-2.104579,53.5421492],[-2.1044143,53.5421907],[-2.103965,53.54231],[-2.1034434,53.54244],[-2.1028085,53.5425994],[-2.1026165,53.5426496],[-2.1023801,53.5427113],[-2.1021458,53.5427696],[-2.1018903,53.5428378],[-2.1017281,53.5428998],[-2.1015929,53.5429718],[-2.1015681,53.542985],[-2.1014587,53.543056],[-2.1013313,53.5431575]]},"properties":{"electrified":"contact_line","frequency":"0","gauge":"1435","railway":"tram","voltage":"750"}},
{"type":"Feature","geometry":{"type":"LineString","coordinates":[[-2.2952455,53.4795597],[-2.2953496,53.4792514],[-2.2954984,53.4788103],[-2.2955597,53.4786286],[-2.2957137,53.4781777],[-2.2959976,53.477366],[-2.29601,53.4773278],[-2.296108,53.4770254],[-2.2961218,53.4769772],[-2.2961489,53.4768823],[-2.2961699,53.4767806],[-2.2961813,53.4766303],[-2.2961788,53.4765556],[-2.2961582,53.4764259],[-2.2961344,53.4763462],[-2.2961038,53.4762576],[-2.2960328,53.4761365],[-2.2959623,53.4760307],[-2.2958474,53.4758869],[-2.2955414,53.4755325],[-2.2955218,53.4755109],[-2.2954274,53.4754067],[-2.2953755,53.4753443],[-2.2952559,53.4752069],[-2.2951317,53.4750643]]},"properties":{"name":"Metrolink","gauge":"1435","oneway":"yes","railway":"tram","voltage":"750","frequency":"0","electrified":"contact_line"}},
{"type":"Feature","geometry":{"type":"LineString","coordinates":[[-2.2415795,53.486823],[-2.241466,53.4866523],[-2.2413672,53.4864678],[-2.2413325,53.4863839],[-2.2412951,53.4862869],[-2.241267,53.4862083],[-2.241269,53.4861798],[-2.2412718,53.4861388],[-2.2413003,53.486084],[-2.2415507,53.485758],[-2.2416396,53.485638],[-2.2416645,53.4856044],[-2.2419579,53.485208],[-2.2420346,53.4850992],[-2.2420636,53.485058],[-2.2420936,53.4850265],[-2.2421298,53.4849886],[-2.2422934,53.4848515],[-2.2423749,53.4847642],[-2.242632,53.4844398],[-2.2429225,53.4840407],[-2.2429399,53.4840169],[-2.242976,53.4839666],[-2.2433853,53.4833959],[-2.2435103,53.4832408],[-2.2435907,53.4831394]]},"properties":{"electrified":"contact_line","frequency":"0","gauge":"1435","network":"Metrolink","oneway":"yes","railway":"tram","start_date":"2015","voltage":"750"}},
{"type":"Feature","geometry":{"type":"LineString","coordinates":[[-2.2414925,53.486877],[-2.2413453,53.4867282],[-2.2413145,53.4866554],[-2.2412331,53.4864488]]},"properties":{"gauge":"1435","level":"-0.5","oneway":"yes","railway":"tram","voltage":"750","frequency":"0","electrified":"contact_line"}},
{"type":"Feature","geometry":{"type":"LineString","coordinates":[[-2.155456,53.6173496],[-2.1549913,53.6174118]]},"properties":{"gauge":"1435","railway":"tram","voltage":"750","frequency":"0","electrified":"contact_line"}},
{"type":"Feature","geometry":{"type":"LineString","coordinates":[[-2.155429,53.6172752],[-2.1558241,53.6172239],[-2.155918,53.6172127],[-2.1560423,53.6172093],[-2.1561716,53.6172197],[-2.1562743,53.6172293],[-2.1563661,53.6172331]]},"properties":{"gauge":"1435","railway":"tram","voltage":"750","operator":"Metrolink","frequency":"0","electrified":"contact_line"}},
{"type":"Feature","geometry":{"type":"LineString","coordinates":[[-2.2437578,53.477557],[-2.2439185,53.4774454],[-2.2440086,53.4773945],[-2.2440808,53.4773534],[-2.2441829,53.4772953],[-2.2442968,53.4772102],[-2.2444765,53.477078],[-2.245148,53.4766131],[-2.2452228,53.4765598],[-2.2453606,53.4764667],[-2.2454356,53.4764166],[-2.2455621,53.4763448]]},"properties":{"gauge":"1435","oneway":"yes","network":"Metrolink","railway":"tram","voltage":"750","frequency":"0","electrified":"contact_line"}},
{"type":"Feature","geometry":{"type":"LineString","coordinates":[[-2.155456,53.6173496],[-2.1559591,53.6172863],[-2.1563661,53.6172331]]},"properties":{"gauge":"1435","railway":"tram","voltage":"750","operator":"Metrolink","frequency":"0","electrified":"contact_line"}},
{"type":"Feature","geometry":{"type":"LineString","coordinates":[[-2.2456029,53.4763706],[-2.2454664,53.4764649],[-2.2453781,53.4765219],[-2.2453105,53.4765662]]},"properties":{"gauge":"1435","oneway":"yes","network":"Metrolink","railway":"tram","voltage":"750","frequency":"0","electrified":"contact_line"}},
{"type":"Feature","geometry":{"type":"LineString","coordinates":[[-2.2953037,53.4039754],[-2.295284,53.4040301],[-2.2952363,53.4041291],[-2.2951775,53.4042313],[-2.29515,53.4043269],[-2.295159,53.4044457],[-2.2951841,53.4046362],[-2.2952274,53.4049816],[-2.2952741,53.4053383],[-2.2953382,53.4056383],[-2.295481,53.4061553],[-2.2957286,53.4069846],[-2.2957317,53.4070597],[-2.2957235,53.4070939],[-2.2957019,53.4071514],[-2.2956746,53.4071939],[-2.2956485,53.4072373],[-2.2956302,53.4072902],[-2.2956282,53.4073338],[-2.2956338,53.4073829]]},"properties":{"name":"Metrolink","gauge":"1435","oneway":"yes","railway":"tram","voltage":"750","frequency":"0","electrified":"contact_line"}},
{"type":"Feature","geometry":{"type":"LineString","coordinates":[[-2.2944911,53.4013741],[-2.2944715,53.401304],[-2.2944395,53.4011352],[-2.2944287,53.4010499],[-2.2944363,53.4009922],[-2.2944488,53.4009146],[-2.29445,53.4008897],[-2.2944635,53.400829],[-2.2944715,53.4007932],[-2.2944877,53.4007206],[-2.2945174,53.4006382],[-2.2945522,53.4004879],[-2.2945576,53.4002976],[-2.2945254,53.4000881],[-2.2944289,53.3999122],[-2.2942857,53.3997389],[-2.2942116,53.3996643],[-2.2940909,53.3995683],[-2.2939042,53.3994689],[-2.2936863,53.3993756],[-2.2935551,53.3993036],[-2.2934669,53.3992195],[-2.2933828,53.3991221],[-2.293296,53.3990212]]},"properties":{"name":"Metrolink","gauge":"1435","oneway":"yes","railway":"tram","voltage":"750","frequency":"0","electrified":"contact_line"}},
{"type":"Feature","geometry":{"type":"LineString","coordinates":[[-2.2933369,53.3990106],[-2.2934191,53.3991188],[-2.2934968,53.399202],[-2.2935809,53.3992667],[-2.2937161,53.3993421],[-2.2938632,53.3993934],[-2.2939811,53.3994319],[-2.2940716,53.3994635],[-2.2941955,53.3995236],[-2.2943111,53.3995978],[-2.2944208,53.3996899],[-2.294526,53.3998036],[-2.2946682,53.3999824],[-2.2947392,53.4001335],[-2.2947678,53.4002358],[-2.2947856,53.4003471],[-2.2947963,53.4005103],[-2.2947762,53.4006705],[-2.2947094,53.4008189],[-2.294654,53.4008963],[-2.2946064,53.4009683],[-2.2945598,53.4010525],[-2.2945382,53.4011319],[-2.2945317,53.4012196],[-2.2945414,53.4013296]]},"properties":{"name":"Metrolink","gauge":"1435","oneway":"yes","railway":"tram","voltage":"750","frequency":"0","electrified":"contact_line"}},
{"type":"Feature","geometry":{"type":"LineString","coordinates":[[-2.2719397,53.3896977],[-2.2721131,53.3897727],[-2.2721633,53.3897971],[-2.2722212,53.3898252],[-2.2723173,53.3898612],[-2.2723587,53.3898768]]},"properties":{"name":"Metrolink","gauge":"1435","oneway":"yes","railway":"tram","voltage":"750","frequency":"0","electrified":"contact_line"}},
{"type":"Feature","geometry":{"type":"LineString","coordinates":[[-2.272328,53.3898962],[-2.2722913,53.3898838],[-2.2721878,53.3898488],[-2.2721094,53.3898129],[-2.2720809,53.3897999],[-2.2719154,53.3897323],[-2.2718257,53.3897031],[-2.2717483,53.3896778],[-2.2716194,53.3896444],[-2.2714551,53.3896114],[-2.2712941,53.3895854],[-2.2711342,53.3895644],[-2.2706459,53.3895198],[-2.2698607,53.38946],[-2.2690743,53.389387],[-2.2659899,53.3891494],[-2.2658745,53.3891453],[-2.2644002,53.3891296],[-2.2640378,53.3891257],[-2.2628875,53.3891081],[-2.261495,53.388967],[-2.2605564,53.3888593],[-2.2589048,53.3886772],[-2.258059,53.388563],[-2.2570639,53.3884484],[-2.2568626,53.3884231],[-2.2567349,53.3884028],[-2.2566484,53.3883825],[-2.2565786,53.3883552],[-2.2564609,53.3882967]]},"properties":{"name":"Metrolink","gauge":"1435","oneway":"yes","railway":"tram","voltage":"750","frequency":"0","electrified":"contact_line"}},
{"type":"Feature","geometry":{"type":"LineString","coordinates":[[-2.2599906,53.3818907],[-2.2601565,53.3818615],[-2.2603389,53.3818251],[-2.2605802,53.3817708],[-2.2606951,53.3817386]]},"properties":{"name":"Metrolink","gauge":"1435","oneway":"yes","railway":"tram","voltage":"750","frequency":"0","electrified":"contact_line"}},
{"type":"Feature","geometry":{"type":"LineString","coordinates":[[-2.2576454,53.3821242],[-2.2573056,53.3821285],[-2.2570209,53.382132],[-2.256844,53.3821389],[-2.256705,53.3821531],[-2.2565994,53.3821815],[-2.2565095,53.3822245],[-2.2564459,53.3822667],[-2.2564045,53.3823193],[-2.2563788,53.3823726],[-2.2563609,53.3824378],[-2.2563563,53.3825044]]},"properties":{"name":"Metrolink","gauge":"1435","oneway":"yes","railway":"tram","voltage":"750","frequency":"0","electrified":"contact_line"}},
{"type":"Feature","geometry":{"type":"LineString","coordinates":[[-2.2563075,53.3825021],[-2.2563148,53.382363],[-2.2563274,53.3823186],[-2.2563468,53.3822765],[-2.2563904,53.3822229],[-2.256461,53.3821774],[-2.2565493,53.3821434],[-2.2566566,53.3821193],[-2.2567873,53.3821079],[-2.2569595,53.3821019],[-2.2572975,53.3820973],[-2.2576415,53.3820925]]},"properties":{"name":"Metrolink","gauge":"1435","oneway":"yes","railway":"tram","voltage":"750","frequency":"0","electrified":"contact_line"}},
{"type":"Feature","geometry":{"type":"LineString","coordinates":[[-2.2628472,53.3810602],[-2.262924,53.3810369],[-2.2630641,53.3809944],[-2.26317,53.3809552],[-2.2632545,53.3809176],[-2.2633256,53.380872],[-2.2633814,53.3808237],[-2.2634028,53.3808052],[-2.2634593,53.3807303],[-2.2635228,53.3805691],[-2.2635664,53.3804615],[-2.2637182,53.3800639],[-2.2638227,53.3797899],[-2.2638568,53.3796999],[-2.2640766,53.3791323],[-2.2641266,53.3790338],[-2.2641665,53.3789787],[-2.2642206,53.3789183],[-2.2645269,53.3786471],[-2.2645569,53.3786101],[-2.2645736,53.378583],[-2.2645865,53.3785462],[-2.2645818,53.3784872],[-2.2645564,53.3784247],[-2.2644956,53.3783573],[-2.26443,53.3783136],[-2.2641808,53.3782044]]},"properties":{"name":"Metrolink","gauge":"1435","oneway":"yes","railway":"tram","voltage":"750","frequency":"0","electrified":"contact_line"}},
{"type":"Feature","geometry":{"type":"LineString","coordinates":[[-2.2580363,53.3762648],[-2.2581941,53.3762905],[-2.2585551,53.3763572],[-2.2589007,53.3764311],[-2.2592557,53.3765202]]},"properties":{"name":"Metrolink","gauge":"1435","oneway":"yes","railway":"tram","voltage":"750","frequency":"0","electrified":"contact_line"}},
{"type":"Feature","geometry":{"type":"LineString","coordinates":[[-2.2592455,53.3765431],[-2.2590594,53.3764955],[-2.2588852,53.3764533],[-2.2585408,53.3763807],[-2.2581807,53.3763135],[-2.2580233,53.3762894]]},"properties":{"name":"Metrolink","gauge":"1435","oneway":"yes","railway":"tram","voltage":"750","frequency":"0","electrified":"contact_line"}},
{"type":"Feature","geometry":{"type":"LineString","coordinates":[[-2.2494417,53.3732497],[-2.2492762,53.3731628],[-2.2491355,53.3730813],[-2.2490491,53.3730266],[-2.2490159,53.3729855],[-2.2489854,53.3729309],[-2.2489755,53.372876],[-2.2489908,53.3728149],[-2.2490113,53.3727797],[-2.2490515,53.37273],[-2.2491533,53.3726329],[-2.2492819,53.3725303]]},"properties":{"name":"Metrolink","gauge":"1435","oneway":"yes","railway":"tram","voltage":"750","frequency":"0","electrified":"contact_line"}},
{"type":"Feature","geometry":{"type":"LineString","coordinates":[[-2.2493246,53.3725473],[-2.2491704,53.3726721],[-2.2490888,53.3727505],[-2.2490633,53.3727895],[-2.2490412,53.3728418],[-2.2490326,53.3728878],[-2.2490544,53.3729535],[-2.2490863,53.3729972],[-2.2491305,53.3730367],[-2.2491789,53.3730717],[-2.2492999,53.3731439],[-2.2494705,53.3732296]]},"properties":{"name":"Metrolink","gauge":"1435","oneway":"yes","railway":"tram","voltage":"750","frequency":"0","electrified":"contact_line"}},
{"type":"Feature","geometry":{"type":"LineString","coordinates":[[-2.098078,53.4903741],[-2.0975856,53.4904042]]},"properties":{"railway":"tram","voltage":"750","maxspeed":"15 mph","frequency":"0","electrified":"contact_line"}},
{"type":"Feature","geometry":{"type":"LineString","coordinates":[[-2.0980678,53.4903037],[-2.0985043,53.4902775],[-2.0988377,53.4902589],[-2.0988976,53.4902574],[-2.0989402,53.4902564],[-2.0990058,53.4902568],[-2.0990943,53.4902619],[-2.0991918,53.4902676],[-2.0992826,53.4902686],[-2.0993767,53.4902612],[-2.099856,53.4902152]]},"properties":{"electrified":"contact_line","frequency":"0","maxspeed":"15 mph","railway":"tram","voltage":"750"}},
{"type":"Feature","geometry":{"type":"LineString","coordinates":[[-2.1003277,53.4902023],[-2.0995949,53.4902732]]},"properties":{"oneway":"yes","railway":"tram","voltage":"750","maxspeed":"15 mph","frequency":"0","electrified":"contact_line"}},
{"type":"Feature","geometry":{"type":"LineString","coordinates":[[-2.099856,53.4902152],[-2.1000064,53.4901994]]},"properties":{"railway":"tram","voltage":"750","maxspeed":"15 mph","frequency":"0","electrified":"contact_line"}},
{"type":"Feature","geometry":{"type":"LineString","coordinates":[[-2.1205042,53.484629],[-2.1206316,53.4845391],[-2.1207596,53.4844688],[-2.1209421,53.4843908],[-2.1210707,53.4843345],[-2.1211651,53.4842914],[-2.1212627,53.4842342],[-2.1213744,53.4841479],[-2.1214107,53.4841158],[-2.1214673,53.4840658],[-2.1215757,53.4839536]]},"properties":{"gauge":"1435","oneway":"yes","railway":"tram","voltage":"750","maxspeed":"15 mph","frequency":"0","electrified":"contact_line"}},
{"type":"Feature","geometry":{"type":"LineString","coordinates":[[-2.1252975,53.4796365],[-2.1254087,53.4796058],[-2.1256816,53.4795304],[-2.1259262,53.4794496],[-2.1261679,53.4793415],[-2.1263927,53.4792117],[-2.1266605,53.4790427],[-2.1268266,53.4789498],[-2.1270235,53.4788679],[-2.12725,53.4787952],[-2.127747,53.4786675],[-2.1279426,53.4786099],[-2.1281233,53.4785417],[-2.1282639,53.4784696]]},"properties":{"gauge":"1435","oneway":"yes","railway":"tram","voltage":"750","maxspeed":"20 mph","frequency":"0","electrified":"contact_line"}},
{"type":"Feature","geometry":{"type":"LineString","coordinates":[[-2.1302326,53.4781735],[-2.1301049,53.4781652],[-2.1299021,53.4781541],[-2.129755,53.4781475],[-2.1296612,53.4781466],[-2.1295155,53.478149],[-2.1294042,53.4781627],[-2.1292928,53.478176499999999],[-2.1290023,53.4782334],[-2.1288562,53.4782711],[-2.1287602,53.4782958],[-2.1285163,53.478401],[-2.1281668,53.4785645],[-2.1278652,53.4786704],[-2.1272903,53.4788159],[-2.1270534,53.4788861],[-2.1268818,53.4789627],[-2.1266944,53.4790682],[-2.126407,53.4792387],[-2.1261943,53.4793619],[-2.1259528,53.4794678],[-2.1257136,53.4795479],[-2.1254302,53.4796331],[-2.125322,53.4796656]]},"properties":{"gauge":"1435","oneway":"yes","railway":"tram","voltage":"750","maxspeed":"20 mph","frequency":"0","electrified":"contact_line"}},
{"type":"Feature","geometry":{"type":"LineString","coordinates":[[-2.2212473,53.4803525],[-2.2210596,53.4804389],[-2.2208316,53.4805522],[-2.2206972,53.4806178],[-2.2205875,53.4806756],[-2.2203093,53.4808187],[-2.2201991,53.4808732],[-2.2198244,53.481064],[-2.2194198,53.4812723],[-2.2191665,53.4813974],[-2.2190426,53.4814468]]},"properties":{"gauge":"1435","oneway":"yes","railway":"tram","voltage":"750","maxspeed":"30 mph","frequency":"0","electrified":"contact_line"}},
{"type":"Feature","geometry":{"type":"LineString","coordinates":[[-2.101275,53.5431297],[-2.1014302,53.5430083],[-2.1015258,53.5429509],[-2.1015775,53.5429198],[-2.1017628,53.5428407],[-2.1019481,53.5427833],[-2.1027618,53.5425787],[-2.1027925,53.542571],[-2.1034248,53.5424109],[-2.1039475,53.5422789],[-2.104386,53.5421642],[-2.1045496,53.5421183],[-2.1046691,53.5420812],[-2.1051187,53.5419051],[-2.1052632,53.5418469],[-2.1064098,53.5413782],[-2.1066384,53.5413019],[-2.106752,53.5412746],[-2.1070146,53.5412176],[-2.1076144,53.5411109],[-2.1081605,53.5410132],[-2.108469,53.5409605],[-2.1088341,53.5408956],[-2.1090992,53.5408507],[-2.1102662,53.5406281],[-2.1109814,53.540499],[-2.1110814,53.5404808],[-2.1111425,53.5404694],[-2.1113597,53.5404301]]},"properties":{"electrified":"contact_line","frequency":"0","gauge":"1435","railway":"tram","source":"Bing","voltage":"750"}},
{"type":"Feature","geometry":{"type":"LineString","coordinates":[[-2.122973,53.5402472],[-2.1228015,53.5401873],[-2.1226106,53.5401419],[-2.122419,53.5401168],[-2.1222427,53.5400932],[-2.1218112,53.5400391],[-2.1212876,53.5399764],[-2.1211815,53.5399649],[-2.1208919,53.5399288]]},"properties":{"gauge":"1435","oneway":"yes","source":"GPS","railway":"tram","voltage":"750","frequency":"0","electrified":"contact_line"}},
{"type":"Feature","geometry":{"type":"LineString","coordinates":[[-2.1208997,53.5398977],[-2.1211981,53.5399355],[-2.1212672,53.5399421],[-2.1218271,53.5400101],[-2.1224476,53.5400896],[-2.1226002,53.5401076],[-2.1227986,53.5401475],[-2.1230037,53.5402192]]},"properties":{"gauge":"1435","oneway":"yes","railway":"tram","voltage":"750","frequency":"0","electrified":"contact_line"}},
{"type":"Feature","geometry":{"type":"LineString","coordinates":[[-2.2827831,53.4692994],[-2.2828645,53.4693114],[-2.2828712,53.4693122],[-2.2829585,53.4693222],[-2.2830587,53.4693383],[-2.283188,53.469359],[-2.283363,53.4693859],[-2.2834021,53.4693919],[-2.2835097,53.4694161],[-2.2836356,53.4694539],[-2.2837789,53.4695097],[-2.2838708,53.4695609],[-2.2839937,53.469628],[-2.2840702,53.4696818],[-2.2841213,53.4697369],[-2.2841426,53.4697968],[-2.2841474,53.4698371],[-2.2841466,53.4698725],[-2.2841424,53.4699096],[-2.284129,53.4699762],[-2.284108,53.4700457]]},"properties":{"electrified":"contact_line","frequency":"0","gauge":"1435","name":"Metrolink","oneway":"yes","railway":"tram","voltage":"750"}},
{"type":"Feature","geometry":{"type":"LineString","coordinates":[[-2.2821657,53.468281],[-2.282174,53.4682502],[-2.2821891,53.4681939],[-2.2822651,53.4679157]]},"properties":{"electrified":"contact_line","frequency":"0","gauge":"1435","name":"Metrolink","oneway":"yes","railway":"tram","voltage":"750"}},
{"type":"Feature","geometry":{"type":"LineString","coordinates":[[-2.2971436,53.4721415],[-2.2976627,53.4720174],[-2.2977344,53.4720004]]},"properties":{"name":"Metrolink","gauge":"1435","railway":"tram","voltage":"750","frequency":"0","electrified":"contact_line"}},
{"type":"Feature","geometry":{"type":"LineString","coordinates":[[-2.3344891,53.4830722],[-2.3350479,53.4829969],[-2.3351975,53.4829773]]},"properties":{"name":"Metrolink","gauge":"1435","usage":"branch","railway":"tram","voltage":"750","frequency":"0","electrified":"contact_line"}},
{"type":"Feature","geometry":{"type":"LineString","coordinates":[[-2.3180198,53.4837232],[-2.3188484,53.4837967],[-2.319458,53.4838469],[-2.3195949,53.4838504],[-2.3199309,53.4838638],[-2.320033,53.4838674],[-2.3208313,53.4838921],[-2.3209273,53.4838951],[-2.3214035,53.483915],[-2.3218982,53.4839357],[-2.3229297,53.4839789],[-2.3237384,53.4840049],[-2.3244988,53.4840294],[-2.3250058,53.4840457],[-2.3251897,53.4840491],[-2.3253437,53.484041],[-2.3254419,53.4840249],[-2.3254987,53.4840117],[-2.3256318,53.483981],[-2.3257772,53.483968],[-2.3258666,53.4839678],[-2.3258935,53.4839678],[-2.3261651,53.4839686]]},"properties":{"name":"Metrolink","gauge":"1435","oneway":"yes","railway":"tram","voltage":"750","frequency":"0","electrified":"contact_line"}},
{"type":"Feature","geometry":{"type":"LineString","coordinates":[[-2.2811252,53.4664008],[-2.2810651,53.4663765],[-2.2809666,53.4663215],[-2.2803427,53.4658925],[-2.2798393,53.4655372]]},"properties":{"name":"Metrolink","gauge":"1435","oneway":"yes","railway":"tram","voltage":"750","frequency":"0","electrified":"contact_line"}},
{"type":"Feature","geometry":{"type":"LineString","coordinates":[[-2.281211,53.4664232],[-2.2811651,53.4664125],[-2.2811252,53.4664008]]},"properties":{"name":"Metrolink","gauge":"1435","oneway":"yes","railway":"tram","voltage":"750","frequency":"0","electrified":"contact_line"}},
{"type":"Feature","geometry":{"type":"LineString","coordinates":[[-2.2565262,53.5317036],[-2.2566559,53.5315451]]},"properties":{"name":"Heaton Park Tramway","usage":"tourism","covered":"yes","railway":"tram","voltage":"650","frequency":"0","electrified":"contact_line","opening_hours":"Jun-Aug Su,PH 12:00-17:00; Dec-Feb Su,PH 12:00-16:00"}},
{"type":"Feature","geometry":{"type":"LineString","coordinates":[[-2.2492453,53.532229],[-2.2490574,53.5322235],[-2.2489868,53.532221],[-2.2489191,53.5322136],[-2.2488547,53.5321957],[-2.2485688,53.5320694],[-2.248525,53.5320527],[-2.2484839,53.5320421],[-2.2484434,53.5320357],[-2.2483698,53.5320299]]},"properties":{"name":"Heaton Park Tramway","usage":"tourism","railway":"tram","service":"siding","voltage":"650","frequency":"0","electrified":"contact_line"}}
]}
