{"type":"FeatureCollection","features":[
{"type":"Feature","geometry":{"type":"Point","coordinates":[-3.0370945,53.9004369]},"properties":{"railway":"crossing","crossing":"traffic_signals"}},
{"type":"Feature","geometry":{"type":"Point","coordinates":[-3.0079293,53.9276024]},"properties":{"name":"Fleetwood Ferry","tram":"yes","railway":"tram_stop","wheelchair":"yes","public_transport":"stop_position"}},
{"type":"Feature","geometry":{"type":"Point","coordinates":[-3.0397942,53.8774644]},"properties":{"name":"Cleveleys","tram":"yes","railway":"tram_stop","public_transport":"stop_position"}},
{"type":"Feature","geometry":{"type":"Point","coordinates":[-3.0399303,53.8913916]},"properties":{"railway":"crossing","crossing":"uncontrolled"}},
{"type":"Feature","geometry":{"type":"Point","coordinates":[-3.040158,53.8769663]},"properties":{"railway":"level_crossing","crossing":"traffic_signals"}},
{"type":"Feature","geometry":{"type":"Point","coordinates":[-3.0397592,53.8779253]},"properties":{"railway":"crossing","crossing":"uncontrolled"}},
{"type":"Feature","geometry":{"type":"Point","coordinates":[-3.0394767,53.8972685]},"properties":{"railway":"crossing","crossing":"uncontrolled"}},
{"type":"Feature","geometry":{"type":"Point","coordinates":[-3.0176055,53.9194435]},"properties":{"railway":"crossing","crossing":"traffic_signals"}},
{"type":"Feature","geometry":{"type":"Point","coordinates":[-3.0315903,53.9045676]},"properties":{"railway":"level_crossing"}},
{"type":"Feature","geometry":{"type":"Point","coordinates":[-3.0389111,53.8807468]},"properties":{"railway":"level_crossing","crossing":"uncontrolled"}},
{"type":"Feature","geometry":{"type":"Point","coordinates":[-3.0428437,53.8721388]},"properties":{"crossing":"traffic_signals","railway":"crossing"}},
{"type":"Feature","geometry":{"type":"Point","coordinates":[-3.0396675,53.8837349]},"properties":{"railway":"level_crossing","crossing":"uncontrolled"}},
{"type":"Feature","geometry":{"type":"Point","coordinates":[-3.0427202,53.8705832]},"properties":{"highway":"traffic_signals","railway":"crossing","crossing":"traffic_signals"}},
{"type":"Feature","geometry":{"type":"Point","coordinates":[-3.0400591,53.8857648]},"properties":{"railway":"level_crossing","crossing":"uncontrolled"}},
{"type":"Feature","geometry":{"type":"Point","coordinates":[-3.0476516,53.865689]},"properties":{"railway":"level_crossing","crossing":"traffic_signals","supervised":"no","crossing:light":"yes","crossing:barrier":"no"}},
{"type":"Feature","geometry":{"type":"Point","coordinates":[-3.0299907,53.9061557]},"properties":{"railway":"crossing","crossing":"traffic_signals"}},
{"type":"Feature","geometry":{"type":"Point","coordinates":[-3.0402472,53.8769129]},"properties":{"railway":"level_crossing","crossing":"traffic_signals"}},
{"type":"Feature","geometry":{"type":"Point","coordinates":[-3.0573168,53.7919512]},"properties":{"railway":"switch"}},
{"type":"Feature","geometry":{"type":"Point","coordinates":[-3.0555431,53.8076083]},"properties":{"railway":"switch"}},
{"type":"Feature","geometry":{"type":"Point","coordinates":[-3.0567862,53.7930418]},"properties":{"railway":"switch"}},
{"type":"Feature","geometry":{"type":"Point","coordinates":[-3.0556812,53.8091503]},"properties":{"railway":"switch"}},
{"type":"Feature","geometry":{"type":"Point","coordinates":[-3.0580612,53.7907722]},"properties":{"crossing:barrier":"no","railway":"level_crossing","supervised":"no"}},
{"type":"Feature","geometry":{"type":"Point","coordinates":[-3.0554692,53.8075672]},"properties":{"railway":"switch"}},
{"type":"Feature","geometry":{"type":"Point","coordinates":[-3.0580148,53.7907669]},"properties":{"crossing:barrier":"no","railway":"level_crossing","supervised":"no"}},
{"type":"Feature","geometry":{"type":"Point","coordinates":[-3.0568602,53.7929137]},"properties":{"railway":"railway_crossing"}},
{"type":"Feature","geometry":{"type":"Point","coordinates":[-3.0300903,53.9061614]},"properties":{"railway":"crossing","crossing":"traffic_signals"}},
{"type":"Feature","geometry":{"type":"Point","coordinates":[-3.0466752,53.8678861]},"properties":{"railway":"crossing","crossing":"uncontrolled"}},
{"type":"Feature","geometry":{"type":"Point","coordinates":[-3.0370466,53.9004183]},"properties":{"railway":"crossing","crossing":"traffic_signals"}},
{"type":"Feature","geometry":{"type":"Point","coordinates":[-3.017024,53.920016]},"properties":{"name":"Fishermans Walk","public_transport":"stop_position","railway":"tram_stop","tram":"yes"}},
{"type":"Feature","geometry":{"type":"Point","coordinates":[-3.0170908,53.9200375]},"properties":{"name":"Fishermans Walk","railway":"tram_stop"}},
{"type":"Feature","geometry":{"type":"Point","coordinates":[-3.0070175,53.9266329]},"properties":{"railway":"switch"}},
{"type":"Feature","geometry":{"type":"Point","coordinates":[-3.039404,53.8788139]},"properties":{"railway":"crossing","crossing":"uncontrolled"}},
{"type":"Feature","geometry":{"type":"Point","coordinates":[-3.0392055,53.8794424]},"properties":{"railway":"crossing","crossing":"uncontrolled"}},
{"type":"Feature","geometry":{"type":"Point","coordinates":[-3.0387891,53.881395]},"properties":{"railway":"crossing","crossing":"uncontrolled"}},
{"type":"Feature","geometry":{"type":"Point","coordinates":[-3.0403273,53.887861]},"properties":{"railway":"crossing","crossing":"uncontrolled"}},
{"type":"Feature","geometry":{"type":"Point","coordinates":[-3.0430414,53.8738464]},"properties":{"railway":"crossing","crossing":"uncontrolled"}},
{"type":"Feature","geometry":{"type":"Point","coordinates":[-3.0427475,53.870666]},"properties":{"railway":"crossing","crossing":"traffic_signals"}},
{"type":"Feature","geometry":{"type":"Point","coordinates":[-3.0476893,53.8656962]},"properties":{"railway":"level_crossing","supervised":"no","crossing:light":"yes","crossing:barrier":"no"}},
{"type":"Feature","geometry":{"type":"Point","coordinates":[-3.0431148,53.8738414]},"properties":{"railway":"crossing","crossing":"uncontrolled"}},
{"type":"Feature","geometry":{"type":"Point","coordinates":[-3.0403221,53.8769277]},"properties":{"railway":"level_crossing","crossing":"traffic_signals"}},
{"type":"Feature","geometry":{"type":"Point","coordinates":[-3.0397678,53.8778989]},"properties":{"railway":"level_crossing","supervised":"no","crossing:light":"yes","crossing:barrier":"no"}},
{"type":"Feature","geometry":{"type":"Point","coordinates":[-3.0397003,53.8778976]},"properties":{"railway":"crossing","crossing":"uncontrolled"}},
{"type":"Feature","geometry":{"type":"Point","coordinates":[-3.0394793,53.8788233]},"properties":{"railway":"crossing","crossing":"uncontrolled"}},
{"type":"Feature","geometry":{"type":"Point","coordinates":[-3.0560539,53.7779479]},"properties":{"name":"Starr Gate","tram":"yes","railway":"tram_stop","public_transport":"stop_position"}},
{"type":"Feature","geometry":{"type":"Point","coordinates":[-3.0553482,53.8326567]},"properties":{"railway":"crossing","crossing":"uncontrolled"}},
{"type":"Feature","geometry":{"type":"Point","coordinates":[-3.0554056,53.8326623]},"properties":{"railway":"crossing","crossing":"uncontrolled"}},
{"type":"Feature","geometry":{"type":"Point","coordinates":[-3.0467096,53.8679176]},"properties":{"railway":"crossing","crossing":"uncontrolled"}},
{"type":"Feature","geometry":{"type":"Point","coordinates":[-3.0428809,53.8721352]},"properties":{"railway":"crossing","crossing":"traffic_signals"}},
{"type":"Feature","geometry":{"type":"Point","coordinates":[-3.0402608,53.8769667]},"properties":{"railway":"level_crossing","crossing":"traffic_signals"}},
{"type":"Feature","geometry":{"type":"Point","coordinates":[-3.0392888,53.8794507]},"properties":{"railway":"crossing","crossing":"uncontrolled"}},
{"type":"Feature","geometry":{"type":"Point","coordinates":[-3.0389826,53.8807598]},"properties":{"railway":"level_crossing","crossing":"uncontrolled"}},
{"type":"Feature","geometry":{"type":"Point","coordinates":[-3.0388676,53.881398]},"properties":{"railway":"crossing","crossing":"uncontrolled"}},
{"type":"Feature","geometry":{"type":"Point","coordinates":[-3.0397247,53.8837297]},"properties":{"railway":"level_crossing","crossing":"uncontrolled"}},
{"type":"Feature","geometry":{"type":"Point","coordinates":[-3.0401265,53.885751]},"properties":{"railway":"level_crossing","crossing":"uncontrolled"}},
{"type":"Feature","geometry":{"type":"Point","coordinates":[-3.0403714,53.8878599]},"properties":{"railway":"crossing","crossing":"uncontrolled"}},
{"type":"Feature","geometry":{"type":"Point","coordinates":[-3.0399888,53.891385]},"properties":{"railway":"crossing","crossing":"uncontrolled"}},
{"type":"Feature","geometry":{"type":"Point","coordinates":[-3.0395181,53.8972592]},"properties":{"railway":"crossing","crossing":"uncontrolled"}},
{"type":"Feature","geometry":{"type":"Point","coordinates":[-3.0315745,53.9046472]},"properties":{"railway":"level_crossing"}},
{"type":"Feature","geometry":{"type":"Point","coordinates":[-3.0177091,53.9194508]},"properties":{"railway":"crossing","crossing":"traffic_signals"}},
{"type":"Feature","geometry":{"type":"Point","coordinates":[-3.0135546,53.9216919]},"properties":{"railway":"level_crossing"}},
{"type":"Feature","geometry":{"type":"Point","coordinates":[-3.0092611,53.9235318]},"properties":{"railway":"level_crossing"}},
{"type":"Feature","geometry":{"type":"Point","coordinates":[-3.057192,53.7927184]},"properties":{"railway":"switch"}},
{"type":"Feature","geometry":{"type":"Point","coordinates":[-3.0562415,53.8178694]},"properties":{"name":"North Pier (Heritage Stop)","railway":"tram_stop","wheelchair":"yes","public_transport":"stop_position"}},
{"type":"Feature","geometry":{"type":"Point","coordinates":[-2.4589284,53.6804014]},"properties":{"railway":"switch"}},
{"type":"Feature","geometry":{"type":"Point","coordinates":[-3.0202348,53.9169629]},"properties":{"railway":"crossing","crossing":"traffic_signals"}},
{"type":"Feature","geometry":{"type":"Point","coordinates":[-3.0201631,53.9169796]},"properties":{"railway":"crossing","crossing":"traffic_signals"}},
{"type":"Feature","geometry":{"type":"Point","coordinates":[-3.0201353,53.9170035]},"properties":{"railway":"crossing","crossing":"traffic_signals"}},
{"type":"Feature","geometry":{"type":"Point","coordinates":[-3.0201322,53.9170637]},"properties":{"railway":"crossing","crossing":"traffic_signals"}},
{"type":"Feature","geometry":{"type":"Point","coordinates":[-3.0521517,53.8526003]},"properties":{"railway":"crossing","crossing":"uncontrolled","supervised":"yes"}},
{"type":"Feature","geometry":{"type":"Point","coordinates":[-3.0522076,53.85261]},"properties":{"crossing":"uncontrolled","railway":"crossing","supervised":"yes"}},
{"type":"Feature","geometry":{"type":"Point","coordinates":[-3.0117712,53.9224626]},"properties":{"name":"London Street","tram":"yes","railway":"tram_stop","public_transport":"stop_position"}},
{"type":"Feature","geometry":{"type":"Point","coordinates":[-3.0324661,53.9036444]},"properties":{"name":"Broadwater","tram":"yes","railway":"tram_stop","public_transport":"stop_position"}},
{"type":"Feature","geometry":{"type":"Point","coordinates":[-3.0276753,53.909646]},"properties":{"name":"Heathfield Road","tram":"yes","railway":"tram_stop","public_transport":"stop_position"}},
{"type":"Feature","geometry":{"type":"Point","coordinates":[-3.0239196,53.913328]},"properties":{"name":"Lindel Road","tram":"yes","railway":"tram_stop","public_transport":"stop_position"}},
{"type":"Feature","geometry":{"type":"Point","coordinates":[-3.0403796,53.8874421]},"properties":{"name":"Rossall Beach","tram":"yes","railway":"tram_stop","public_transport":"stop_position"}},
{"type":"Feature","geometry":{"type":"Point","coordinates":[-3.0394791,53.8968537]},"properties":{"name":"Rossall School","tram":"yes","railway":"tram_stop","public_transport":"stop_position"}},
{"type":"Feature","geometry":{"type":"Point","coordinates":[-3.0369652,53.900462]},"properties":{"name":"Rossall Square","tram":"yes","railway":"tram_stop","public_transport":"stop_position"}},
{"type":"Feature","geometry":{"type":"Point","coordinates":[-3.0205831,53.916544]},"properties":{"name":"Stanley Road","tram":"yes","railway":"tram_stop","public_transport":"stop_position"}},
{"type":"Feature","geometry":{"type":"Point","coordinates":[-3.0395133,53.8833673]},"properties":{"name":"Thornton Gate","tram":"yes","railway":"tram_stop","public_transport":"stop_position"}},
{"type":"Feature","geometry":{"type":"Point","coordinates":[-3.0086247,53.9247115]},"properties":{"name":"Victoria Street","tram":"yes","railway":"tram_stop","public_transport":"stop_position"}},
{"type":"Feature","geometry":{"type":"Point","coordinates":[-3.0390222,53.8802342]},"properties":{"name":"West Drive","tram":"yes","railway":"tram_stop","public_transport":"stop_position"}},
{"type":"Feature","geometry":{"type":"Point","coordinates":[-3.0085161,53.9256217]},"properties":{"railway":"switch"}},
{"type":"Feature","geometry":{"type":"Point","coordinates":[-3.0085488,53.9258454]},"properties":{"railway":"switch"}},
{"type":"Feature","geometry":{"type":"Point","coordinates":[-3.0567636,53.7931294]},"properties":{"railway":"crossing"}},
{"type":"Feature","geometry":{"type":"Point","coordinates":[-3.0568165,53.7931322]},"properties":{"railway":"crossing"}},
{"type":"Feature","geometry":{"type":"Point","coordinates":[-3.0580792,53.7829426]},"properties":{"railway":"crossing"}},
{"type":"Feature","geometry":{"type":"Point","coordinates":[-3.0581196,53.7829417]},"properties":{"railway":"crossing"}},
{"type":"Feature","geometry":{"type":"Point","coordinates":[-3.0560645,53.7779272]},"properties":{"name":"Starr Gate","tram":"yes","railway":"tram_stop","public_transport":"stop_position"}},
{"type":"Feature","geometry":{"type":"Point","coordinates":[-3.0119483,53.9223867]},"properties":{"railway":"level_crossing"}},
{"type":"Feature","geometry":{"type":"Point","coordinates":[-3.011144,53.9227266]},"properties":{"railway":"level_crossing"}},
{"type":"Feature","geometry":{"type":"Point","coordinates":[-3.0127075,53.9220583]},"properties":{"railway":"level_crossing"}},
{"type":"Feature","geometry":{"type":"Point","coordinates":[-3.0156725,53.920787]},"properties":{"railway":"level_crossing"}},
{"type":"Feature","geometry":{"type":"Point","coordinates":[-3.0162188,53.920555]},"properties":{"railway":"level_crossing"}},
{"type":"Feature","geometry":{"type":"LineString","coordinates":[[-3.0550439,53.7775312],[-3.0548323,53.7774406],[-3.0546644,53.7773258],[-3.0546168,53.7772375],[-3.0546644,53.7771482],[-3.0547512,53.7770567],[-3.0548876,53.7769961],[-3.0550595,53.776989],[-3.0552052,53.7770062],[-3.0557143,53.7771866],[-3.0559256,53.7772676],[-3.0560016,53.7773454],[-3.0560927,53.7777294],[-3.0561447,53.7778181],[-3.0562561,53.7779117],[-3.0564878,53.7780062],[-3.0566296,53.7780611],[-3.0567783,53.7781187],[-3.0569059,53.7781682],[-3.0573129,53.7783444],[-3.057528,53.7785218]]},"properties":{"note":"approximate","oneway":"yes","source":"memory","railway":"tram","voltage":"600","electrified":"contact_line"}},
{"type":"Feature","geometry":{"type":"LineString","coordinates":[[-3.0397359,53.8844408],[-3.0397677,53.8843047]]},"properties":{"railway":"tram","voltage":"600","electrified":"contact_line"}},
{"type":"Feature","geometry":{"type":"LineString","coordinates":[[-3.0528347,53.8064761],[-3.0527055,53.806549],[-3.05267,53.8066456],[-3.0529858,53.8074057],[-3.0529917,53.8074249],[-3.0530197,53.8075153]]},"properties":{"name":"Blundell Street","oneway":"yes","highway":"unclassified","railway":"tram","voltage":"600","electrified":"contact_line"}},
{"type":"Feature","geometry":{"type":"LineString","coordinates":[[-3.0552459,53.8072501],[-3.0551746,53.8072007],[-3.0550072,53.8070815],[-3.0546773,53.8068178]]},"properties":{"psv":"yes","ref":"B5262","name":"Lytham Road","tracks":"2","highway":"secondary","railway":"tram","voltage":"600","maxspeed":"30 mph","electrified":"contact_line"}},
{"type":"Feature","geometry":{"type":"LineString","coordinates":[[-3.055589,53.8198294],[-3.055514,53.8199785],[-3.0553546,53.820467],[-3.0552749,53.8207415],[-3.0552167,53.8209115],[-3.0551579,53.8211158],[-3.0551441,53.8212297],[-3.05516,53.82132],[-3.0552244,53.8215529],[-3.0553865,53.8221395]]},"properties":{"oneway":"yes","tracks":"1","railway":"tram","voltage":"600","electrified":"contact_line"}},
{"type":"Feature","geometry":{"type":"LineString","coordinates":[[-3.0398967,53.8850142],[-3.0397748,53.8847167],[-3.0397506,53.8845531],[-3.0397359,53.8844408],[-3.0397064,53.8843641],[-3.0396822,53.8842685]]},"properties":{"railway":"tram","voltage":"600","electrified":"contact_line"}},
{"type":"Feature","geometry":{"type":"LineString","coordinates":[[-3.0576666,53.7914656],[-3.0575293,53.7916592],[-3.0573876,53.7918541],[-3.0573168,53.7919512],[-3.0572125,53.7920991],[-3.0571292,53.79223],[-3.0570403,53.7924162],[-3.0569437,53.7926273],[-3.0568804,53.7928261],[-3.0568602,53.7929137],[-3.0568255,53.7930734],[-3.0568165,53.7931322],[-3.0567123,53.7938166],[-3.056552,53.7947549],[-3.0564319,53.795712],[-3.0562636,53.7972705],[-3.0559861,53.798661],[-3.0558847,53.7993016],[-3.0556403,53.8022301],[-3.0556058,53.8027783],[-3.0555674,53.8032544],[-3.0555412,53.803836],[-3.0555306,53.8046631],[-3.0555011,53.8064786],[-3.0555106,53.8068114],[-3.0555267,53.8073951],[-3.0555431,53.8076083],[-3.0555473,53.8076632],[-3.0555819,53.8080376],[-3.0557212,53.8090726],[-3.0558045,53.8096162],[-3.0558369,53.8099017],[-3.0558516,53.8101291],[-3.0558306,53.8103953],[-3.0556775,53.8111743],[-3.0556529,53.8113755],[-3.0556346,53.8115258],[-3.0555965,53.8119748],[-3.0556029,53.8123783],[-3.0558286,53.8142831],[-3.0559144,53.8146492],[-3.0559975,53.8149494],[-3.0560475,53.8152127],[-3.0560814,53.81563],[-3.0560939,53.8158674],[-3.0561139,53.8163387],[-3.0561369,53.8169227],[-3.056157,53.8173864],[-3.0561606,53.8174695],[-3.0561923,53.8178054],[-3.0562022,53.8180837],[-3.0562094,53.8182843],[-3.0562171,53.8185019],[-3.0561744,53.8187427],[-3.0561573,53.81879],[-3.0561418,53.818833],[-3.0560665,53.8190413],[-3.0558987,53.8193182],[-3.055589,53.8198294]]},"properties":{"electrified":"contact_line","note":"approximate","oneway":"yes","railway":"tram","voltage":"600"}},
{"type":"Feature","geometry":{"type":"LineString","coordinates":[[-3.0530197,53.8075153],[-3.0532627,53.8087858],[-3.0533034,53.808957],[-3.0533156,53.8090038]]},"properties":{"name":"Blundell Street","highway":"unclassified","railway":"tram"}},
{"type":"Feature","geometry":{"type":"LineString","coordinates":[[-3.057528,53.7785218],[-3.0575862,53.7786124],[-3.0576058,53.7786945],[-3.0576994,53.7792656],[-3.0578796,53.7806492],[-3.0579791,53.7815893],[-3.0580922,53.7826747],[-3.0581196,53.7829417],[-3.0582315,53.7840307],[-3.0583178,53.784817],[-3.058364,53.7854521],[-3.0583769,53.7859956],[-3.0583551,53.7868889],[-3.058317,53.7873676],[-3.0582895,53.7879302],[-3.0582395,53.7890921],[-3.0581964,53.7897758],[-3.0581526,53.7905057],[-3.0581214,53.7906427],[-3.0580612,53.7907722],[-3.0580074,53.7909022],[-3.0579564,53.7910207],[-3.0578828,53.7911475],[-3.0577971,53.7912832],[-3.0576666,53.7914656]]},"properties":{"oneway":"yes","railway":"tram","voltage":"600","electrified":"contact_line"}},
{"type":"Feature","geometry":{"type":"LineString","coordinates":[[-3.0549268,53.8090012],[-3.0548047,53.8089628],[-3.0543075,53.8089747],[-3.0542161,53.8089788],[-3.053889,53.8089892],[-3.0537313,53.8089923],[-3.0533156,53.8090038]]},"properties":{"name":"Princess Street","highway":"unclassified","railway":"tram"}},
{"type":"Feature","geometry":{"type":"LineString","coordinates":[[-3.0553865,53.8221395],[-3.055421,53.8222501],[-3.0554794,53.8224889],[-3.0555162,53.8226657],[-3.0555504,53.8228349],[-3.0555848,53.8230387],[-3.0556777,53.8237013],[-3.0556777,53.8238833],[-3.0556131,53.824814],[-3.0555944,53.8254189],[-3.0556115,53.8261242],[-3.0557149,53.8281427],[-3.0557629,53.8292171],[-3.0558161,53.8303317],[-3.0558345,53.8307948],[-3.055863,53.8313235],[-3.0558989,53.8320236],[-3.0558729,53.8321541],[-3.0558073,53.8322741],[-3.0557142,53.8323789],[-3.0555842,53.8324983],[-3.0554724,53.8325903],[-3.0554056,53.8326623],[-3.0553617,53.8327096],[-3.0553266,53.8327562],[-3.0552667,53.8328358],[-3.0551814,53.8329937],[-3.0551424,53.8331247],[-3.0551105,53.8332849]]},"properties":{"note":"approximate","oneway":"yes","railway":"tram","voltage":"600","electrified":"contact_line"}},
{"type":"Feature","geometry":{"type":"LineString","coordinates":[[-3.0518483,53.8064253],[-3.0518778,53.8064459],[-3.0519623,53.806476],[-3.0520427,53.8064958],[-3.0521339,53.8065116],[-3.0522273,53.8065161]]},"properties":{"railway":"tram","voltage":"600","electrified":"contact_line"}},
{"type":"Feature","geometry":{"type":"LineString","coordinates":[[-3.052142,53.8063857],[-3.0521836,53.8064174],[-3.0522359,53.806438],[-3.0522908,53.8064475]]},"properties":{"railway":"tram","voltage":"600","electrified":"contact_line"}},
{"type":"Feature","geometry":{"type":"LineString","coordinates":[[-3.0520575,53.8063968],[-3.0520897,53.8064277],[-3.0521366,53.8064601],[-3.0522215,53.8064875]]},"properties":{"railway":"tram","voltage":"600","electrified":"contact_line"}},
{"type":"Feature","geometry":{"type":"LineString","coordinates":[[-3.0523391,53.8063556],[-3.0523887,53.8064015],[-3.0524545,53.80643],[-3.0524773,53.8064365],[-3.0525162,53.8064475],[-3.0526485,53.8064593]]},"properties":{"railway":"tram","voltage":"600","electrified":"contact_line"}},
{"type":"Feature","geometry":{"type":"LineString","coordinates":[[-3.0521769,53.8063794],[-3.0522144,53.8064039],[-3.0522908,53.8064475],[-3.052366,53.8064688],[-3.0524451,53.8064744],[-3.0525149,53.8064779]]},"properties":{"railway":"tram","voltage":"600","electrified":"contact_line"}},
{"type":"Feature","geometry":{"type":"LineString","coordinates":[[-3.0524156,53.8063477],[-3.0524518,53.8063794],[-3.0525094,53.8064102],[-3.0525846,53.8064292],[-3.0526543,53.8064372],[-3.0527491,53.806446]]},"properties":{"railway":"tram","voltage":"600","electrified":"contact_line"}},
{"type":"Feature","geometry":{"type":"LineString","coordinates":[[-3.05309,53.8064314],[-3.052956,53.8064229],[-3.05283,53.8064411],[-3.0526945,53.8064823],[-3.0525859,53.8065362],[-3.0525622,53.80656],[-3.0525497,53.8065726],[-3.0525229,53.8066462],[-3.0526972,53.8070794],[-3.0527562,53.8072077],[-3.0527964,53.8072473],[-3.0528783,53.8073099],[-3.0529858,53.8074057]]},"properties":{"railway":"tram","voltage":"600","electrified":"contact_line"}},
{"type":"Feature","geometry":{"type":"LineString","coordinates":[[-3.0522855,53.8063611],[-3.0523297,53.8063984],[-3.0524209,53.8064269],[-3.0524773,53.8064365]]},"properties":{"railway":"tram","voltage":"600","electrified":"contact_line"}},
{"type":"Feature","geometry":{"type":"LineString","coordinates":[[-3.0519811,53.8064094],[-3.0520173,53.8064364],[-3.0521044,53.8064696],[-3.052197,53.8064847],[-3.0522215,53.8064875],[-3.0523069,53.8064974],[-3.0523522,53.8065007],[-3.0524236,53.8065084],[-3.0525108,53.8065346],[-3.0525622,53.80656],[-3.0526208,53.8065979],[-3.05267,53.8066456]]},"properties":{"railway":"tram","voltage":"600","electrified":"contact_line"}},
{"type":"Feature","geometry":{"type":"LineString","coordinates":[[-3.051745,53.8064419],[-3.0517651,53.8064609],[-3.0518671,53.8065045],[-3.0519408,53.806529],[-3.0520682,53.8065346],[-3.0522273,53.8065161],[-3.0523136,53.8065061],[-3.0523522,53.8065007],[-3.0525149,53.8064779],[-3.0526485,53.8064593],[-3.0527388,53.8064467],[-3.0527491,53.806446],[-3.05283,53.8064411]]},"properties":{"railway":"tram","voltage":"600","electrified":"contact_line"}},
{"type":"Feature","geometry":{"type":"LineString","coordinates":[[-3.0471581,53.8672085],[-3.0471813,53.8672641],[-3.0472551,53.8673376],[-3.0473248,53.8673803],[-3.0475286,53.867423],[-3.0477298,53.8674262],[-3.0478881,53.8673803],[-3.0479605,53.8673139],[-3.0479846,53.8672474],[-3.04799,53.8671525],[-3.0479524,53.8670877],[-3.0478505,53.8670276],[-3.0477271,53.8669849],[-3.047585,53.8669422],[-3.0474938,53.8669058],[-3.047408,53.8668157],[-3.047365,53.86672]]},"properties":{"note":"approxiamate","railway":"tram","voltage":"600","electrified":"contact_line"}},
{"type":"Feature","geometry":{"type":"LineString","coordinates":[[-3.0553687,53.8222477],[-3.0551093,53.8213305],[-3.0550898,53.8212344],[-3.0551042,53.8211112],[-3.0551621,53.820904],[-3.0551931,53.8207915],[-3.0552024,53.8207578],[-3.0553043,53.820434],[-3.0554685,53.8199677],[-3.0555335,53.819814]]},"properties":{"oneway":"yes","tracks":"1","railway":"tram","voltage":"600","electrified":"contact_line"}},
{"type":"Feature","geometry":{"type":"LineString","coordinates":[[-3.0551105,53.8332849],[-3.055096,53.8336369],[-3.0550918,53.8336859],[-3.0550784,53.8338604],[-3.0549604,53.8357555],[-3.0549401,53.836137],[-3.0548387,53.8379125],[-3.0548134,53.8384661],[-3.0548066,53.8385974],[-3.0547535,53.8396125],[-3.0547366,53.8397379],[-3.0547173,53.8399517],[-3.054669,53.8402324],[-3.0546332,53.8404326],[-3.0546183,53.840516],[-3.054541,53.8410291],[-3.0544299,53.8416761],[-3.0544202,53.8417679],[-3.0543429,53.8422489],[-3.0542366,53.8428902],[-3.0541255,53.8436099],[-3.054012,53.8443152],[-3.0539053,53.8449661],[-3.0537612,53.8458452],[-3.0537017,53.846254],[-3.0535945,53.8468232],[-3.0535851,53.8468734],[-3.0535731,53.8470601],[-3.0535948,53.8477298],[-3.0536165,53.8483211],[-3.0536165,53.8488141],[-3.0535494,53.8492566],[-3.0535465,53.8492757],[-3.0534378,53.8496747],[-3.0533526,53.8499819],[-3.0532253,53.8502992],[-3.0530277,53.8507668],[-3.0529221,53.8508882],[-3.0527513,53.8513551],[-3.0523755,53.8522175],[-3.0522076,53.85261],[-3.0519956,53.8531202],[-3.0518853,53.8533845],[-3.051697,53.853817],[-3.0516866,53.8538541],[-3.0512317,53.8549377],[-3.0511832,53.8550552],[-3.0507748,53.8560278],[-3.0504454,53.8568334],[-3.05038,53.8570399],[-3.0502075,53.8575829],[-3.0501937,53.8576263],[-3.0500678,53.8580183],[-3.050062,53.8580376],[-3.0498215,53.8588459],[-3.0492472,53.8607068],[-3.0490345,53.8613548],[-3.0488907,53.861793],[-3.0488822,53.8618189],[-3.0488344,53.8619551],[-3.0483125,53.863627],[-3.048236,53.8638815],[-3.047732,53.8655545],[-3.0476893,53.8656962],[-3.0475959,53.8660159],[-3.0475502,53.8661555],[-3.047365,53.86672],[-3.0471813,53.8672641],[-3.0471089,53.8674515],[-3.0468955,53.8677306],[-3.0467141,53.8679003],[-3.0467096,53.8679176],[-3.0464747,53.868108],[-3.0462497,53.8682304],[-3.0459662,53.8683803],[-3.0457061,53.8685251],[-3.0452794,53.8687405],[-3.0445049,53.8691403],[-3.043707,53.8695556],[-3.043292,53.8698209],[-3.0430641,53.870045],[-3.0428478,53.8703689],[-3.0427475,53.870666],[-3.0427163,53.8708273],[-3.0427046,53.8709996],[-3.0428783,53.8721348],[-3.0428809,53.8721352],[-3.0430206,53.8731855],[-3.0431148,53.8738414],[-3.0431607,53.8742025],[-3.043239,53.8747399],[-3.0432136,53.8749809],[-3.0431257,53.875217],[-3.0429641,53.8753915],[-3.0427869,53.8755399],[-3.0425466,53.8756767],[-3.0418862,53.8759804],[-3.0415428,53.8761302],[-3.0411909,53.8763045],[-3.0410457,53.8763937],[-3.0406522,53.8767118],[-3.0403221,53.8769277],[-3.0402608,53.8769667],[-3.0400494,53.8771037],[-3.0398876,53.8773027],[-3.0398539,53.8774657],[-3.0398152,53.8776141],[-3.0397678,53.8778989],[-3.0397592,53.8779253],[-3.0396212,53.8783563],[-3.0395467,53.8785755],[-3.0394793,53.8788233],[-3.039352,53.8792194],[-3.0392888,53.8794507],[-3.0391396,53.8799553],[-3.0390558,53.8803781],[-3.0389826,53.8807598],[-3.0389336,53.8810161],[-3.0388676,53.881398],[-3.0388364,53.8816383],[-3.0388619,53.881857],[-3.038922,53.8820461],[-3.0392832,53.8827824],[-3.0396693,53.8835216],[-3.0397247,53.8837297],[-3.0397608,53.883945],[-3.0397677,53.8843047],[-3.039791,53.8844122],[-3.0398378,53.884721],[-3.0398967,53.8850142],[-3.0400183,53.8854463],[-3.0401265,53.885751],[-3.0404369,53.8866464],[-3.0404719,53.8868242],[-3.0404881,53.8870159],[-3.0404507,53.8873528],[-3.0403714,53.8878599],[-3.0402051,53.8889772],[-3.0399913,53.8902991],[-3.0399624,53.890866],[-3.0399888,53.891385],[-3.0400205,53.8929639],[-3.0399646,53.8934978],[-3.0398524,53.8938298],[-3.0395519,53.8945941],[-3.0395167,53.8952025],[-3.039516,53.896455],[-3.0395345,53.8969331],[-3.0395181,53.8972592],[-3.0395051,53.8975166],[-3.0394305,53.8978184],[-3.039332,53.8981462],[-3.0391571,53.8985162],[-3.0387636,53.8990967],[-3.0385178,53.8993673],[-3.0381906,53.8996906],[-3.0377266,53.9000485],[-3.0370945,53.9004369],[-3.0359841,53.9010273],[-3.0350316,53.9015809],[-3.0349739,53.9016253],[-3.0343028,53.9020789],[-3.0336694,53.9025798],[-3.0328747,53.9033137],[-3.0315745,53.9046472],[-3.0310736,53.9051386],[-3.0305764,53.9056625],[-3.0300903,53.9061614],[-3.0293787,53.9068708],[-3.0289825,53.9073578],[-3.0286269,53.9079417],[-3.02799,53.909257],[-3.0274944,53.9099492],[-3.0269174,53.9105581],[-3.0236874,53.9136387],[-3.0222785,53.914966],[-3.0207307,53.9164755],[-3.0202348,53.9169629],[-3.0201322,53.9170637],[-3.0184388,53.918728],[-3.0177091,53.9194508],[-3.0170908,53.9200375],[-3.0170528,53.9200706],[-3.0169212,53.9201861],[-3.0168087,53.9202876],[-3.0164679,53.920481],[-3.0163427,53.9205371],[-3.0157165,53.9208179],[-3.0149772,53.9211385],[-3.0143662,53.9214039],[-3.0136073,53.9217268],[-3.0127544,53.9220914],[-3.0119909,53.9224176],[-3.0111917,53.9227654],[-3.0104468,53.9230877],[-3.0104382,53.9230914],[-3.0100414,53.9232543],[-3.0096741,53.9234119],[-3.009275,53.9235744],[-3.0088827,53.923752],[-3.0087391,53.9238956],[-3.0086862,53.9240173],[-3.0087439,53.9243479],[-3.0087123,53.9246263],[-3.0086074,53.9255366],[-3.0085488,53.9258454],[-3.008519,53.9264179],[-3.0085693,53.9265962],[-3.0089736,53.9271738],[-3.0089305,53.9273132],[-3.0087404,53.9274224],[-3.0082861,53.9275242],[-3.0079293,53.9276024]]},"properties":{"electrified":"contact_line","oneway":"yes","railway":"tram","voltage":"600"}},
{"type":"Feature","geometry":{"type":"LineString","coordinates":[[-3.0555335,53.819814],[-3.0558412,53.8193143],[-3.0558904,53.8192343],[-3.055965,53.8191132],[-3.0560134,53.8190346],[-3.0560607,53.8188918],[-3.0560738,53.8188571],[-3.0560829,53.8188329],[-3.0561088,53.8187645],[-3.0561157,53.8187461],[-3.0561412,53.818636],[-3.0561613,53.8185062],[-3.0561524,53.8183003],[-3.0561432,53.8180594],[-3.0561333,53.8178003],[-3.0560982,53.817416],[-3.0560834,53.8171705],[-3.0560794,53.8170138],[-3.056062,53.8166654],[-3.0560472,53.8162854],[-3.0560325,53.8158752],[-3.0560177,53.8156187],[-3.0559896,53.8152113],[-3.0559411,53.8149654],[-3.0558568,53.8146567],[-3.055806,53.8144465],[-3.0557643,53.8142228],[-3.0555443,53.8123787],[-3.0555491,53.8119572],[-3.0555764,53.8115306],[-3.0555954,53.8113697],[-3.0556181,53.8111774],[-3.0557012,53.8106928],[-3.0557535,53.8104204],[-3.0557877,53.8101249],[-3.0557822,53.809911],[-3.0557559,53.8096999],[-3.0557364,53.8095162],[-3.0556996,53.8093029],[-3.0556812,53.8091503],[-3.0556677,53.8090576],[-3.0556543,53.8089436],[-3.0556033,53.8086205],[-3.055555,53.808291],[-3.0555041,53.807903],[-3.0554692,53.8075672],[-3.0554596,53.8074581],[-3.0554573,53.8074317],[-3.0554491,53.8073384],[-3.0554498,53.8064914],[-3.0554612,53.8054147],[-3.0554652,53.8050441],[-3.0554719,53.8046687],[-3.0554665,53.8037684],[-3.055496,53.803194],[-3.0555363,53.8027162],[-3.0555725,53.8021961],[-3.0557589,53.7999237],[-3.0558166,53.7992504],[-3.0559252,53.7985954],[-3.0562031,53.7972088],[-3.0562457,53.7966928],[-3.0562779,53.7964005],[-3.0563128,53.7961121],[-3.0563773,53.7957045],[-3.0564991,53.7947474],[-3.0566578,53.7938111],[-3.0567272,53.7932936],[-3.0567636,53.7931294],[-3.0567862,53.7930418],[-3.056833,53.7928224],[-3.0569024,53.7926231],[-3.0569973,53.7924104],[-3.0570833,53.7922236],[-3.0571617,53.7920889],[-3.0572644,53.7919372],[-3.0573325,53.7918423],[-3.0575739,53.791519],[-3.0576752,53.79139],[-3.0577743,53.7912481],[-3.0578462,53.7911359],[-3.057898,53.7910389],[-3.057969,53.7908834],[-3.0580148,53.7907669],[-3.0580752,53.7906388],[-3.0581042,53.790496],[-3.0581476,53.7897729],[-3.0581874,53.7890852],[-3.0582425,53.7879302],[-3.0582771,53.7873706],[-3.0583173,53.7868909],[-3.0583298,53.7860007],[-3.0583212,53.7854523],[-3.0582683,53.7848202],[-3.0581827,53.7840379],[-3.0580792,53.7829426],[-3.0580542,53.7826785],[-3.0579361,53.7815923],[-3.0578341,53.7806495],[-3.0576508,53.7792697],[-3.0575604,53.7786863],[-3.0575204,53.7786029],[-3.0574449,53.7785395],[-3.0570123,53.7783371],[-3.0560539,53.7779479]]},"properties":{"oneway":"yes","railway":"tram","voltage":"600","electrified":"contact_line"}},
{"type":"Feature","geometry":{"type":"LineString","coordinates":[[-3.0541341,53.8063038],[-3.0540459,53.806296],[-3.0539855,53.8062976],[-3.053406,53.8063818],[-3.05309,53.8064314],[-3.0528347,53.8064761]]},"properties":{"name":"Hopton Road","oneway":"yes","highway":"unclassified","railway":"tram","voltage":"600","electrified":"contact_line"}},
{"type":"Feature","geometry":{"type":"LineString","coordinates":[[-3.0541341,53.8063038],[-3.0542913,53.8064526],[-3.0544837,53.8066346],[-3.0546773,53.8068178]]},"properties":{"ref":"B5262","name":"Lytham Road","note":"approximate, goes to depot at this point","tracks":"2","highway":"secondary","railway":"tram","voltage":"600","maxspeed":"30 mph","electrified":"contact_line"}},
{"type":"Feature","geometry":{"type":"LineString","coordinates":[[-3.0532504,53.8500936],[-3.053267,53.8499315]]},"properties":{"railway":"tram","voltage":"600","electrified":"contact_line"}},
{"type":"Feature","geometry":{"type":"LineString","coordinates":[[-3.0534378,53.8496747],[-3.0533083,53.8499421],[-3.0532504,53.8500936],[-3.0531884,53.8502558],[-3.05302,53.8506556],[-3.0529221,53.8508882]]},"properties":{"railway":"tram","voltage":"600","electrified":"contact_line"}},
{"type":"Feature","geometry":{"type":"LineString","coordinates":[[-3.05302,53.8506556],[-3.0529268,53.8507586]]},"properties":{"railway":"tram","voltage":"600","electrified":"contact_line"}},
{"type":"Feature","geometry":{"type":"LineString","coordinates":[[-3.0395467,53.8785755],[-3.0395582,53.8783411]]},"properties":{"railway":"tram","voltage":"600","electrified":"contact_line"}},
{"type":"Feature","geometry":{"type":"LineString","coordinates":[[-3.0566937,53.7778558],[-3.0567179,53.777935],[-3.0567549,53.7780048],[-3.0568171,53.7780777],[-3.0569059,53.7781682]]},"properties":{"railway":"tram"}},
{"type":"Feature","geometry":{"type":"LineString","coordinates":[[-3.0563075,53.7777924],[-3.0563392,53.7778749],[-3.0564067,53.7779445],[-3.0564878,53.7780062]]},"properties":{"railway":"tram"}},
{"type":"Feature","geometry":{"type":"LineString","coordinates":[[-3.0573129,53.7783444],[-3.0571894,53.7782457],[-3.0570848,53.7781269],[-3.0570553,53.7780492],[-3.0570611,53.7779891],[-3.057058,53.7779192]]},"properties":{"railway":"tram"}},
{"type":"Feature","geometry":{"type":"LineString","coordinates":[[-3.0571328,53.7779114],[-3.0571356,53.7779855],[-3.0571331,53.7780793],[-3.0571653,53.7781744],[-3.0572557,53.7782785],[-3.0573129,53.7783444]]},"properties":{"railway":"tram"}},
{"type":"Feature","geometry":{"type":"LineString","coordinates":[[-3.0572052,53.7779006],[-3.0572055,53.7779761],[-3.0571873,53.7780555],[-3.0571926,53.7781363],[-3.0572557,53.7782785]]},"properties":{"railway":"tram"}},
{"type":"Feature","geometry":{"type":"LineString","coordinates":[[-3.0567783,53.7781187],[-3.0566393,53.7780318],[-3.0565563,53.777954],[-3.0564977,53.7778766],[-3.0564711,53.7778082]]},"properties":{"railway":"tram"}},
{"type":"Feature","geometry":{"type":"LineString","coordinates":[[-3.0566296,53.7780611],[-3.0565409,53.7780063],[-3.0564679,53.7779319],[-3.0564176,53.777867],[-3.0563928,53.7777988]]},"properties":{"railway":"tram"}},
{"type":"Feature","geometry":{"type":"LineString","coordinates":[[-3.0566393,53.7780318],[-3.0565968,53.7779401],[-3.0565645,53.7778688],[-3.0565561,53.7778191]]},"properties":{"railway":"tram"}},
{"type":"Feature","geometry":{"type":"LineString","coordinates":[[-3.0569059,53.7781682],[-3.0567796,53.7780824],[-3.0566852,53.777989],[-3.0566481,53.7779176],[-3.0566265,53.7778379]]},"properties":{"railway":"tram"}},
{"type":"Feature","geometry":{"type":"LineString","coordinates":[[-3.0552674,53.8090029],[-3.0550543,53.8090119],[-3.0549268,53.8090012]]},"properties":{"name":"Foxhall Square","highway":"unclassified","railway":"tram"}},
{"type":"Feature","geometry":{"type":"LineString","coordinates":[[-3.057192,53.7927184],[-3.0573098,53.7926852],[-3.0574182,53.792652],[-3.0575707,53.7925994],[-3.0576664,53.7925494],[-3.0577379,53.7924905],[-3.0577866,53.7924268],[-3.0579568,53.7921206],[-3.0579821,53.7920615],[-3.0579815,53.7920126],[-3.0579594,53.7919603],[-3.0579029,53.791897],[-3.0578372,53.7918579],[-3.0577497,53.7918289],[-3.0576501,53.7918165],[-3.0575507,53.7918222],[-3.0574791,53.7918392],[-3.0574272,53.7918591],[-3.0573717,53.7918929],[-3.0573428,53.7919198],[-3.0573168,53.7919512]]},"properties":{"electrified":"contact_line","railway":"tram","voltage":"600"}},
{"type":"Feature","geometry":{"type":"LineString","coordinates":[[-3.0573168,53.7919512],[-3.057352,53.7919248],[-3.0573864,53.7919052],[-3.0574313,53.7918831],[-3.0574868,53.791865],[-3.0575548,53.7918546],[-3.0576386,53.7918523],[-3.0577177,53.7918638],[-3.0578028,53.7918931],[-3.0578551,53.7919272],[-3.0578961,53.7919712],[-3.0579134,53.7920161],[-3.0579109,53.7920626],[-3.0578879,53.7921136],[-3.057721,53.7924134],[-3.0576781,53.7924715],[-3.0576201,53.7925182],[-3.057547,53.7925594],[-3.0573923,53.7926316],[-3.057192,53.7927184],[-3.0570868,53.7927641],[-3.0569943,53.7928127],[-3.0569236,53.7928605],[-3.0568602,53.7929137],[-3.0568247,53.7929633],[-3.0567862,53.7930418]]},"properties":{"electrified":"contact_line","note":"approxiamate","railway":"tram","voltage":"600"}},
{"type":"Feature","geometry":{"type":"LineString","coordinates":[[-3.0561088,53.8187645],[-3.0560489,53.8188175],[-3.0559328,53.8188904],[-3.0558756,53.8189179],[-3.05586,53.8189375],[-3.0554598,53.8189289]]},"properties":{"railway":"tram","electrified":"no"}},
{"type":"Feature","geometry":{"type":"LineString","coordinates":[[-3.0558412,53.8193143],[-3.0558311,53.819231],[-3.0558126,53.8191317],[-3.0557916,53.8190898],[-3.055789,53.8190819],[-3.0556248,53.8190216],[-3.0554439,53.8189738],[-3.0553472,53.8189631],[-3.0552078,53.8189567],[-3.0551044,53.8189607],[-3.0550219,53.8189804],[-3.0549489,53.8189979],[-3.0546552,53.8190747],[-3.0544373,53.819136],[-3.0541664,53.8191993],[-3.0537379,53.8193565],[-3.0532926,53.8195038],[-3.0527909,53.8196661],[-3.0519308,53.8199357],[-3.0513233,53.8201453],[-3.051126,53.8202163],[-3.0510138,53.8202831],[-3.0509457,53.8203382]]},"properties":{"electrified":"no","railway":"tram"}},
{"type":"Feature","geometry":{"type":"LineString","coordinates":[[-3.0561432,53.8180594],[-3.0562094,53.8182843]]},"properties":{"railway":"tram","voltage":"600","electrified":"contact_line"}},
{"type":"Feature","geometry":{"type":"LineString","coordinates":[[-3.0558987,53.8193182],[-3.0558904,53.8192343],[-3.0558874,53.8191755],[-3.0558589,53.8190989],[-3.0558309,53.8190535],[-3.0558133,53.819036],[-3.0556604,53.8189866],[-3.0556021,53.8189636],[-3.0554598,53.8189289],[-3.0552439,53.8189163],[-3.0550589,53.8189242],[-3.0550325,53.8189308],[-3.05491,53.8189614],[-3.0547679,53.8189995],[-3.0545493,53.8190746],[-3.0542575,53.8191607],[-3.054025,53.8192322],[-3.0534713,53.8194128],[-3.0528232,53.819613],[-3.0526865,53.8196653],[-3.0522707,53.8197967],[-3.0520105,53.8198838],[-3.0514875,53.8200532],[-3.0512032,53.8201339],[-3.0510825,53.8201909],[-3.0509862,53.820236],[-3.0509001,53.8203319]]},"properties":{"electrified":"no","railway":"tram"}},
{"type":"Feature","geometry":{"type":"LineString","coordinates":[[-3.0561573,53.81879],[-3.056126,53.8188143],[-3.0560829,53.8188329],[-3.056045,53.818875],[-3.05595,53.8189397],[-3.0558327,53.8189836],[-3.0558324,53.818991],[-3.0556604,53.8189866],[-3.0554439,53.8189738]]},"properties":{"railway":"tram","electrified":"no"}},
{"type":"Feature","geometry":{"type":"LineString","coordinates":[[-3.0562022,53.8180837],[-3.0562404,53.817975],[-3.0562415,53.8178694],[-3.0562423,53.8178087],[-3.0562348,53.8175715],[-3.0562216,53.8174994],[-3.056157,53.8173864]]},"properties":{"railway":"tram","voltage":"600","electrified":"contact_line"}},
{"type":"Feature","geometry":{"type":"LineString","coordinates":[[-2.4589284,53.6804014],[-2.4589512,53.6803932],[-2.4589731,53.680382],[-2.4589935,53.6803668]]},"properties":{"gauge":"1067","source":"https://en.wikipedia.org/wiki/File:Old_Tram_Turning_Triangle_-_geograph.org.uk_-_34176.jpg","railway":"tram"}},
{"type":"Feature","geometry":{"type":"LineString","coordinates":[[-2.4590208,53.680399],[-2.4589845,53.6803963],[-2.4589543,53.6803981],[-2.4589284,53.6804014],[-2.4588485,53.6804238]]},"properties":{"gauge":"1067","source":"https://en.wikipedia.org/wiki/File:Old_Tram_Turning_Triangle_-_geograph.org.uk_-_34176.jpg","railway":"tram"}},
{"type":"Feature","geometry":{"type":"LineString","coordinates":[[-3.0554692,53.8075672],[-3.0553465,53.8074013],[-3.0552459,53.8072501]]},"properties":{"tracks":"1","railway":"tram","voltage":"600","electrified":"contact_line"}},
{"type":"Feature","geometry":{"type":"LineString","coordinates":[[-3.0555431,53.8076083],[-3.0554596,53.8074581],[-3.0552459,53.8072501]]},"properties":{"tracks":"1","railway":"tram","voltage":"600","electrified":"contact_line"}},
{"type":"Feature","geometry":{"type":"LineString","coordinates":[[-3.0085488,53.9258454],[-3.0085161,53.9256217]]},"properties":{"railway":"tram","voltage":"600","electrified":"contact_line"}},
{"type":"Feature","geometry":{"type":"LineString","coordinates":[[-3.0396836,53.8840883],[-3.0396447,53.8842037],[-3.0395763,53.8843143]]},"properties":{"railway":"tram"}},
{"type":"Feature","geometry":{"type":"LineString","coordinates":[[-3.0070994,53.9275571],[-3.0069379,53.9273114],[-3.0066047,53.9269047],[-3.0066037,53.9268465],[-3.0066486,53.9267759],[-3.0066843,53.926738],[-3.0067493,53.9267072],[-3.0068384,53.9266728],[-3.0070175,53.9266329]]},"properties":{"oneway":"yes","railway":"tram","voltage":"600","electrified":"contact_line"}},
{"type":"Feature","geometry":{"type":"LineString","coordinates":[[-3.0070175,53.9266329],[-3.007635,53.9265654],[-3.0081862,53.9265018],[-3.0083123,53.9264616],[-3.0083861,53.9263992],[-3.008429,53.9263313],[-3.0084759,53.9259301],[-3.0085161,53.9256217],[-3.0085249,53.9255542],[-3.0086247,53.9247115],[-3.0086357,53.9246184],[-3.0086557,53.9244308],[-3.0086625,53.9243675],[-3.0086323,53.9239651],[-3.0086739,53.9238704],[-3.0087329,53.923793],[-3.0088336,53.9237224],[-3.0092611,53.9235318],[-3.0096194,53.92337],[-3.0099533,53.9232294],[-3.010399,53.9230504],[-3.0111191,53.9227371],[-3.011144,53.9227266],[-3.0117712,53.9224626],[-3.0119483,53.9223867],[-3.0120342,53.9223499],[-3.0125168,53.9221447],[-3.0127075,53.9220583],[-3.0127381,53.9220444],[-3.0135294,53.9217025],[-3.0135546,53.9216919],[-3.0139733,53.9215157],[-3.0143099,53.9213676],[-3.014784,53.9211694],[-3.0149663,53.9210924],[-3.0152352,53.9209787],[-3.0156568,53.920794],[-3.0156725,53.920787],[-3.0156924,53.9207782],[-3.015854,53.9207135],[-3.016023,53.9206396],[-3.0161732,53.9205733],[-3.0162188,53.920555],[-3.0162885,53.9205271],[-3.0164816,53.9204296],[-3.0166023,53.9203636],[-3.0167458,53.9202692],[-3.0169933,53.9200433],[-3.017024,53.920016],[-3.0174667,53.9195744],[-3.0176055,53.9194435],[-3.0183642,53.9187015],[-3.0197006,53.9174061],[-3.0201353,53.9170035],[-3.0201631,53.9169796],[-3.0205831,53.916544],[-3.0206835,53.9164536],[-3.0222298,53.9149362],[-3.0233429,53.9138809],[-3.0236433,53.913595],[-3.0239196,53.913328],[-3.0250622,53.9122489],[-3.0259232,53.9114353],[-3.0268894,53.9105276],[-3.0272918,53.9101137],[-3.0274447,53.9099414],[-3.0276753,53.909646],[-3.0279435,53.9092605],[-3.0284317,53.908194],[-3.0285551,53.9079301],[-3.0289145,53.9073502],[-3.0293276,53.9068493],[-3.0299907,53.9061557],[-3.0305138,53.9056524],[-3.0310301,53.905123],[-3.0315903,53.9045676],[-3.0319028,53.9042192],[-3.0324661,53.9036444],[-3.0328121,53.903292],[-3.0332614,53.9028582],[-3.0336664,53.9025042],[-3.0342618,53.9020436],[-3.034978,53.9015608],[-3.0359449,53.9010101],[-3.0369652,53.900462],[-3.0370466,53.9004183],[-3.0376743,53.9000271],[-3.038145,53.8996644],[-3.0384628,53.8993539],[-3.0387029,53.8990892],[-3.0390757,53.898555],[-3.0392769,53.8981433],[-3.0393924,53.8978185],[-3.0394593,53.897523],[-3.0394767,53.8972685],[-3.0394754,53.8969414],[-3.0394791,53.8968537],[-3.039477,53.8964628],[-3.0394777,53.895209],[-3.0395132,53.8945955],[-3.039815,53.8938277],[-3.039926,53.8934993],[-3.0399815,53.89297],[-3.0399303,53.8913916],[-3.0399233,53.8908733],[-3.0399524,53.8903036],[-3.040157,53.8889786],[-3.0403273,53.887861],[-3.0403796,53.8874421],[-3.0403917,53.8873473],[-3.040449,53.8870236],[-3.0404331,53.8868352],[-3.0403988,53.8866608],[-3.040279,53.8864035],[-3.0400591,53.8857648],[-3.0399545,53.8854542],[-3.0398481,53.8850562],[-3.0397412,53.8847175],[-3.0396863,53.8844234],[-3.0396809,53.8842361],[-3.0396822,53.8842685],[-3.0396836,53.8840883],[-3.0396675,53.8837349],[-3.0395991,53.8835436],[-3.0395133,53.8833673],[-3.0392075,53.8827982],[-3.0389527,53.8822891],[-3.0388521,53.8820535],[-3.0387971,53.8818717],[-3.0387609,53.8816464],[-3.0387891,53.881395],[-3.0388682,53.8809934],[-3.0389111,53.8807468],[-3.0389976,53.8803539],[-3.0390222,53.8802342],[-3.0390801,53.8799531],[-3.0392055,53.8794424],[-3.0392792,53.87921],[-3.039404,53.8788139],[-3.0395582,53.8783411],[-3.0396775,53.8780035],[-3.0397003,53.8778976],[-3.039766,53.8776106],[-3.0397942,53.8774644],[-3.0398291,53.8773149],[-3.0398988,53.877205],[-3.0399833,53.8770975],[-3.040158,53.8769663],[-3.0402472,53.8769129],[-3.040443,53.8768117],[-3.040616,53.87669],[-3.0410307,53.8763676],[-3.0411816,53.8762784],[-3.0415451,53.8761038],[-3.0418558,53.8759606],[-3.042513,53.8756507],[-3.042741,53.8755068],[-3.0429099,53.8753708],[-3.0430575,53.8752063],[-3.043154,53.8749818],[-3.0431835,53.8747414],[-3.0431198,53.8742176],[-3.0430414,53.8738464],[-3.0430145,53.8736029],[-3.0428633,53.8723577],[-3.0428437,53.8721388],[-3.0427698,53.8716644],[-3.0427042,53.8711949],[-3.0426803,53.8709818],[-3.0426931,53.8707054],[-3.0427202,53.8705832],[-3.0429011,53.8702298],[-3.0430123,53.8700794],[-3.0431583,53.8699296],[-3.0432831,53.8698083],[-3.043499,53.8696527],[-3.0443276,53.8692071],[-3.0457004,53.8684961],[-3.0464651,53.8680785],[-3.0466752,53.8678861],[-3.0468111,53.8677471],[-3.0469335,53.8676051],[-3.0470885,53.8673464],[-3.0471581,53.8672085],[-3.0473323,53.8666437],[-3.0476067,53.8658527],[-3.0476516,53.865689],[-3.0477007,53.8655473],[-3.0478719,53.8650534],[-3.0478973,53.8649309],[-3.04828,53.8636219],[-3.0488355,53.8618126],[-3.0488439,53.8617863],[-3.0489827,53.8613494],[-3.0492269,53.860581],[-3.0495305,53.8596207],[-3.050024,53.858032],[-3.0500968,53.8577979],[-3.0501625,53.8575758],[-3.0502278,53.8573554],[-3.0504717,53.8566032],[-3.0507998,53.8558175],[-3.0511781,53.8549306],[-3.0516269,53.8538483],[-3.0518248,53.8533772],[-3.0521517,53.8526003],[-3.0525114,53.851733],[-3.0528974,53.8508151],[-3.0529268,53.8507586],[-3.053267,53.8499315],[-3.0533759,53.849646],[-3.0535074,53.8492608],[-3.0535841,53.8489551],[-3.0535781,53.8483223],[-3.0535296,53.8470214],[-3.0535549,53.8468268],[-3.0535839,53.8466892],[-3.0538574,53.8449647],[-3.0543756,53.8417644],[-3.0543863,53.8416772],[-3.0544422,53.8413413],[-3.0544784,53.8410951],[-3.0545389,53.8407395],[-3.054586,53.8404312],[-3.0546114,53.8402537],[-3.0546639,53.8399404],[-3.0547005,53.8395625],[-3.0547734,53.8384788],[-3.0548017,53.8379122],[-3.0548964,53.8361484],[-3.0549134,53.8357627],[-3.0550341,53.8338417],[-3.0550554,53.8334984],[-3.0550619,53.8332852],[-3.055091,53.8331498],[-3.0551486,53.8329635],[-3.0552721,53.8327554],[-3.0553482,53.8326567],[-3.0553888,53.8326209],[-3.055602,53.8324151],[-3.0557348,53.8322948],[-3.0558139,53.8321674],[-3.0558474,53.8320305],[-3.0558541,53.8319751],[-3.0558421,53.8317353],[-3.0558058,53.8308805],[-3.0557656,53.830104],[-3.0557267,53.8293402],[-3.0557039,53.8288527],[-3.0556509,53.8280229],[-3.0555539,53.8261219],[-3.0555271,53.8254175],[-3.0555546,53.8248128],[-3.0555765,53.824492],[-3.0556007,53.8241769],[-3.0556275,53.82388],[-3.0556267,53.8237056],[-3.0555868,53.8234432],[-3.0555336,53.8230235],[-3.055484,53.8227551],[-3.0553687,53.8222477]]},"properties":{"electrified":"contact_line","oneway":"yes","railway":"tram","voltage":"600"}},
{"type":"Feature","geometry":{"type":"LineString","coordinates":[[-3.0560645,53.7779272],[-3.057018,53.7782972],[-3.057528,53.7785218]]},"properties":{"note":"approximate","oneway":"yes","source":"memory","railway":"tram","voltage":"600","electrified":"contact_line"}},
{"type":"Feature","geometry":{"type":"LineString","coordinates":[[-3.0560539,53.7779479],[-3.0553853,53.7776948],[-3.0550439,53.7775312]]},"properties":{"oneway":"yes","railway":"tram","voltage":"600","electrified":"contact_line"}},
{"type":"Feature","geometry":{"type":"LineString","coordinates":[[-3.0079293,53.9276024],[-3.0076077,53.9276807],[-3.0074391,53.9276809],[-3.0072743,53.9276525],[-3.0071177,53.9275787],[-3.0070994,53.9275571]]},"properties":{"oneway":"yes","railway":"tram","voltage":"600","electrified":"contact_line"}},
{"type":"Feature","geometry":{"type":"LineString","coordinates":[[-3.0070994,53.9275571],[-3.0066232,53.9269934],[-3.0065622,53.9269046],[-3.0065488,53.9268386],[-3.0065675,53.9267885],[-3.0066192,53.926732],[-3.0066963,53.9266902],[-3.006817,53.9266602],[-3.006886,53.926646],[-3.0070175,53.9266329]]},"properties":{"oneway":"yes","railway":"tram","voltage":"600","electrified":"contact_line"}},
{"type":"Feature","geometry":{"type":"LineString","coordinates":[[-3.0550439,53.7775312],[-3.0560645,53.7779272]]},"properties":{"note":"approximate","oneway":"yes","source":"memory","railway":"tram","voltage":"600","electrified":"contact_line"}},
{"type":"Feature","geometry":{"type":"LineString","coordinates":[[-3.0547734,53.8384788],[-3.0548066,53.8385974]]},"properties":{"electrified":"contact_line","oneway":"yes","railway":"tram","voltage":"600"}}
]}
