{"type":"FeatureCollection","features":[
{"type":"Feature","geometry":{"type":"Point","coordinates":[-1.4718644,53.3823677]},"properties":{"highway":"traffic_signals"}},
{"type":"Feature","geometry":{"type":"Point","coordinates":[-1.5036425,53.4044087]},"properties":{"name":"Hillsborough Park","public_transport":"stop_position","railway":"tram_stop","shelter":"yes","tram":"yes","wheelchair":"yes"}},
{"type":"Feature","geometry":{"type":"Point","coordinates":[-1.5042131,53.407364]},"properties":{"bus":"yes","name":"Middlewood Road/Dixon Road","public_transport":"stop_position"}},
{"type":"Feature","geometry":{"type":"Point","coordinates":[-1.4613023,53.3778655]},"properties":{"name":"Sheffield Station / Sheffield Hallam University","tram":"yes","railway":"tram_stop","wheelchair":"yes","public_transport":"stop_position","toilets:wheelchair":"yes"}},
{"type":"Feature","geometry":{"type":"Point","coordinates":[-1.4819207,53.3906011]},"properties":{"highway":"traffic_signals"}},
{"type":"Feature","geometry":{"type":"Point","coordinates":[-1.4733745,53.3814803]},"properties":{"name":"City Hall","tram":"yes","railway":"tram_stop","public_transport":"stop_position"}},
{"type":"Feature","geometry":{"type":"Point","coordinates":[-1.4998914,53.4020024]},"properties":{"name":"Hillsborough","tram":"yes","railway":"tram_stop","shelter":"yes","wheelchair":"yes","public_transport":"stop_position","toilets:wheelchair":"no"}},
{"type":"Feature","geometry":{"type":"Point","coordinates":[-1.4825316,53.3909227]},"properties":{"name":"Infirmary Road","tram":"yes","railway":"tram_stop","wheelchair":"yes","public_transport":"stop_position"}},
{"type":"Feature","geometry":{"type":"Point","coordinates":[-1.4825657,53.384765]},"properties":{"name":"Netherthorpe Road","tram":"yes","railway":"tram_stop","wheelchair":"yes","public_transport":"stop_position"}},
{"type":"Feature","geometry":{"type":"Point","coordinates":[-1.4780254,53.3880626]},"properties":{"railway":"level_crossing"}},
{"type":"Feature","geometry":{"type":"Point","coordinates":[-1.4779651,53.3886571]},"properties":{"name":"Shalesmoor","tram":"yes","railway":"tram_stop","wheelchair":"yes","public_transport":"stop_position"}},
{"type":"Feature","geometry":{"type":"Point","coordinates":[-1.4602495,53.3828969]},"properties":{"railway":"railway_crossing"}},
{"type":"Feature","geometry":{"type":"Point","coordinates":[-1.4841016,53.3806744]},"properties":{"name":"University of Sheffield","tram":"yes","railway":"tram_stop","wheelchair":"yes","public_transport":"stop_position"}},
{"type":"Feature","geometry":{"type":"Point","coordinates":[-1.4609188,53.3811797]},"properties":{"railway":"crossing"}},
{"type":"Feature","geometry":{"type":"Point","coordinates":[-1.4611747,53.3737784]},"properties":{"name":"Granville Road / The Sheffield College","tram":"yes","railway":"tram_stop","public_transport":"stop_position"}},
{"type":"Feature","geometry":{"type":"Point","coordinates":[-1.4586936,53.3702115]},"properties":{"name":"Park Grange Croft","tram":"yes","railway":"tram_stop","public_transport":"stop_position"}},
{"type":"Feature","geometry":{"type":"Point","coordinates":[-1.4547631,53.3673498]},"properties":{"name":"Park Grange","tram":"yes","railway":"tram_stop","public_transport":"stop_position"}},
{"type":"Feature","geometry":{"type":"Point","coordinates":[-1.4481444,53.3634514]},"properties":{"name":"Arbourthorne Road","tram":"yes","railway":"tram_stop","public_transport":"stop_position"}},
{"type":"Feature","geometry":{"type":"Point","coordinates":[-1.4477406,53.3633948]},"properties":{"name":"Arbourthorne Road","tram":"yes","railway":"tram_stop","public_transport":"stop_position"}},
{"type":"Feature","geometry":{"type":"Point","coordinates":[-1.4288155,53.3608686]},"properties":{"railway":"level_crossing"}},
{"type":"Feature","geometry":{"type":"Point","coordinates":[-1.4286206,53.360722]},"properties":{"highway":"crossing","railway":"level_crossing","crossing":"traffic_signals"}},
{"type":"Feature","geometry":{"type":"Point","coordinates":[-1.428434,53.359672]},"properties":{"name":"Manor Top / Elm Tree","tram":"yes","railway":"tram_stop","public_transport":"stop_position"}},
{"type":"Feature","geometry":{"type":"Point","coordinates":[-1.4019837,53.3400433]},"properties":{"railway":"crossing"}},
{"type":"Feature","geometry":{"type":"Point","coordinates":[-1.3993742,53.3404161]},"properties":{"name":"Birley Lane","tram":"yes","railway":"tram_stop","public_transport":"stop_position"}},
{"type":"Feature","geometry":{"type":"Point","coordinates":[-1.3884836,53.3416774]},"properties":{"name":"Birley Moor Road","tram":"yes","railway":"tram_stop","public_transport":"stop_position"}},
{"type":"Feature","geometry":{"type":"Point","coordinates":[-1.4386137,53.3663778]},"properties":{"name":"Spring Lane","public_transport":"stop_position","railway":"tram_stop","tram":"yes"}},
{"type":"Feature","geometry":{"type":"Point","coordinates":[-1.5040599,53.4096441]},"properties":{"name":"Leppings Lane","tram":"yes","public_transport":"stop_position"}},
{"type":"Feature","geometry":{"type":"Point","coordinates":[-1.4776472,53.380471]},"properties":{"name":"West Street","tram":"yes","railway":"tram_stop","wheelchair":"yes","public_transport":"stop_position"}},
{"type":"Feature","geometry":{"type":"Point","coordinates":[-1.5091181,53.4006518]},"properties":{"railway":"buffer_stop"}},
{"type":"Feature","geometry":{"type":"Point","coordinates":[-1.5008466,53.4024625]},"properties":{"highway":"traffic_signals"}},
{"type":"Feature","geometry":{"type":"Point","coordinates":[-1.4662529,53.3830889]},"properties":{"name":"Castle Square","tram":"yes","railway":"tram_stop","operator":"Supertram","wheelchair":"yes","public_transport":"stop_position"}},
{"type":"Feature","geometry":{"type":"Point","coordinates":[-1.4644001,53.3832345]},"properties":{"railway":"level_crossing","crossing:barrier":"no"}},
{"type":"Feature","geometry":{"type":"Point","coordinates":[-1.4636212,53.3831678]},"properties":{"name":"Fitzalan Square / Ponds Forge","tram":"yes","railway":"tram_stop","wheelchair":"yes","tactile_paving":"yes","public_transport":"stop_position"}},
{"type":"Feature","geometry":{"type":"Point","coordinates":[-1.4779818,53.38889]},"properties":{"railway":"crossing"}},
{"type":"Feature","geometry":{"type":"Point","coordinates":[-1.4521721,53.3846183]},"properties":{"name":"Hyde Park","tram":"yes","network":"Supertram","railway":"tram_stop","operator":"Stagecoach","tactile_paving":"yes","public_transport":"stop_position"}},
{"type":"Feature","geometry":{"type":"Point","coordinates":[-1.4463133,53.3840296]},"properties":{"name":"Cricket Inn Road","tram":"yes","network":"Supertram","railway":"tram_stop","operator":"Stagecoach","tactile_paving":"yes","public_transport":"stop_position"}},
{"type":"Feature","geometry":{"type":"Point","coordinates":[-1.434507,53.389015]},"properties":{"name":"Woodbourn Road","tram":"yes","network":"Supertram","railway":"tram_stop","operator":"Stagecoach","wheelchair":"yes","tactile_paving":"yes","public_transport":"stop_position"}},
{"type":"Feature","geometry":{"type":"Point","coordinates":[-1.4296648,53.3923497]},"properties":{"name":"Attercliffe","public_transport":"stop_position","railway":"tram_stop","tram":"yes","wheelchair":"yes"}},
{"type":"Feature","geometry":{"type":"Point","coordinates":[-1.4202245,53.3983551]},"properties":{"name":"Arena / Olympic Legacy Park","tram":"yes","network":"Supertram","railway":"tram_stop","old_name":"Arena / Don Valley Stadium","operator":"Stagecoach","wheelchair":"yes","tactile_paving":"yes","public_transport":"stop_position"}},
{"type":"Feature","geometry":{"type":"Point","coordinates":[-1.4126558,53.4023514]},"properties":{"name":"Valley Centertainment","tram":"yes","network":"Supertram","railway":"tram_stop","operator":"Stagecoach","wheelchair":"yes","tactile_paving":"yes","public_transport":"stop_position"}},
{"type":"Feature","geometry":{"type":"Point","coordinates":[-1.4110771,53.4053372]},"properties":{"railway":"crossing"}},
{"type":"Feature","geometry":{"type":"Point","coordinates":[-1.4054325,53.4154493]},"properties":{"name":"Tinsley North Junction","railway":"switch","ref:tiploc":"TINSLNJ"}},
{"type":"Feature","geometry":{"type":"Point","coordinates":[-1.4074468,53.4183972]},"properties":{"railway":"tram_level_crossing"}},
{"type":"Feature","geometry":{"type":"Point","coordinates":[-1.4134105,53.4169128]},"properties":{"name":"Meadowhall Interchange","tram":"yes","layer":"1","railway":"tram_stop","wheelchair":"yes","public_transport":"stop_position"}},
{"type":"Feature","geometry":{"type":"Point","coordinates":[-1.4050704999999999,53.4143767]},"properties":{"name":"Meadowhall South / Tinsley","tram":"yes","level":"0","network":"Supertram","railway":"tram_stop","operator":"Stagecoach","ref:tiploc":"TINSMEA","wheelchair":"yes","tactile_paving":"yes","public_transport":"stop_position"}},
{"type":"Feature","geometry":{"type":"Point","coordinates":[-1.4107867,53.4056756]},"properties":{"name":"Carbrook/Ikea","tram":"yes","network":"Supertram","railway":"tram_stop","operator":"Stagecoach","wheelchair":"yes","tactile_paving":"yes","public_transport":"stop_position"}},
{"type":"Feature","geometry":{"type":"Point","coordinates":[-1.5104433,53.4161339]},"properties":{"name":"Middlewood","tram":"yes","railway":"tram_stop","public_transport":"stop_position"}},
{"type":"Feature","geometry":{"type":"Point","coordinates":[-1.5043666,53.4108407]},"properties":{"name":"Leppings Lane","tram":"yes","public_transport":"stop_position"}},
{"type":"Feature","geometry":{"type":"Point","coordinates":[-1.5033394,53.4040332]},"properties":{"bus":"yes","name":"Middlewood Road/Dykes Hall Road","public_transport":"stop_position"}},
{"type":"Feature","geometry":{"type":"Point","coordinates":[-1.4331363,53.391146]},"properties":{"railway":"level_crossing"}},
{"type":"Feature","geometry":{"type":"Point","coordinates":[-1.4322555,53.3424102]},"properties":{"name":"Herdings / Leighton Road","tram":"yes","railway":"tram_stop","public_transport":"stop_position"}},
{"type":"Feature","geometry":{"type":"Point","coordinates":[-1.439407,53.342501]},"properties":{"name":"Herdings Park","tram":"yes","railway":"tram_stop","public_transport":"stop_position"}},
{"type":"Feature","geometry":{"type":"Point","coordinates":[-1.4401462,53.3425623]},"properties":{"railway":"buffer_stop"}},
{"type":"Feature","geometry":{"type":"Point","coordinates":[-1.494406,53.399323]},"properties":{"highway":"traffic_signals"}},
{"type":"Feature","geometry":{"type":"Point","coordinates":[-1.4893709,53.3957674]},"properties":{"name":"Langsett / Primrose View","tram":"yes","railway":"tram_stop","wheelchair":"yes","public_transport":"stop_position"}},
{"type":"Feature","geometry":{"type":"Point","coordinates":[-1.4926192,53.3988989]},"properties":{"name":"Bamforth Street","tram":"yes","railway":"tram_stop","wheelchair":"yes","public_transport":"stop_position"}},
{"type":"Feature","geometry":{"type":"Point","coordinates":[-1.4940472,53.3991848]},"properties":{"bus":"yes","name":"Langsett Road/Channing Street","public_transport":"stop_position"}},
{"type":"Feature","geometry":{"type":"Point","coordinates":[-1.5010424,53.4024621]},"properties":{"highway":"crossing","crossing_ref":"pelican","crossing:island":"yes"}},
{"type":"Feature","geometry":{"type":"Point","coordinates":[-1.4612273,53.3744279]},"properties":{"highway":"crossing","crossing":"unmarked"}},
{"type":"Feature","geometry":{"type":"Point","coordinates":[-1.4122266,53.4178027]},"properties":{"railway":"switch"}},
{"type":"Feature","geometry":{"type":"Point","coordinates":[-1.4427397,53.3855839]},"properties":{"railway":"crossing"}},
{"type":"Feature","geometry":{"type":"Point","coordinates":[-1.4375668,53.3857927]},"properties":{"railway":"level_crossing","crossing":"uncontrolled"}},
{"type":"Feature","geometry":{"type":"Point","coordinates":[-1.4393038,53.3857683]},"properties":{"railway":"level_crossing","crossing":"uncontrolled"}},
{"type":"Feature","geometry":{"type":"Point","coordinates":[-1.4392657,53.3858081]},"properties":{"railway":"level_crossing","crossing":"uncontrolled"}},
{"type":"Feature","geometry":{"type":"Point","coordinates":[-1.4373466,53.385947]},"properties":{"railway":"switch"}},
{"type":"Feature","geometry":{"type":"Point","coordinates":[-1.4371138,53.3860083]},"properties":{"railway":"switch"}},
{"type":"Feature","geometry":{"type":"Point","coordinates":[-1.4581496,53.3697982]},"properties":{"railway":"level_crossing"}},
{"type":"Feature","geometry":{"type":"Point","coordinates":[-1.42879,53.35946]},"properties":{"railway":"crossing"}},
{"type":"Feature","geometry":{"type":"Point","coordinates":[-1.4289695,53.3601035]},"properties":{"railway":"level_crossing"}},
{"type":"Feature","geometry":{"type":"Point","coordinates":[-1.4286707,53.3591147]},"properties":{"railway":"level_crossing"}},
{"type":"Feature","geometry":{"type":"Point","coordinates":[-1.42889,53.359776]},"properties":{"name":"Manor Top / Elm Tree","tram":"yes","railway":"tram_stop","public_transport":"stop_position"}},
{"type":"Feature","geometry":{"type":"Point","coordinates":[-1.508276,53.4006836]},"properties":{"ref":"37090179","name":"Malin Bridge","tram":"yes","network":"Supertram","railway":"tram_stop","operator":"Supertram","public_transport":"stop_position"}},
{"type":"Feature","geometry":{"type":"Point","coordinates":[-1.4602008,53.382005]},"properties":{"railway":"crossing"}},
{"type":"Feature","geometry":{"type":"Point","coordinates":[-1.4132836,53.4169951]},"properties":{"level":"1","railway":"buffer_stop"}},
{"type":"Feature","geometry":{"type":"Point","coordinates":[-1.4133734,53.4170349]},"properties":{"level":"1","railway":"buffer_stop"}},
{"type":"Feature","geometry":{"type":"Point","coordinates":[-1.4134979,53.4169557]},"properties":{"name":"Meadowhall Interchange","tram":"yes","layer":"1","railway":"tram_stop","wheelchair":"yes","public_transport":"stop_position"}},
{"type":"Feature","geometry":{"type":"Point","coordinates":[-1.4681138,53.3827039]},"properties":{"railway":"level_crossing"}},
{"type":"Feature","geometry":{"type":"Point","coordinates":[-1.4288091,53.3924524]},"properties":{"railway":"level_crossing"}},
{"type":"Feature","geometry":{"type":"Point","coordinates":[-1.4692518,53.3825996]},"properties":{"name":"Cathedral","tram":"yes","railway":"tram_stop","wheelchair":"yes","public_transport":"stop_position"}},
{"type":"Feature","geometry":{"type":"Point","coordinates":[-1.465592,53.3831327]},"properties":{"railway":"level_crossing","crossing:barrier":"no"}},
{"type":"Feature","geometry":{"type":"Point","coordinates":[-1.4603103,53.3827279]},"properties":{"railway":"railway_crossing"}},
{"type":"Feature","geometry":{"type":"Point","coordinates":[-1.3836552,53.3430891]},"properties":{"railway":"level_crossing"}},
{"type":"Feature","geometry":{"type":"Point","coordinates":[-1.3883847,53.3417099]},"properties":{"railway":"crossing"}},
{"type":"Feature","geometry":{"type":"Point","coordinates":[-1.4791637,53.3895098]},"properties":{"railway":"level_crossing"}},
{"type":"Feature","geometry":{"type":"Point","coordinates":[-1.4051402,53.4146153]},"properties":{"crossing":"uncontrolled","crossing:barrier":"no","level":"0","railway":"tram_crossing","supervised":"no"}},
{"type":"Feature","geometry":{"type":"Point","coordinates":[-1.4326906,53.3425753]},"properties":{"railway":"crossing"}},
{"type":"Feature","geometry":{"type":"Point","coordinates":[-1.4321359,53.3423609]},"properties":{"railway":"crossing"}},
{"type":"Feature","geometry":{"type":"Point","coordinates":[-1.430465,53.342645]},"properties":{"source":"Bing","railway":"level_crossing","crossing:barrier":"no"}},
{"type":"Feature","geometry":{"type":"Point","coordinates":[-1.437718,53.342639]},"properties":{"railway":"crossing"}},
{"type":"Feature","geometry":{"type":"Point","coordinates":[-1.5034934,53.4042159]},"properties":{"highway":"crossing","crossing":"pelican","crossing_ref":"pelican"}},
{"type":"Feature","geometry":{"type":"Point","coordinates":[-1.5037935,53.4046085]},"properties":{"highway":"crossing","crossing":"pelican","crossing_ref":"pelican"}},
{"type":"Feature","geometry":{"type":"Point","coordinates":[-1.5042103,53.4055009]},"properties":{"bus":"yes","name":"Middlewood Road/Minto Road","public_transport":"stop_position"}},
{"type":"Feature","geometry":{"type":"Point","coordinates":[-1.504342,53.4065544]},"properties":{"bus":"yes","name":"Middlewood Road/Leader Road","public_transport":"stop_position"}},
{"type":"Feature","geometry":{"type":"Point","coordinates":[-1.5092255,53.4149262]},"properties":{"railway":"level_crossing"}},
{"type":"Feature","geometry":{"type":"Point","coordinates":[-1.5092318,53.4149735]},"properties":{"railway":"crossing"}},
{"type":"Feature","geometry":{"type":"Point","coordinates":[-1.5096483,53.4154065]},"properties":{"railway":"crossing"}},
{"type":"Feature","geometry":{"type":"Point","coordinates":[-1.510651,53.4163301]},"properties":{"railway":"buffer_stop"}},
{"type":"Feature","geometry":{"type":"Point","coordinates":[-1.5056853,53.4123036]},"properties":{"railway":"level_crossing"}},
{"type":"Feature","geometry":{"type":"Point","coordinates":[-1.508018,53.4138776]},"properties":{"railway":"level_crossing"}},
{"type":"Feature","geometry":{"type":"Point","coordinates":[-1.4392946,53.3857779]},"properties":{"railway":"level_crossing","crossing":"uncontrolled"}},
{"type":"Feature","geometry":{"type":"Point","coordinates":[-1.4415438,53.3855258]},"properties":{"name":"Nunnery Square","tram":"yes","network":"Supertram","railway":"tram_stop","operator":"Stagecoach","tactile_paving":"yes","public_transport":"stop_position"}},
{"type":"Feature","geometry":{"type":"Point","coordinates":[-1.435089,53.3883833]},"properties":{"railway":"level_crossing"}},
{"type":"Feature","geometry":{"type":"Point","coordinates":[-1.3945531,53.340777]},"properties":{"railway":"crossing"}},
{"type":"Feature","geometry":{"type":"Point","coordinates":[-1.5004742,53.4022687]},"properties":{"highway":"crossing","crossing":"pelican","crossing_ref":"pelican"}},
{"type":"Feature","geometry":{"type":"Point","coordinates":[-1.5015799,53.4027873]},"properties":{"highway":"crossing","crossing":"pelican","crossing_ref":"pelican"}},
{"type":"Feature","geometry":{"type":"Point","coordinates":[-1.4286926,53.3591669]},"properties":{"railway":"level_crossing"}},
{"type":"Feature","geometry":{"type":"Point","coordinates":[-1.4283949,53.3593595]},"properties":{"railway":"crossing","crossing":"traffic_signals"}},
{"type":"Feature","geometry":{"type":"Point","coordinates":[-1.5016281,53.4028112]},"properties":{"highway":"traffic_signals"}},
{"type":"Feature","geometry":{"type":"Point","coordinates":[-1.4988284,53.4015168]},"properties":{"highway":"traffic_signals"}},
{"type":"Feature","geometry":{"type":"Point","coordinates":[-1.499611,53.4018169]},"properties":{"railway":"level_crossing"}},
{"type":"Feature","geometry":{"type":"Point","coordinates":[-1.5041869,53.4100927]},"properties":{"highway":"traffic_signals"}},
{"type":"Feature","geometry":{"type":"Point","coordinates":[-1.4824761,53.3847197]},"properties":{"name":"Netherthorpe Road","tram":"yes","railway":"tram_stop","wheelchair":"yes","public_transport":"stop_position"}},
{"type":"Feature","geometry":{"type":"Point","coordinates":[-1.4797139,53.3866593]},"properties":{"railway":"level_crossing"}},
{"type":"Feature","geometry":{"type":"Point","coordinates":[-1.4797684,53.3866812]},"properties":{"railway":"level_crossing"}},
{"type":"Feature","geometry":{"type":"Point","coordinates":[-1.479305,53.3870216]},"properties":{"railway":"level_crossing"}},
{"type":"Feature","geometry":{"type":"Point","coordinates":[-1.4793542,53.3870455]},"properties":{"railway":"level_crossing"}},
{"type":"Feature","geometry":{"type":"Point","coordinates":[-1.4792025,53.3871052]},"properties":{"railway":"level_crossing"}},
{"type":"Feature","geometry":{"type":"Point","coordinates":[-1.4792552,53.3871266]},"properties":{"railway":"level_crossing"}},
{"type":"Feature","geometry":{"type":"Point","coordinates":[-1.4779304,53.3881335]},"properties":{"railway":"level_crossing"}},
{"type":"Feature","geometry":{"type":"Point","coordinates":[-1.4778957,53.3884523]},"properties":{"railway":"crossing"}},
{"type":"Feature","geometry":{"type":"Point","coordinates":[-1.4779063,53.388647]},"properties":{"name":"Shalesmoor","tram":"yes","railway":"tram_stop","wheelchair":"yes","public_transport":"stop_position"}},
{"type":"Feature","geometry":{"type":"Point","coordinates":[-1.4839506,53.3802084]},"properties":{"railway":"level_crossing","crossing:barrier":"no"}},
{"type":"Feature","geometry":{"type":"Point","coordinates":[-1.4840473,53.380437]},"properties":{"railway":"crossing"}},
{"type":"Feature","geometry":{"type":"Point","coordinates":[-1.4840466,53.3806743]},"properties":{"name":"University of Sheffield","tram":"yes","railway":"tram_stop","wheelchair":"yes","public_transport":"stop_position"}},
{"type":"Feature","geometry":{"type":"Point","coordinates":[-1.4530653,53.3847127]},"properties":{"railway":"level_crossing"}},
{"type":"Feature","geometry":{"type":"Point","coordinates":[-1.4720202,53.3822943]},"properties":{"highway":"crossing"}},
{"type":"Feature","geometry":{"type":"Point","coordinates":[-1.483967,53.3801598]},"properties":{"railway":"level_crossing","crossing:barrier":"no"}},
{"type":"Feature","geometry":{"type":"Point","coordinates":[-1.4808555,53.3799969]},"properties":{"highway":"crossing","crossing":"traffic_signals"}},
{"type":"Feature","geometry":{"type":"Point","coordinates":[-1.4803003,53.3800034]},"properties":{"highway":"traffic_signals"}},
{"type":"Feature","geometry":{"type":"Point","coordinates":[-1.4801739,53.3800155]},"properties":{"highway":"crossing","crossing":"traffic_signals"}},
{"type":"Feature","geometry":{"type":"Point","coordinates":[-1.4808525,53.3800573]},"properties":{"highway":"crossing","crossing":"traffic_signals"}},
{"type":"Feature","geometry":{"type":"Point","coordinates":[-1.4807427,53.3800584]},"properties":{"highway":"traffic_signals"}},
{"type":"Feature","geometry":{"type":"Point","coordinates":[-1.4801236,53.380081]},"properties":{"highway":"crossing","crossing":"traffic_signals"}},
{"type":"Feature","geometry":{"type":"Point","coordinates":[-1.4837489,53.3801377]},"properties":{"railway":"crossing","crossing":"traffic_signals"}},
{"type":"Feature","geometry":{"type":"Point","coordinates":[-1.4841041,53.3804369]},"properties":{"railway":"crossing"}},
{"type":"Feature","geometry":{"type":"Point","coordinates":[-1.4841033,53.3808849]},"properties":{"railway":"crossing"}},
{"type":"Feature","geometry":{"type":"Point","coordinates":[-1.4840486,53.380885]},"properties":{"railway":"crossing"}},
{"type":"Feature","geometry":{"type":"Point","coordinates":[-1.4769804,53.3806554]},"properties":{"name":"West Street","tram":"yes","railway":"tram_stop","wheelchair":"yes","public_transport":"stop_position"}},
{"type":"Feature","geometry":{"type":"Point","coordinates":[-1.431957,53.342255]},"properties":{"source":"Bing","railway":"level_crossing","crossing:barrier":"no"}},
{"type":"Feature","geometry":{"type":"Point","coordinates":[-1.4321632,53.3423313]},"properties":{"railway":"crossing"}},
{"type":"Feature","geometry":{"type":"Point","coordinates":[-1.4270993,53.3448801]},"properties":{"source":"Bing","railway":"level_crossing","crossing:barrier":"no"}},
{"type":"Feature","geometry":{"type":"Point","coordinates":[-1.426173,53.345647]},"properties":{"source":"Bing","railway":"level_crossing","crossing:barrier":"no"}},
{"type":"Feature","geometry":{"type":"Point","coordinates":[-1.4722073,53.3820996]},"properties":{"name":"City Hall","tram":"yes","railway":"tram_stop","wheelchair":"yes","public_transport":"stop_position"}},
{"type":"Feature","geometry":{"type":"Point","coordinates":[-1.471892,53.3822303]},"properties":{"highway":"crossing"}},
{"type":"Feature","geometry":{"type":"Point","coordinates":[-1.4718019,53.3822648]},"properties":{"highway":"traffic_signals"}},
{"type":"Feature","geometry":{"type":"Point","coordinates":[-1.4071841,53.4181051]},"properties":{"railway":"switch"}},
{"type":"Feature","geometry":{"type":"Point","coordinates":[-1.4257834,53.3461759]},"properties":{"name":"Gleadless Townend","tram":"yes","railway":"tram_stop","public_transport":"stop_position"}},
{"type":"Feature","geometry":{"type":"Point","coordinates":[-1.4317539,53.3422978]},"properties":{"source":"Bing","railway":"level_crossing","crossing:barrier":"no"}},
{"type":"Feature","geometry":{"type":"Point","coordinates":[-1.4327134,53.3425527]},"properties":{"railway":"crossing"}},
{"type":"Feature","geometry":{"type":"Point","coordinates":[-1.427527,53.344619]},"properties":{"source":"Bing","railway":"level_crossing","crossing:barrier":"no"}},
{"type":"Feature","geometry":{"type":"Point","coordinates":[-1.427173,53.344936]},"properties":{"source":"Bing","railway":"level_crossing","crossing:barrier":"no"}},
{"type":"Feature","geometry":{"type":"Point","coordinates":[-1.4264411,53.3455819]},"properties":{"railway":"level_crossing"}},
{"type":"Feature","geometry":{"type":"Point","coordinates":[-1.4263553,53.3455937]},"properties":{"source":"Bing","railway":"level_crossing","crossing:barrier":"no"}},
{"type":"Feature","geometry":{"type":"Point","coordinates":[-1.4107435,53.4057271]},"properties":{"railway":"crossing"}},
{"type":"Feature","geometry":{"type":"Point","coordinates":[-1.458345,53.3699339]},"properties":{"railway":"crossing"}},
{"type":"Feature","geometry":{"type":"Point","coordinates":[-1.4589475,53.3704007]},"properties":{"railway":"level_crossing"}},
{"type":"Feature","geometry":{"type":"Point","coordinates":[-1.4602627,53.3825828]},"properties":{"railway":"crossing"}},
{"type":"Feature","geometry":{"type":"Point","coordinates":[-1.4601337,53.3830419]},"properties":{"railway":"crossing"}},
{"type":"Feature","geometry":{"type":"Point","coordinates":[-1.4285603,53.3606296]},"properties":{"railway":"level_crossing"}},
{"type":"Feature","geometry":{"type":"Point","coordinates":[-1.4290398,53.3608285]},"properties":{"highway":"traffic_signals","crossing":"no"}},
{"type":"Feature","geometry":{"type":"Point","coordinates":[-1.4458564,53.384054]},"properties":{"railway":"level_crossing"}},
{"type":"Feature","geometry":{"type":"Point","coordinates":[-1.4276315,53.3446503]},"properties":{"source":"Bing","railway":"level_crossing","crossing:barrier":"no"}},
{"type":"Feature","geometry":{"type":"Point","coordinates":[-1.4607338,53.3828352]},"properties":{"railway":"crossing"}},
{"type":"Feature","geometry":{"type":"Point","coordinates":[-1.4614864,53.3750006]},"properties":{"name":"Granville Road / The Sheffield College","tram":"yes","railway":"tram_stop","public_transport":"stop_position"}},
{"type":"Feature","geometry":{"type":"Point","coordinates":[-1.4326141,53.3425098]},"properties":{"name":"Herdings / Leighton Road","tram":"yes","railway":"tram_stop","public_transport":"stop_position"}},
{"type":"Feature","geometry":{"type":"Point","coordinates":[-1.4999422,53.401967]},"properties":{"name":"Hillsborough","tram":"yes","railway":"tram_stop","wheelchair":"yes","public_transport":"stop_position","toilets:wheelchair":"no"}},
{"type":"Feature","geometry":{"type":"Point","coordinates":[-1.4611077,53.3796329]},"properties":{"railway":"crossing"}},
{"type":"Feature","geometry":{"type":"Point","coordinates":[-1.4612756,53.3781094]},"properties":{"railway":"crossing","crossing:barrier":"no"}},
{"type":"Feature","geometry":{"type":"Point","coordinates":[-1.461562,53.3757126]},"properties":{"railway":"crossing","crossing:barrier":"no"}},
{"type":"Feature","geometry":{"type":"Point","coordinates":[-1.4553236,53.3669138]},"properties":{"name":"Park Grange","tram":"yes","railway":"tram_stop","public_transport":"stop_position"}},
{"type":"Feature","geometry":{"type":"Point","coordinates":[-1.4284843,53.3601098]},"properties":{"railway":"level_crossing"}},
{"type":"Feature","geometry":{"type":"Point","coordinates":[-1.4283577,53.3591894]},"properties":{"railway":"level_crossing"}},
{"type":"Feature","geometry":{"type":"Point","coordinates":[-1.4263568,53.3456713]},"properties":{"railway":"level_crossing"}},
{"type":"Feature","geometry":{"type":"Point","coordinates":[-1.4263083,53.34565]},"properties":{"railway":"level_crossing"}},
{"type":"Feature","geometry":{"type":"Point","coordinates":[-1.433655,53.342705]},"properties":{"railway":"crossing"}},
{"type":"Feature","geometry":{"type":"Point","coordinates":[-1.4198039,53.3430841]},"properties":{"name":"White Lane","tram":"yes","railway":"tram_stop","public_transport":"stop_position"}},
{"type":"Feature","geometry":{"type":"Point","coordinates":[-1.394554,53.3407386]},"properties":{"railway":"crossing"}},
{"type":"Feature","geometry":{"type":"Point","coordinates":[-1.3838036,53.3430564]},"properties":{"railway":"level_crossing"}},
{"type":"Feature","geometry":{"type":"Point","coordinates":[-1.477949,53.3884503]},"properties":{"railway":"crossing"}},
{"type":"Feature","geometry":{"type":"Point","coordinates":[-1.4779317,53.38889]},"properties":{"railway":"crossing"}},
{"type":"Feature","geometry":{"type":"Point","coordinates":[-1.5097067,53.4154582]},"properties":{"railway":"level_crossing"}},
{"type":"Feature","geometry":{"type":"Point","coordinates":[-1.4520748,53.3846087]},"properties":{"railway":"crossing"}},
{"type":"Feature","geometry":{"type":"Point","coordinates":[-1.4462309,53.3840289]},"properties":{"railway":"crossing"}},
{"type":"Feature","geometry":{"type":"Point","coordinates":[-1.4469646,53.3840383]},"properties":{"railway":"crossing"}},
{"type":"Feature","geometry":{"type":"Point","coordinates":[-1.4528722,53.384692]},"properties":{"railway":"crossing"}},
{"type":"Feature","geometry":{"type":"Point","coordinates":[-1.4421213,53.3855259]},"properties":{"railway":"crossing"}},
{"type":"Feature","geometry":{"type":"Point","coordinates":[-1.4413837,53.3855248]},"properties":{"railway":"crossing"}},
{"type":"Feature","geometry":{"type":"Point","coordinates":[-1.4384739,53.385523]},"properties":{"railway":"crossing"}},
{"type":"Feature","geometry":{"type":"Point","coordinates":[-1.4350101,53.3884141]},"properties":{"railway":"level_crossing"}},
{"type":"Feature","geometry":{"type":"Point","coordinates":[-1.4303553,53.3923]},"properties":{"railway":"crossing"}},
{"type":"Feature","geometry":{"type":"Point","coordinates":[-1.4059518,53.4165007]},"properties":{"railway":"tram_level_crossing"}},
{"type":"Feature","geometry":{"type":"Point","coordinates":[-1.4049744,53.41403]},"properties":{"crossing":"uncontrolled","crossing:barrier":"no","level":"0","railway":"tram_crossing","supervised":"no"}},
{"type":"Feature","geometry":{"type":"Point","coordinates":[-1.40054,53.4185013]},"properties":{"railway":"switch"}},
{"type":"Feature","geometry":{"type":"Point","coordinates":[-1.4611548,53.3791707]},"properties":{"railway":"crossing","crossing:barrier":"no"}},
{"type":"Feature","geometry":{"type":"Point","coordinates":[-1.4376885,53.3856973]},"properties":{"railway":"crossing"}},
{"type":"Feature","geometry":{"type":"Point","coordinates":[-1.4210876,53.3979415]},"properties":{"railway":"crossing"}},
{"type":"Feature","geometry":{"type":"Point","coordinates":[-1.4347715,53.388593]},"properties":{"railway":"crossing"}},
{"type":"Feature","geometry":{"type":"Point","coordinates":[-1.4126171,53.4024375]},"properties":{"railway":"crossing"}},
{"type":"Feature","geometry":{"type":"Point","coordinates":[-1.4344811,53.3890532]},"properties":{"railway":"crossing"}},
{"type":"Feature","geometry":{"type":"Point","coordinates":[-1.412814,53.4020147]},"properties":{"railway":"crossing"}},
{"type":"Feature","geometry":{"type":"Point","coordinates":[-1.4199742,53.3984606]},"properties":{"railway":"crossing"}},
{"type":"Feature","geometry":{"type":"Point","coordinates":[-1.429572,53.3923588]},"properties":{"railway":"crossing"}},
{"type":"Feature","geometry":{"type":"Point","coordinates":[-1.3988967,53.3404806]},"properties":{"railway":"crossing"}},
{"type":"Feature","geometry":{"type":"Point","coordinates":[-1.3997019,53.3403702]},"properties":{"railway":"crossing"}},
{"type":"Feature","geometry":{"type":"Point","coordinates":[-1.4370317,53.385998]},"properties":{"railway":"switch"}},
{"type":"Feature","geometry":{"type":"Point","coordinates":[-1.4049503,53.414133]},"properties":{"name":"Meadowhall South / Tinsley","tram":"yes","network":"Supertram","railway":"tram_stop","operator":"Stagecoach","tactile_paving":"yes","public_transport":"stop_position"}},
{"type":"Feature","geometry":{"type":"Point","coordinates":[-1.4109894,53.4053864]},"properties":{"name":"Carbrook/IKEA","tram":"yes","network":"Supertram","railway":"tram_stop","operator":"Stagecoach","tactile_paving":"yes","public_transport":"stop_position"}},
{"type":"Feature","geometry":{"type":"Point","coordinates":[-1.4127456,53.4020808]},"properties":{"name":"Valley Centertainment","tram":"yes","network":"Supertram","railway":"tram_stop","operator":"Stagecoach","tactile_paving":"yes","public_transport":"stop_position"}},
{"type":"Feature","geometry":{"type":"Point","coordinates":[-1.4346603,53.3886668]},"properties":{"name":"Woodbourn Road","tram":"yes","network":"Supertram","railway":"tram_stop","operator":"Stagecoach","tactile_paving":"yes","public_transport":"stop_position"}},
{"type":"Feature","geometry":{"type":"Point","coordinates":[-1.4419529,53.3854958]},"properties":{"name":"Nunnery Square","tram":"yes","network":"Supertram","railway":"tram_stop","operator":"Stagecoach","tactile_paving":"yes","public_transport":"stop_position"}},
{"type":"Feature","geometry":{"type":"Point","coordinates":[-1.4469085,53.3840116]},"properties":{"name":"Cricket Inn Road","tram":"yes","network":"Supertram","railway":"tram_stop","operator":"Stagecoach","tactile_paving":"yes","public_transport":"stop_position"}},
{"type":"Feature","geometry":{"type":"Point","coordinates":[-1.4527542,53.3846511]},"properties":{"name":"Hyde Park","tram":"yes","network":"Supertram","railway":"tram_stop","operator":"Stagecoach","tactile_paving":"yes","public_transport":"stop_position"}},
{"type":"Feature","geometry":{"type":"Point","coordinates":[-1.4531001,53.3846878]},"properties":{"railway":"level_crossing"}},
{"type":"Feature","geometry":{"type":"Point","coordinates":[-1.4209472,53.3979699]},"properties":{"name":"Arena / Olympic Legacy Park","tram":"yes","network":"Supertram","railway":"tram_stop","operator":"Stagecoach","tactile_paving":"yes","public_transport":"stop_position"}},
{"type":"Feature","geometry":{"type":"Point","coordinates":[-1.4053871,53.4154533]},"properties":{"name":"Tinsley North Junction","railway":"switch"}},
{"type":"Feature","geometry":{"type":"Point","coordinates":[-1.4058964,53.4165269]},"properties":{"railway":"tram_level_crossing"}},
{"type":"Feature","geometry":{"type":"Point","coordinates":[-1.4644062,53.3832009]},"properties":{"railway":"level_crossing","crossing:barrier":"no"}},
{"type":"Feature","geometry":{"type":"Point","coordinates":[-1.4640516,53.3831768]},"properties":{"name":"Fitzalan Square / Ponds Forge","tram":"yes","railway":"tram_stop","tactile_paving":"yes","public_transport":"stop_position"}},
{"type":"Feature","geometry":{"type":"Point","coordinates":[-1.4604514,53.3828024]},"properties":{"railway":"railway_crossing"}},
{"type":"Feature","geometry":{"type":"Point","coordinates":[-1.4642786,53.3831936]},"properties":{"railway":"crossing","crossing":"uncontrolled","supervised":"no","crossing:bell":"no","crossing:light":"no","crossing:barrier":"no"}},
{"type":"Feature","geometry":{"type":"Point","coordinates":[-1.4642771,53.3832285]},"properties":{"railway":"crossing","crossing":"uncontrolled","supervised":"no","crossing:bell":"no","crossing:light":"no","crossing:barrier":"no"}},
{"type":"Feature","geometry":{"type":"Point","coordinates":[-1.4658802,53.3831002]},"properties":{"name":"Castle Square","tram":"yes","railway":"tram_stop","wheelchair":"yes","public_transport":"stop_position"}},
{"type":"Feature","geometry":{"type":"Point","coordinates":[-1.4656504,53.3831264]},"properties":{"railway":"level_crossing","crossing:barrier":"no"}},
{"type":"Feature","geometry":{"type":"Point","coordinates":[-1.4600814,53.3830173]},"properties":{"railway":"crossing"}},
{"type":"Feature","geometry":{"type":"Point","coordinates":[-1.4608661,53.3811737]},"properties":{"railway":"crossing"}},
{"type":"Feature","geometry":{"type":"Point","coordinates":[-1.4601497,53.3819887]},"properties":{"railway":"crossing"}},
{"type":"Feature","geometry":{"type":"Point","coordinates":[-1.4610409,53.3796305]},"properties":{"railway":"crossing"}},
{"type":"Feature","geometry":{"type":"Point","coordinates":[-1.4611022,53.3791691]},"properties":{"railway":"crossing","crossing:barrier":"no"}},
{"type":"Feature","geometry":{"type":"Point","coordinates":[-1.4612136,53.3781074]},"properties":{"railway":"crossing","crossing:barrier":"no"}},
{"type":"Feature","geometry":{"type":"Point","coordinates":[-1.4613725,53.3767474]},"properties":{"railway":"crossing","crossing:barrier":"no"}},
{"type":"Feature","geometry":{"type":"Point","coordinates":[-1.4615012,53.3757125]},"properties":{"railway":"crossing","crossing:barrier":"no"}},
{"type":"Feature","geometry":{"type":"Point","coordinates":[-1.461505,53.3755999]},"properties":{"railway":"level_crossing"}},
{"type":"Feature","geometry":{"type":"Point","coordinates":[-1.4615537,53.3755493]},"properties":{"railway":"level_crossing"}},
{"type":"Feature","geometry":{"type":"Point","coordinates":[-1.4614344,53.3767478]},"properties":{"railway":"crossing","crossing:barrier":"no"}},
{"type":"Feature","geometry":{"type":"Point","coordinates":[-1.4602101,53.3825951]},"properties":{"railway":"crossing"}},
{"type":"Feature","geometry":{"type":"Point","coordinates":[-1.4607401,53.3827961]},"properties":{"railway":"crossing"}},
{"type":"Feature","geometry":{"type":"Point","coordinates":[-1.4656542,53.3831604]},"properties":{"railway":"level_crossing","crossing:barrier":"no"}},
{"type":"Feature","geometry":{"type":"Point","coordinates":[-1.4656366,53.3831623]},"properties":{"railway":"level_crossing","crossing:barrier":"no"}},
{"type":"Feature","geometry":{"type":"Point","coordinates":[-1.4680897,53.3826728]},"properties":{"railway":"level_crossing"}},
{"type":"Feature","geometry":{"type":"Point","coordinates":[-1.4680953,53.3826801]},"properties":{"railway":"level_crossing"}},
{"type":"Feature","geometry":{"type":"Point","coordinates":[-1.4688534,53.3825796]},"properties":{"name":"Cathedral","tram":"yes","railway":"tram_stop","wheelchair":"yes","public_transport":"stop_position"}},
{"type":"Feature","geometry":{"type":"Point","coordinates":[-1.4612407,53.3778615]},"properties":{"name":"Sheffield Station / Sheffield Hallam University","tram":"yes","railway":"tram_stop","wheelchair":"yes","public_transport":"stop_position","toilets:wheelchair":"yes"}},
{"type":"Feature","geometry":{"type":"Point","coordinates":[-1.4302672,53.3922699]},"properties":{"name":"Attercliffe","tram":"yes","railway":"tram_stop","wheelchair":"yes","public_transport":"stop_position"}},
{"type":"Feature","geometry":{"type":"Point","coordinates":[-1.4295041,53.3431427]},"properties":{"railway":"crossing"}},
{"type":"Feature","geometry":{"type":"Point","coordinates":[-1.4293529,53.3431359]},"properties":{"railway":"crossing"}},
{"type":"Feature","geometry":{"type":"Point","coordinates":[-1.4261091,53.3455573]},"properties":{"source":"Bing","highway":"crossing","crossing":"traffic_signals"}},
{"type":"Feature","geometry":{"type":"Point","coordinates":[-1.4259281,53.3459967]},"properties":{"name":"Gleadless Townend","tram":"yes","railway":"tram_stop","public_transport":"stop_position"}},
{"type":"Feature","geometry":{"type":"Point","coordinates":[-1.4271439,53.3448747]},"properties":{"source":"Bing","railway":"level_crossing","crossing:barrier":"no"}},
{"type":"Feature","geometry":{"type":"Point","coordinates":[-1.424424,53.351853]},"properties":{"source":"Bing","railway":"crossing","crossing:barrier":"no"}},
{"type":"Feature","geometry":{"type":"Point","coordinates":[-1.424477,53.351847]},"properties":{"source":"Bing","railway":"crossing","crossing:barrier":"no"}},
{"type":"Feature","geometry":{"type":"Point","coordinates":[-1.4243999,53.3495563]},"properties":{"source":"Bing","railway":"crossing","crossing:barrier":"no"}},
{"type":"Feature","geometry":{"type":"Point","coordinates":[-1.424143,53.350556]},"properties":{"railway":"crossing"}},
{"type":"Feature","geometry":{"type":"Point","coordinates":[-1.424294,53.34941]},"properties":{"source":"Bing","railway":"crossing","crossing:barrier":"no"}},
{"type":"Feature","geometry":{"type":"Point","coordinates":[-1.4241485,53.3507321]},"properties":{"source":"Bing","railway":"level_crossing","crossing:barrier":"no"}},
{"type":"Feature","geometry":{"type":"Point","coordinates":[-1.4242579,53.3507062]},"properties":{"source":"Bing","railway":"level_crossing","crossing:barrier":"no"}},
{"type":"Feature","geometry":{"type":"Point","coordinates":[-1.4244528,53.3519306]},"properties":{"name":"Hollinsend","tram":"yes","railway":"tram_stop","public_transport":"stop_position"}},
{"type":"Feature","geometry":{"type":"Point","coordinates":[-1.4245926,53.3521684]},"properties":{"name":"Hollinsend","tram":"yes","railway":"tram_stop","public_transport":"stop_position"}},
{"type":"Feature","geometry":{"type":"Point","coordinates":[-1.4044578,53.4158723]},"properties":{"railway":"switch"}},
{"type":"Feature","geometry":{"type":"Point","coordinates":[-1.4107065,53.4057161]},"properties":{"railway":"crossing"}},
{"type":"Feature","geometry":{"type":"Point","coordinates":[-1.4110409,53.4053265]},"properties":{"railway":"crossing"}},
{"type":"Feature","geometry":{"type":"Point","coordinates":[-1.3802278,53.3435222]},"properties":{"railway":"crossing"}},
{"type":"Feature","geometry":{"type":"Point","coordinates":[-1.3774373,53.3420178]},"properties":{"railway":"crossing"}},
{"type":"Feature","geometry":{"type":"Point","coordinates":[-1.3742343,53.3414438]},"properties":{"railway":"crossing"}},
{"type":"Feature","geometry":{"type":"Point","coordinates":[-1.3888866,53.3415099]},"properties":{"name":"Birley Moor Road","tram":"yes","railway":"tram_stop","public_transport":"stop_position"}},
{"type":"Feature","geometry":{"type":"Point","coordinates":[-1.3883578,53.3416799]},"properties":{"railway":"crossing"}},
{"type":"Feature","geometry":{"type":"Point","coordinates":[-1.4201557,53.3431001]},"properties":{"railway":"crossing"}},
{"type":"Feature","geometry":{"type":"Point","coordinates":[-1.420123,53.3431412]},"properties":{"railway":"crossing"}},
{"type":"Feature","geometry":{"type":"Point","coordinates":[-1.396873,53.3407394]},"properties":{"railway":"crossing"}},
{"type":"Feature","geometry":{"type":"Point","coordinates":[-1.3961053,53.3408185]},"properties":{"railway":"crossing"}},
{"type":"Feature","geometry":{"type":"Point","coordinates":[-1.4198192,53.3430388]},"properties":{"name":"White Lane","tram":"yes","railway":"tram_stop","public_transport":"stop_position"}},
{"type":"Feature","geometry":{"type":"Point","coordinates":[-1.3960915,53.3407884]},"properties":{"railway":"crossing"}},
{"type":"Feature","geometry":{"type":"Point","coordinates":[-1.4986529,53.401445]},"properties":{"railway":"crossing"}},
{"type":"Feature","geometry":{"type":"Point","coordinates":[-1.4987498,53.401484]},"properties":{"railway":"crossing"}},
{"type":"Feature","geometry":{"type":"Point","coordinates":[-1.4458199,53.3840347]},"properties":{"railway":"level_crossing"}},
{"type":"Feature","geometry":{"type":"Point","coordinates":[-1.4797663,53.3800665]},"properties":{"bus":"yes","name":"West Street/Fitzwilliam Street","public_transport":"stop_position"}},
{"type":"Feature","geometry":{"type":"Point","coordinates":[-1.5039603,53.4092614]},"properties":{"bus":"yes","name":"Middlewood Road/Parkside Road","public_transport":"stop_position"}},
{"type":"Feature","geometry":{"type":"Point","coordinates":[-1.5039502,53.4091265]},"properties":{"bus":"yes","name":"Middlewood Road/Lennox Road","public_transport":"stop_position"}},
{"type":"Feature","geometry":{"type":"Point","coordinates":[-1.5022558,53.4031278]},"properties":{"bus":"yes","name":"Middlewood Road/Taplin Road","public_transport":"stop_position"}},
{"type":"Feature","geometry":{"type":"Point","coordinates":[-1.4673456,53.3828668]},"properties":{"railway":"crossing"}},
{"type":"Feature","geometry":{"type":"Point","coordinates":[-1.4428065,53.3856133]},"properties":{"railway":"crossing"}},
{"type":"Feature","geometry":{"type":"Point","coordinates":[-1.4385097,53.3854756]},"properties":{"railway":"crossing"}},
{"type":"Feature","geometry":{"type":"Point","coordinates":[-1.437517,53.3857692]},"properties":{"railway":"level_crossing"}},
{"type":"Feature","geometry":{"type":"Point","coordinates":[-1.4413836,53.3854938]},"properties":{"railway":"crossing"}},
{"type":"Feature","geometry":{"type":"Point","coordinates":[-1.4421229,53.3854964]},"properties":{"railway":"crossing"}},
{"type":"Feature","geometry":{"type":"Point","coordinates":[-1.4377202,53.3857199]},"properties":{"railway":"crossing"}},
{"type":"Feature","geometry":{"type":"Point","coordinates":[-1.4344301,53.3890418]},"properties":{"railway":"crossing"}},
{"type":"Feature","geometry":{"type":"Point","coordinates":[-1.4347159,53.3885818]},"properties":{"railway":"crossing"}},
{"type":"Feature","geometry":{"type":"Point","coordinates":[-1.4349729,53.388395]},"properties":{"railway":"level_crossing"}},
{"type":"Feature","geometry":{"type":"Point","coordinates":[-1.4351087,53.3883462]},"properties":{"railway":"level_crossing"}},
{"type":"Feature","geometry":{"type":"Point","coordinates":[-1.4330858,53.3911215]},"properties":{"railway":"level_crossing"}},
{"type":"Feature","geometry":{"type":"Point","coordinates":[-1.4287714,53.3924315]},"properties":{"railway":"level_crossing"}},
{"type":"Feature","geometry":{"type":"Point","coordinates":[-1.4295647,53.3923255]},"properties":{"railway":"crossing"}},
{"type":"Feature","geometry":{"type":"Point","coordinates":[-1.4303476,53.3922649]},"properties":{"railway":"crossing"}},
{"type":"Feature","geometry":{"type":"Point","coordinates":[-1.4199498,53.3984364]},"properties":{"railway":"crossing"}},
{"type":"Feature","geometry":{"type":"Point","coordinates":[-1.4210436,53.3979152]},"properties":{"railway":"crossing"}},
{"type":"Feature","geometry":{"type":"Point","coordinates":[-1.4125824,53.4024318]},"properties":{"railway":"crossing"}},
{"type":"Feature","geometry":{"type":"Point","coordinates":[-1.4127814,53.4020093]},"properties":{"railway":"crossing"}},
{"type":"Feature","geometry":{"type":"Point","coordinates":[-1.4049238,53.4140339]},"properties":{"railway":"tram_crossing"}},
{"type":"Feature","geometry":{"type":"Point","coordinates":[-1.4050957,53.4146179]},"properties":{"railway":"tram_crossing"}},
{"type":"Feature","geometry":{"type":"Point","coordinates":[-1.4462328,53.3839994]},"properties":{"railway":"crossing"}},
{"type":"Feature","geometry":{"type":"Point","coordinates":[-1.4469668,53.3840128]},"properties":{"railway":"crossing"}},
{"type":"Feature","geometry":{"type":"Point","coordinates":[-1.4520829,53.3845781]},"properties":{"railway":"crossing"}},
{"type":"Feature","geometry":{"type":"Point","coordinates":[-1.4528792,53.3846655]},"properties":{"railway":"crossing"}},
{"type":"Feature","geometry":{"type":"Point","coordinates":[-1.453118,53.3846897]},"properties":{"railway":"level_crossing"}},
{"type":"Feature","geometry":{"type":"Point","coordinates":[-1.4612813,53.3775489]},"properties":{"railway":"crossing"}},
{"type":"Feature","geometry":{"type":"Point","coordinates":[-1.46134,53.3775518]},"properties":{"railway":"crossing"}},
{"type":"Feature","geometry":{"type":"Point","coordinates":[-1.461253,53.3744742]},"properties":{"highway":"traffic_signals","crossing":"no"}},
{"type":"Feature","geometry":{"type":"Point","coordinates":[-1.4284149,53.3594693]},"properties":{"railway":"level_crossing"}},
{"type":"Feature","geometry":{"type":"Point","coordinates":[-1.4283071,53.3590417]},"properties":{"railway":"crossing","crossing":"unmarked"}},
{"type":"Feature","geometry":{"type":"Point","coordinates":[-1.4285818,53.3589661]},"properties":{"highway":"crossing","crossing":"unmarked"}},
{"type":"Feature","geometry":{"type":"Point","coordinates":[-1.4290586,53.3608751]},"properties":{"highway":"crossing","crossing":"traffic_signals"}},
{"type":"Feature","geometry":{"type":"Point","coordinates":[-1.4289505,53.3609606]},"properties":{"highway":"crossing","railway":"crossing","crossing":"traffic_signals"}},
{"type":"Feature","geometry":{"type":"Point","coordinates":[-1.428565,53.3589379]},"properties":{"highway":"traffic_signals","crossing":"no"}},
{"type":"Feature","geometry":{"type":"Point","coordinates":[-1.405935,53.4165863]},"properties":{"railway":"tram_level_crossing"}},
{"type":"Feature","geometry":{"type":"Point","coordinates":[-1.4059896,53.4165616]},"properties":{"railway":"tram_level_crossing"}},
{"type":"Feature","geometry":{"type":"Point","coordinates":[-1.4937098,53.3990926]},"properties":{"bus":"yes","name":"Langsett Road/Bamforth Street","public_transport":"stop_position"}},
{"type":"Feature","geometry":{"type":"Point","coordinates":[-1.3894691,53.3412572]},"properties":{"railway":"crossing"}},
{"type":"Feature","geometry":{"type":"Point","coordinates":[-1.3895788,53.3412793]},"properties":{"highway":"crossing","railway":"crossing","crossing":"unmarked"}},
{"type":"Feature","geometry":{"type":"Point","coordinates":[-1.3890098,53.3414703]},"properties":{"railway":"crossing"}},
{"type":"Feature","geometry":{"type":"Point","coordinates":[-1.3890374,53.3415]},"properties":{"railway":"crossing"}},
{"type":"Feature","geometry":{"type":"Point","coordinates":[-1.3901174,53.3409564]},"properties":{"railway":"crossing"}},
{"type":"Feature","geometry":{"type":"Point","coordinates":[-1.3900018,53.3408776]},"properties":{"railway":"crossing"}},
{"type":"Feature","geometry":{"type":"Point","coordinates":[-1.3840584,53.3429715]},"properties":{"railway":"crossing"}},
{"type":"Feature","geometry":{"type":"Point","coordinates":[-1.3840311,53.3429415]},"properties":{"railway":"crossing"}},
{"type":"Feature","geometry":{"type":"Point","coordinates":[-1.3802092,53.3435474]},"properties":{"railway":"crossing"}},
{"type":"Feature","geometry":{"type":"Point","coordinates":[-1.3742357,53.341413]},"properties":{"railway":"crossing"}},
{"type":"Feature","geometry":{"type":"Point","coordinates":[-1.419539,53.3430435]},"properties":{"railway":"crossing"}},
{"type":"Feature","geometry":{"type":"Point","coordinates":[-1.4195585,53.3429945]},"properties":{"railway":"crossing"}},
{"type":"Feature","geometry":{"type":"Point","coordinates":[-1.3968618,53.3407075]},"properties":{"railway":"crossing"}},
{"type":"Feature","geometry":{"type":"Point","coordinates":[-1.3774676,53.3419844]},"properties":{"railway":"crossing"}},
{"type":"Feature","geometry":{"type":"Point","coordinates":[-1.4187997,53.3429281]},"properties":{"railway":"crossing"}},
{"type":"Feature","geometry":{"type":"Point","coordinates":[-1.4188239,53.3428834]},"properties":{"railway":"crossing"}},
{"type":"Feature","geometry":{"type":"Point","coordinates":[-1.4402194,53.3661163]},"properties":{"crossing":"unmarked","crossing:island":"yes","kerb":"lowered","railway":"crossing","supervised":"no","tactile_paving":"yes"}},
{"type":"Feature","geometry":{"type":"Point","coordinates":[-1.4587971,53.3702923]},"properties":{"railway":"crossing"}},
{"type":"Feature","geometry":{"type":"Point","coordinates":[-1.4571789,53.3695039]},"properties":{"railway":"crossing"}},
{"type":"Feature","geometry":{"type":"Point","coordinates":[-1.4568862,53.3694876]},"properties":{"railway":"level_crossing"}},
{"type":"Feature","geometry":{"type":"Point","coordinates":[-1.4550349,53.3671786]},"properties":{"railway":"crossing"}},
{"type":"Feature","geometry":{"type":"Point","coordinates":[-1.4498244,53.3635518]},"properties":{"railway":"crossing"}},
{"type":"Feature","geometry":{"type":"Point","coordinates":[-1.4480212,53.3633691]},"properties":{"railway":"crossing"}},
{"type":"Feature","geometry":{"type":"Point","coordinates":[-1.4463456,53.363684]},"properties":{"railway":"crossing"}},
{"type":"Feature","geometry":{"type":"Point","coordinates":[-1.4416871,53.3664906]},"properties":{"railway":"crossing"}},
{"type":"Feature","geometry":{"type":"Point","coordinates":[-1.4310832,53.3623143]},"properties":{"railway":"crossing"}},
{"type":"Feature","geometry":{"type":"Point","coordinates":[-1.4401571,53.3661896]},"properties":{"crossing":"unmarked","crossing:island":"yes","kerb":"lowered","railway":"crossing","supervised":"no","tactile_paving":"yes"}},
{"type":"Feature","geometry":{"type":"Point","coordinates":[-1.4441375,53.3652554]},"properties":{"railway":"crossing"}},
{"type":"Feature","geometry":{"type":"Point","coordinates":[-1.4464008,53.363738]},"properties":{"railway":"crossing"}},
{"type":"Feature","geometry":{"type":"Point","coordinates":[-1.4497857,53.3636073]},"properties":{"railway":"crossing"}},
{"type":"Feature","geometry":{"type":"Point","coordinates":[-1.4504148,53.3638065]},"properties":{"railway":"crossing"}},
{"type":"Feature","geometry":{"type":"Point","coordinates":[-1.4571733,53.3695451]},"properties":{"railway":"crossing"}},
{"type":"Feature","geometry":{"type":"Point","coordinates":[-1.4583063,53.3699514]},"properties":{"railway":"crossing"}},
{"type":"Feature","geometry":{"type":"Point","coordinates":[-1.4587598,53.3703105]},"properties":{"railway":"crossing"}},
{"type":"Feature","geometry":{"type":"Point","coordinates":[-1.4588991,53.3704217]},"properties":{"railway":"level_crossing"}},
{"type":"Feature","geometry":{"type":"Point","coordinates":[-1.4355374,53.3651319]},"properties":{"railway":"crossing"}},
{"type":"Feature","geometry":{"type":"Point","coordinates":[-1.435613,53.3650915]},"properties":{"railway":"crossing"}},
{"type":"Feature","geometry":{"type":"Point","coordinates":[-1.4341863,53.3642684]},"properties":{"railway":"crossing","crossing":"traffic_signals"}},
{"type":"Feature","geometry":{"type":"Point","coordinates":[-1.4342438,53.364236]},"properties":{"railway":"crossing","crossing":"traffic_signals"}},
{"type":"Feature","geometry":{"type":"Point","coordinates":[-1.4311507,53.3622788]},"properties":{"railway":"crossing"}},
{"type":"Feature","geometry":{"type":"Point","coordinates":[-1.4377276,53.3665067]},"properties":{"railway":"crossing"}},
{"type":"Feature","geometry":{"type":"Point","coordinates":[-1.4377854,53.3664734]},"properties":{"railway":"crossing"}},
{"type":"Feature","geometry":{"type":"Point","coordinates":[-1.4380673,53.3665078]},"properties":{"railway":"crossing"}},
{"type":"Feature","geometry":{"type":"Point","coordinates":[-1.4380929,53.3665692]},"properties":{"railway":"crossing"}},
{"type":"Feature","geometry":{"type":"Point","coordinates":[-1.4384969,53.3664259]},"properties":{"railway":"crossing"}},
{"type":"Feature","geometry":{"type":"Point","coordinates":[-1.4384569,53.3663824]},"properties":{"railway":"crossing"}},
{"type":"Feature","geometry":{"type":"Point","coordinates":[-1.4390694,53.3661285]},"properties":{"railway":"crossing"}},
{"type":"Feature","geometry":{"type":"Point","coordinates":[-1.4391154,53.3661758]},"properties":{"railway":"crossing"}},
{"type":"Feature","geometry":{"type":"Point","coordinates":[-1.4394228,53.3661065]},"properties":{"railway":"crossing"}},
{"type":"Feature","geometry":{"type":"Point","coordinates":[-1.4394183,53.3660341]},"properties":{"railway":"crossing"}},
{"type":"Feature","geometry":{"type":"Point","coordinates":[-1.440903,53.3664191]},"properties":{"railway":"crossing"}},
{"type":"Feature","geometry":{"type":"Point","coordinates":[-1.4409665,53.36635]},"properties":{"railway":"crossing"}},
{"type":"Feature","geometry":{"type":"Point","coordinates":[-1.4440634,53.3652382]},"properties":{"railway":"crossing"}},
{"type":"Feature","geometry":{"type":"Point","coordinates":[-1.4425803,53.3663991]},"properties":{"railway":"crossing"}},
{"type":"Feature","geometry":{"type":"Point","coordinates":[-1.4425324,53.3663489]},"properties":{"railway":"crossing"}},
{"type":"Feature","geometry":{"type":"Point","coordinates":[-1.4416894,53.3665505]},"properties":{"railway":"crossing"}},
{"type":"Feature","geometry":{"type":"Point","coordinates":[-1.44703,53.3635706]},"properties":{"railway":"crossing"}},
{"type":"Feature","geometry":{"type":"Point","coordinates":[-1.4469843,53.3635077]},"properties":{"railway":"crossing"}},
{"type":"Feature","geometry":{"type":"Point","coordinates":[-1.448031,53.363454]},"properties":{"railway":"crossing"}},
{"type":"Feature","geometry":{"type":"Point","coordinates":[-1.4504796,53.3637616]},"properties":{"railway":"crossing"}},
{"type":"Feature","geometry":{"type":"Point","coordinates":[-1.452858,53.3644481]},"properties":{"railway":"crossing"}},
{"type":"Feature","geometry":{"type":"Point","coordinates":[-1.4528361,53.3645069]},"properties":{"railway":"crossing"}},
{"type":"Feature","geometry":{"type":"Point","coordinates":[-1.4388177,53.366228]},"properties":{"name":"Spring Lane","public_transport":"stop_position","railway":"tram_stop","tram":"yes"}},
{"type":"Feature","geometry":{"type":"Point","coordinates":[-1.4583995,53.3700245]},"properties":{"name":"Park Grange Croft","tram":"yes","railway":"tram_stop","public_transport":"stop_position"}},
{"type":"Feature","geometry":{"type":"Point","coordinates":[-1.4568755,53.3695319]},"properties":{"railway":"level_crossing"}},
{"type":"Feature","geometry":{"type":"Point","coordinates":[-1.4549524,53.3671393]},"properties":{"railway":"crossing"}},
{"type":"Feature","geometry":{"type":"Point","coordinates":[-1.4339554,53.3640459]},"properties":{"railway":"level_crossing"}},
{"type":"Feature","geometry":{"type":"Point","coordinates":[-1.4581054,53.3698237]},"properties":{"railway":"level_crossing"}},
{"type":"Feature","geometry":{"type":"Point","coordinates":[-1.4260068,53.3459274]},"properties":{"railway":"crossing"}},
{"type":"Feature","geometry":{"type":"Point","coordinates":[-1.4260491,53.3459449]},"properties":{"railway":"crossing"}},
{"type":"Feature","geometry":{"type":"Point","coordinates":[-1.427274,53.344785]},"properties":{"railway":"crossing"}},
{"type":"Feature","geometry":{"type":"Point","coordinates":[-1.424251,53.350514]},"properties":{"railway":"crossing"}},
{"type":"Feature","geometry":{"type":"Point","coordinates":[-1.4268367,53.356389]},"properties":{"railway":"crossing"}},
{"type":"Feature","geometry":{"type":"Point","coordinates":[-1.4267642,53.3564456]},"properties":{"railway":"crossing"}},
{"type":"Feature","geometry":{"type":"Point","coordinates":[-1.5099221,53.4156522]},"properties":{"railway":"crossing"}},
{"type":"Feature","geometry":{"type":"Point","coordinates":[-1.4250896,53.3447092]},"properties":{"highway":"crossing","crossing":"unmarked","tactile_paving":"yes","crossing:island":"no"}},
{"type":"Feature","geometry":{"type":"Point","coordinates":[-1.4253191,53.3445084]},"properties":{"railway":"crossing"}},
{"type":"Feature","geometry":{"type":"Point","coordinates":[-1.472474,53.3818055]},"properties":{"railway":"crossing"}},
{"type":"Feature","geometry":{"type":"Point","coordinates":[-1.4986328,53.4013476]},"properties":{"railway":"tram_level_crossing"}},
{"type":"Feature","geometry":{"type":"Point","coordinates":[-1.502306,53.4021188]},"properties":{"bus":"yes","name":"Holme Lane/Hillsborough Place","public_transport":"stop_position"}},
{"type":"Feature","geometry":{"type":"Point","coordinates":[-1.501438,53.4023295]},"properties":{"bus":"yes","name":"Holme Lane/Walkley Lane","public_transport":"stop_position"}},
{"type":"Feature","geometry":{"type":"Point","coordinates":[-1.4340794,53.3641271]},"properties":{"railway":"level_crossing"}},
{"type":"Feature","geometry":{"type":"LineString","coordinates":[[-1.4893709,53.3957674],[-1.4892943,53.3956067],[-1.4892815,53.3955858],[-1.4891823,53.3953902],[-1.4889952,53.3949433],[-1.4889603,53.3948678],[-1.4888444,53.3946109],[-1.4887966,53.3945339],[-1.4887383,53.3944618],[-1.4886611,53.3943949],[-1.4885287,53.3943246],[-1.4883388,53.3942335],[-1.4879451,53.3940081],[-1.4873788,53.3937151],[-1.487088,53.3935415],[-1.4866192,53.3932422],[-1.4858601,53.3927383],[-1.4853676,53.3924124],[-1.4852693,53.392317],[-1.4849049,53.392096],[-1.4845632,53.3918668],[-1.4842398,53.391685],[-1.4840178,53.3915621],[-1.4838064,53.3914443],[-1.4835239,53.3913081],[-1.4833613,53.3912424],[-1.4831375,53.3911867],[-1.4829513,53.391122],[-1.4825316,53.3909227]]},"properties":{"electrified":"contact_line","frequency":"0","gauge":"1435","railway":"tram","tracks":"2","voltage":"750"}},
{"type":"Feature","geometry":{"type":"LineString","coordinates":[[-1.4779651,53.3886571],[-1.4779818,53.38889],[-1.4779845,53.388939],[-1.4779955,53.3889895],[-1.4780215,53.3890392],[-1.4780555,53.3890759],[-1.4781042,53.3891161],[-1.4781678,53.3891614],[-1.4782408,53.3892073],[-1.478338,53.3892526],[-1.4784411,53.3892927],[-1.4785522,53.3893327],[-1.4786522,53.3893535],[-1.4790218,53.389455],[-1.4791637,53.3895098],[-1.4792702,53.389551]]},"properties":{"gauge":"1435","oneway":"yes","tracks":"1","railway":"tram","voltage":"750","frequency":"0","electrified":"contact_line"}},
{"type":"Feature","geometry":{"type":"LineString","coordinates":[[-1.470938,53.382464],[-1.4710584,53.3824395],[-1.4711398,53.3824263],[-1.4712668,53.3824056],[-1.4713791,53.3823884],[-1.4714954,53.3823628],[-1.4715626,53.3823462],[-1.4716373,53.382324],[-1.4717075,53.3823002],[-1.4718019,53.3822648],[-1.471892,53.3822303],[-1.471945,53.3822059],[-1.4719886,53.3821827]]},"properties":{"lit":"yes","gauge":"1435","oneway":"yes","tracks":"1","railway":"tram","voltage":"750","maxspeed":"30 mph","frequency":"0","electrified":"contact_line"}},
{"type":"Feature","geometry":{"type":"LineString","coordinates":[[-1.4630193,53.3830407],[-1.4628028,53.3829939]]},"properties":{"gauge":"1435","layer":"1","bridge":"yes","tracks":"2","railway":"tram","voltage":"750","maxspeed":"30 mph","frequency":"0","electrified":"contact_line"}},
{"type":"Feature","geometry":{"type":"LineString","coordinates":[[-1.4602096,53.3829727],[-1.4602495,53.3828969],[-1.4602845,53.3828029],[-1.4603103,53.3827279],[-1.4603158,53.382684],[-1.4602925,53.3826215]]},"properties":{"note":"Very occasional services only","gauge":"1435","tracks":"1","railway":"tram","voltage":"750","frequency":"0","electrified":"contact_line"}},
{"type":"Feature","geometry":{"type":"LineString","coordinates":[[-1.4601182,53.3822965],[-1.4601358,53.3823707],[-1.4601607,53.3824332],[-1.4601983,53.3824934],[-1.4602358,53.382544]]},"properties":{"gauge":"1435","layer":"1","bridge":"yes","tracks":"1","railway":"tram","voltage":"750","frequency":"0","electrified":"contact_line"}},
{"type":"Feature","geometry":{"type":"LineString","coordinates":[[-1.4558027,53.3847113],[-1.456022,53.3846723],[-1.45625,53.3846258],[-1.4564594,53.3845821],[-1.4566084,53.3845409],[-1.4567499,53.3845006],[-1.4569064,53.3844527],[-1.4571062,53.3843896],[-1.4589268,53.3837369],[-1.4590617,53.3836908],[-1.4591822,53.3836441],[-1.4592804,53.3835924],[-1.4594077,53.3835277],[-1.4595382,53.3834574],[-1.4596848,53.3833621],[-1.4598574,53.3832291]]},"properties":{"gauge":"1435","layer":"1","bridge":"yes","tracks":"2","railway":"tram","voltage":"750","frequency":"0","electrified":"contact_line"}},
{"type":"Feature","geometry":{"type":"LineString","coordinates":[[-1.4841479,53.3825845],[-1.4841528,53.3829079],[-1.4841357,53.3831054],[-1.484095,53.3832806],[-1.4840216,53.3834557],[-1.4839118,53.3836267],[-1.4838126,53.3837629],[-1.4837473,53.3838432],[-1.4836727,53.383921],[-1.4836085,53.3839899],[-1.4835347,53.3840618],[-1.4834463,53.3841332],[-1.4832931,53.3842467],[-1.4830731,53.3844276],[-1.4825657,53.384765],[-1.4820838,53.3850685],[-1.4817048,53.385292],[-1.4813438,53.3855284],[-1.4808327,53.3858869],[-1.4806449,53.3860047],[-1.4804677,53.3861209],[-1.4803234,53.3862215],[-1.4801936,53.3863219],[-1.4799256,53.3865384],[-1.4798111,53.3866392],[-1.4797684,53.3866812],[-1.4797325,53.3867129],[-1.4793993,53.3870076],[-1.4793542,53.3870455],[-1.4792552,53.3871266],[-1.4791941,53.3871732],[-1.4788379,53.387434],[-1.4785981,53.3875936],[-1.4784142,53.3877167],[-1.4782356,53.3878454],[-1.4781487,53.3879094],[-1.4780653,53.3879954],[-1.4780254,53.3880626],[-1.4779937,53.3881233],[-1.4779856,53.388152],[-1.4779645,53.3882147],[-1.4779537,53.388307],[-1.4779482,53.3883848],[-1.477949,53.3884503],[-1.4779651,53.3886571]]},"properties":{"gauge":"1435","oneway":"yes","tracks":"1","railway":"tram","voltage":"750","frequency":"0","electrified":"contact_line"}},
{"type":"Feature","geometry":{"type":"LineString","coordinates":[[-1.4841047,53.3813823],[-1.4841479,53.3825845]]},"properties":{"gauge":"1435","layer":"-1","oneway":"yes","tracks":"1","tunnel":"yes","railway":"tram","voltage":"750","frequency":"0","electrified":"contact_line"}},
{"type":"Feature","geometry":{"type":"LineString","coordinates":[[-1.4615537,53.3755493],[-1.461562,53.3757126],[-1.4615406,53.3759092],[-1.4614344,53.3767478],[-1.4613419,53.3775366],[-1.46134,53.3775518],[-1.4613218,53.3776961],[-1.4613023,53.3778655],[-1.4612756,53.3781094],[-1.4612211,53.3785772],[-1.4611548,53.3791707],[-1.4611077,53.3796329],[-1.461069,53.3798886],[-1.4610422,53.3801158],[-1.461014,53.3802998],[-1.4609738,53.380463],[-1.4609402,53.3806142],[-1.4609362,53.3807286],[-1.4609469,53.3808542],[-1.4609483,53.3810118],[-1.4609188,53.3811797],[-1.4608464,53.3812901],[-1.4607444,53.3814149],[-1.4605667,53.3816065],[-1.4603542,53.3818241],[-1.4602008,53.382005],[-1.4601503,53.3820717],[-1.4601373,53.3821089],[-1.4601192,53.3821565],[-1.4601129,53.3822338],[-1.4601182,53.3822965]]},"properties":{"gauge":"1435","tracks":"1","railway":"tram","voltage":"750","frequency":"0","electrified":"contact_line"}},
{"type":"Feature","geometry":{"type":"LineString","coordinates":[[-1.4256494,53.3462932],[-1.4254182,53.3465034],[-1.4253406,53.3465934],[-1.4252656,53.3466917],[-1.4250883,53.3469605],[-1.4249711,53.3471287],[-1.4248865,53.3472833],[-1.4247824,53.3475457],[-1.4247178,53.3478069],[-1.4246594,53.3480736],[-1.4245557,53.348653],[-1.4243999,53.3495563],[-1.4243391,53.349918],[-1.4242999,53.3501797],[-1.4242525,53.3504481],[-1.424251,53.350514],[-1.4242579,53.3507062],[-1.424256,53.350845],[-1.424289,53.3511932],[-1.424352,53.351455],[-1.4244251,53.3516788],[-1.424477,53.351847],[-1.4245926,53.3521684],[-1.424646,53.3522812]]},"properties":{"gauge":"1435","oneway":"yes","tracks":"1","railway":"tram","voltage":"750","frequency":"0","electrified":"contact_line"}},
{"type":"Feature","geometry":{"type":"LineString","coordinates":[[-1.4813421,53.380015],[-1.4815986,53.3800334],[-1.4820291,53.380059],[-1.4824609,53.380079],[-1.4827372,53.3800982],[-1.4830108,53.380103],[-1.4833233,53.380099],[-1.4835727,53.3800998],[-1.4837229,53.380103],[-1.483788,53.3801074],[-1.4838535,53.380122],[-1.4838762,53.3801256],[-1.4838964,53.3801309],[-1.4839164,53.3801377],[-1.4839467,53.3801506],[-1.483967,53.3801598],[-1.4839834,53.3801678],[-1.4840235,53.3801937],[-1.4840579,53.3802242],[-1.4840773,53.3802482],[-1.4840923,53.3802742],[-1.4841001,53.3802938],[-1.4841048,53.3803121],[-1.4841061,53.3803268],[-1.4841049,53.380380100000007],[-1.4841041,53.3804369],[-1.4841016,53.3806744],[-1.4841033,53.3808849],[-1.4841048,53.3809786],[-1.4841047,53.3813823]]},"properties":{"lit":"yes","gauge":"1435","oneway":"yes","tracks":"1","railway":"tram","voltage":"750","maxspeed":"30 mph","frequency":"0","electrified":"contact_line"}},
{"type":"Feature","geometry":{"type":"LineString","coordinates":[[-1.508276,53.4006836],[-1.5077222,53.4007073],[-1.507394,53.4007326]]},"properties":{"gauge":"1435","tracks":"1","railway":"tram","voltage":"750","frequency":"0","electrified":"contact_line"}},
{"type":"Feature","geometry":{"type":"LineString","coordinates":[[-1.4454134,53.3844199],[-1.4453049,53.3847826]]},"properties":{"gauge":"1435","layer":"1","bridge":"yes","oneway":"yes","tracks":"2","railway":"tram","voltage":"750","frequency":"0","electrified":"contact_line"}},
{"type":"Feature","geometry":{"type":"LineString","coordinates":[[-1.4453049,53.3847826],[-1.4452622,53.3848502],[-1.4452212,53.3849027],[-1.4451814,53.3849543],[-1.4451199,53.3850097],[-1.4450435,53.3850582],[-1.4449523,53.3850992],[-1.4448379,53.385139],[-1.4447586,53.3851638],[-1.4446329,53.3851918],[-1.4442247,53.3852581],[-1.4438609,53.3853232],[-1.442874,53.3854745],[-1.4426372,53.3855126],[-1.4425244,53.3855235],[-1.4424249,53.3855247],[-1.4423157,53.3855272],[-1.4421213,53.3855259],[-1.4415438,53.3855258],[-1.4413837,53.3855248],[-1.438623,53.3855194],[-1.4384739,53.385523],[-1.4384014,53.3855255],[-1.4383198,53.3855334],[-1.4382444,53.3855451],[-1.4381573,53.3855612],[-1.4380731,53.3855845],[-1.4379725,53.3856173],[-1.4378318,53.385672],[-1.4377202,53.3857199],[-1.4375668,53.3857927],[-1.4372198,53.3859579],[-1.4371138,53.3860083],[-1.4369217,53.3860983],[-1.43685,53.3861432],[-1.436799,53.3861824],[-1.4367515,53.386232]]},"properties":{"gauge":"1435","oneway":"yes","tracks":"2","railway":"tram","voltage":"750","frequency":"0","electrified":"contact_line"}},
{"type":"Feature","geometry":{"type":"LineString","coordinates":[[-1.4367515,53.386232],[-1.4365624,53.3865101],[-1.4365143,53.3865873]]},"properties":{"gauge":"1435","layer":"1","bridge":"yes","oneway":"yes","tracks":"2","railway":"tram","voltage":"750","frequency":"0","electrified":"contact_line"}},
{"type":"Feature","geometry":{"type":"LineString","coordinates":[[-1.4365143,53.3865873],[-1.4355958,53.3880426],[-1.4355447,53.3881],[-1.4355089,53.3881553],[-1.4354533,53.3882103],[-1.4354017,53.3882566],[-1.4353432,53.3882921],[-1.4352657,53.3883288],[-1.435089,53.3883833],[-1.4350101,53.3884141],[-1.4349654,53.3884359],[-1.4349127,53.3884644],[-1.4348806,53.3884855],[-1.4348352,53.3885214],[-1.4347937,53.3885599],[-1.4347715,53.388593],[-1.4347493,53.3886252],[-1.434507,53.389015],[-1.4344811,53.3890532],[-1.4331363,53.391146],[-1.4329044,53.3915251]]},"properties":{"gauge":"1435","oneway":"yes","tracks":"2","railway":"tram","voltage":"750","frequency":"0","electrified":"contact_line"}},
{"type":"Feature","geometry":{"type":"LineString","coordinates":[[-1.4252657,53.3938402],[-1.4241725,53.3949991],[-1.4227507,53.3965785],[-1.4225659,53.3967824],[-1.4223594,53.3969935],[-1.4221287,53.3972014],[-1.4218798,53.3974015],[-1.4215685,53.3976288],[-1.421269,53.3978235],[-1.4210876,53.3979415],[-1.4206709,53.398153],[-1.4202245,53.3983551],[-1.4199742,53.3984606],[-1.4195234,53.3986176],[-1.4189142,53.3988064],[-1.4183678,53.3989437],[-1.4163997,53.3994408],[-1.4158974,53.3995752],[-1.4156527,53.3996393],[-1.4154527,53.3997026],[-1.4152703,53.3997714],[-1.4150656,53.3998616],[-1.4148197,53.3999809],[-1.4145641,53.4001228],[-1.4143047,53.4002752],[-1.4140839,53.4004248],[-1.4138943,53.4005718],[-1.4137312,53.4007177],[-1.4135697,53.4008764],[-1.4134104,53.401058],[-1.4132398,53.4012714],[-1.4130795,53.4014918],[-1.412814,53.4020147],[-1.4126558,53.4023514]]},"properties":{"gauge":"1435","oneway":"yes","tracks":"2","railway":"tram","voltage":"750","frequency":"0","electrified":"contact_line"}},
{"type":"Feature","geometry":{"type":"LineString","coordinates":[[-1.4126558,53.4023514],[-1.4126171,53.4024375],[-1.4123128,53.403048],[-1.4120795,53.4035424],[-1.4116965,53.4042745],[-1.4115214,53.404666],[-1.4114314,53.4048438],[-1.4113438,53.4049834],[-1.4110771,53.4053372],[-1.4107867,53.4056756],[-1.4107435,53.4057271],[-1.4105097,53.4059401],[-1.4103524,53.4061198],[-1.4102257,53.4062448],[-1.4100868,53.4063709],[-1.4092273,53.407060799999999],[-1.4083924,53.4077216],[-1.4063502,53.4093534],[-1.4061347,53.4095367],[-1.4059898,53.4096686],[-1.4058578,53.4097973],[-1.405756,53.409905],[-1.405676,53.4100027],[-1.4055687,53.4101294],[-1.4054016,53.4103758],[-1.4052972,53.4105483],[-1.4051944,53.4107274],[-1.4051235,53.4108677],[-1.4050614,53.4110165],[-1.4049533,53.4112324],[-1.4048756,53.4114458],[-1.4048433,53.4115815],[-1.4048237,53.4117258],[-1.4048102,53.4124619],[-1.4047861,53.4130411],[-1.4047995,53.4132287],[-1.4048178,53.4134104],[-1.4048599,53.4135978],[-1.4049744,53.41403]]},"properties":{"gauge":"1435","oneway":"yes","tracks":"2","railway":"tram","voltage":"750","frequency":"0","electrified":"contact_line"}},
{"type":"Feature","geometry":{"type":"LineString","coordinates":[[-1.4093852,53.4195815],[-1.4094393,53.4195595],[-1.4094852,53.4195384],[-1.4095935,53.4194761],[-1.4107575,53.4187459],[-1.4115546,53.4182772]]},"properties":{"gauge":"1435","layer":"1","tracks":"1","railway":"tram","voltage":"750","man_made":"embankment","frequency":"0","electrified":"contact_line"}},
{"type":"Feature","geometry":{"type":"LineString","coordinates":[[-1.4558027,53.3847113],[-1.4556065,53.3847368],[-1.4554042,53.3847621],[-1.455208,53.3847797],[-1.4549983,53.3847919]]},"properties":{"gauge":"1435","tracks":"2","railway":"tram","voltage":"750","frequency":"0","electrified":"contact_line"}},
{"type":"Feature","geometry":{"type":"LineString","coordinates":[[-1.4539391,53.3847887],[-1.4537694,53.3847782],[-1.4535716,53.3847595],[-1.4532249,53.3847298],[-1.4530653,53.3847127],[-1.4528722,53.384692],[-1.4521721,53.3846183],[-1.4520748,53.3846087],[-1.4496353,53.3843483],[-1.4490776,53.3842931],[-1.4487265,53.3842526],[-1.4473873,53.3840708],[-1.4472395,53.3840539],[-1.447084,53.3840427],[-1.4469646,53.3840383],[-1.4463133,53.3840296],[-1.4462309,53.3840289],[-1.4460908,53.3840279],[-1.4459763,53.3840323],[-1.4458564,53.384054],[-1.4457626,53.3840804],[-1.4456737,53.3841157],[-1.4455955,53.3841615],[-1.4455357,53.3842109],[-1.4454868,53.38426],[-1.4454394,53.3843417],[-1.4454134,53.3844199]]},"properties":{"gauge":"1435","oneway":"yes","tracks":"1","railway":"tram","voltage":"750","frequency":"0","electrified":"contact_line"}},
{"type":"Feature","geometry":{"type":"LineString","coordinates":[[-1.4549983,53.3847919],[-1.4548119,53.3847976],[-1.4546498,53.3848023],[-1.4544469,53.3848033],[-1.4542414,53.3848],[-1.454085,53.3847946],[-1.4539391,53.3847887]]},"properties":{"gauge":"1435","layer":"1","bridge":"yes","oneway":"yes","tracks":"2","railway":"tram","voltage":"750","frequency":"0","electrified":"contact_line"}},
{"type":"Feature","geometry":{"type":"LineString","coordinates":[[-1.4985648,53.4014135],[-1.4985244,53.4014003],[-1.4984296,53.4013561],[-1.4982812,53.4012874],[-1.498238,53.4012674],[-1.498095,53.4011915],[-1.4977029,53.4009901],[-1.4974893,53.4008868],[-1.4973573,53.4007865]]},"properties":{"gauge":"1435","oneway":"yes","tracks":"1","railway":"tram","voltage":"750","frequency":"0","electrified":"contact_line"}},
{"type":"Feature","geometry":{"type":"LineString","coordinates":[[-1.4628028,53.3829939],[-1.4626339,53.3829643],[-1.4623887,53.3829428],[-1.4621143,53.3829241]]},"properties":{"gauge":"1435","layer":"1","tracks":"2","railway":"tram","voltage":"750","maxspeed":"30 mph","frequency":"0","electrified":"contact_line"}},
{"type":"Feature","geometry":{"type":"LineString","coordinates":[[-1.4122266,53.4178027],[-1.4122642,53.4177654],[-1.4122813,53.4177446],[-1.4123016,53.4177168],[-1.4123486,53.417647],[-1.4123752,53.4176168],[-1.4124116,53.4175804],[-1.4124452,53.4175476],[-1.4124651,53.4175314],[-1.4124954,53.4175102]]},"properties":{"gauge":"1435","layer":"1","tracks":"1","railway":"tram","voltage":"750","frequency":"0","electrified":"contact_line"}},
{"type":"Feature","geometry":{"type":"LineString","coordinates":[[-1.4115546,53.4182772],[-1.4119139,53.4180375]]},"properties":{"gauge":"1435","layer":"1","bridge":"yes","tracks":"1","railway":"tram","voltage":"750","frequency":"0","electrified":"contact_line"}},
{"type":"Feature","geometry":{"type":"LineString","coordinates":[[-1.4442247,53.3852581],[-1.4440052,53.3853221],[-1.4438878,53.3853492],[-1.4437898,53.3853686],[-1.4430527,53.3854779],[-1.4430097,53.3854861],[-1.4429799,53.3854942],[-1.4429587,53.3855029],[-1.4429365,53.385514],[-1.4428574,53.3855656]]},"properties":{"gauge":"1435","oneway":"yes","tracks":"1","railway":"tram","service":"yard","voltage":"750","frequency":"0","electrified":"contact_line"}},
{"type":"Feature","geometry":{"type":"LineString","coordinates":[[-1.4397993,53.3859426],[-1.4397368,53.3859383],[-1.4397106,53.3859346],[-1.4396854,53.3859286],[-1.4394271,53.3858545],[-1.4392657,53.3858081],[-1.4391693,53.3857763],[-1.4390687,53.385754],[-1.4385964,53.3856927],[-1.4385257,53.3856858],[-1.4384571,53.3856866],[-1.4384018,53.3856896],[-1.4383358,53.3856968],[-1.4382553,53.3857212],[-1.4381778,53.3857504],[-1.4379994,53.3858521],[-1.4379586,53.3858699],[-1.4379098,53.3858864],[-1.4378365,53.3859],[-1.4373466,53.385947]]},"properties":{"gauge":"1435","tracks":"2","railway":"tram","service":"yard","voltage":"750","frequency":"0","electrified":"contact_line"}},
{"type":"Feature","geometry":{"type":"LineString","coordinates":[[-1.4621143,53.3829241],[-1.4607849,53.382839]]},"properties":{"gauge":"1435","layer":"1","bridge":"yes","tracks":"2","railway":"tram","voltage":"750","maxspeed":"30 mph","frequency":"0","electrified":"contact_line"}},
{"type":"Feature","geometry":{"type":"LineString","coordinates":[[-1.4276252,53.3578469],[-1.4269114,53.3566956],[-1.4267642,53.3564456],[-1.4263488,53.3557347],[-1.4256852,53.3545882],[-1.4253262,53.3539261],[-1.424971,53.3532377],[-1.424859,53.352962],[-1.424595,53.352306]]},"properties":{"gauge":"1435","oneway":"yes","railway":"tram","voltage":"750","frequency":"0","electrified":"contact_line"}},
{"type":"Feature","geometry":{"type":"LineString","coordinates":[[-1.4276822,53.3578325],[-1.4277844,53.3579902],[-1.4279385,53.3581653],[-1.4280662,53.3582742],[-1.428217,53.3584333],[-1.428337,53.3585841],[-1.4284025,53.3586663],[-1.4284609,53.3587639],[-1.4285221,53.3588662],[-1.428565,53.3589379],[-1.4285818,53.3589661],[-1.4286072,53.3590085],[-1.4286707,53.3591147],[-1.4286926,53.3591669],[-1.42879,53.35946],[-1.42889,53.359776],[-1.4288946,53.3597975],[-1.4289695,53.3601035],[-1.4290025,53.3605969],[-1.4290079,53.3606509],[-1.4290215,53.3607645],[-1.4290398,53.3608285],[-1.4290586,53.3608751],[-1.4290639,53.3608882],[-1.4290917,53.3609405],[-1.429113,53.3609771],[-1.4291508,53.3610222],[-1.4291815,53.3610564],[-1.4292145,53.3610835],[-1.4292558,53.3611131],[-1.4300651,53.3616149],[-1.4302611,53.3617372],[-1.4306125,53.3619541],[-1.4308445,53.3620998],[-1.4311507,53.3622788],[-1.4312938,53.3623615],[-1.4314104,53.3624352],[-1.4315178,53.3625031],[-1.4318839,53.3627448],[-1.4321561,53.3629105],[-1.432777,53.363297],[-1.4333711,53.3636676],[-1.433689,53.3638716],[-1.4339554,53.3640459],[-1.4340794,53.3641271],[-1.434204,53.3642086],[-1.4342438,53.364236],[-1.4346077,53.3644862],[-1.4350234,53.3647567],[-1.435243,53.3648883],[-1.4354606,53.3650072],[-1.435613,53.3650915],[-1.4356779,53.3651273],[-1.4358254,53.3652193],[-1.4358577,53.3652403],[-1.4360064,53.3653369],[-1.4363538,53.3655594],[-1.4365911,53.3657234],[-1.4371383,53.3660747],[-1.4376627,53.3663972],[-1.4377854,53.3664734],[-1.4378624,53.3664979],[-1.4380026,53.3665112],[-1.4380673,53.3665078],[-1.4382139,53.3664728],[-1.4383393,53.3664295],[-1.4384569,53.3663824],[-1.4385975,53.3663197],[-1.4388177,53.366228],[-1.4390694,53.3661285],[-1.4392414,53.3660708],[-1.4393914,53.3660347],[-1.4394183,53.3660341],[-1.4395604,53.3660307],[-1.4396054,53.3660334],[-1.4397749,53.3660435],[-1.4402194,53.3661163],[-1.4404589,53.3661748],[-1.4407378,53.3662676],[-1.4409015,53.366326],[-1.4409665,53.36635],[-1.4410664,53.3663868],[-1.4414272,53.3664797],[-1.4416871,53.3664906],[-1.4419934,53.3664698],[-1.4423096,53.3664076],[-1.4425324,53.3663489],[-1.4426194,53.366326],[-1.4428608,53.3662572],[-1.4430869,53.3661624],[-1.4433329,53.3659984],[-1.4435703,53.3657843],[-1.443872,53.3654562],[-1.4440222,53.3652913],[-1.4440634,53.3652382],[-1.4442207,53.3650352],[-1.4442629,53.3649858],[-1.4443897,53.3648376],[-1.4445184,53.3647159],[-1.4447142,53.3645543],[-1.4448577,53.3644366],[-1.4450951,53.364251],[-1.4454009,53.3640653],[-1.445712,53.3639173],[-1.4461318,53.3637564],[-1.4463456,53.363684],[-1.4465363,53.3636213],[-1.4467874,53.3635555],[-1.4469843,53.3635077],[-1.4470048,53.3635027],[-1.4472355,53.3634619],[-1.4475238,53.3634179],[-1.4477406,53.3633948],[-1.4479369,53.3633739],[-1.4480212,53.3633691],[-1.4483191,53.3633611],[-1.4486043,53.3633745],[-1.4489508,53.3633987],[-1.4495904,53.3635022],[-1.4498244,53.3635518],[-1.4500363,53.3636116],[-1.450379,53.3637172],[-1.4504796,53.3637616],[-1.4507143,53.3638652],[-1.4510134,53.3640061],[-1.4513406,53.3641373],[-1.451586,53.3642174],[-1.4520404,53.3643325],[-1.4523923,53.3643898],[-1.4526321,53.364423],[-1.4528252,53.3644446],[-1.452858,53.3644481],[-1.4532007,53.3644846],[-1.4535213,53.3645159],[-1.4537707,53.3645471],[-1.4541878,53.3646255],[-1.4545472,53.3647199],[-1.4548516,53.3648264],[-1.4551862,53.3649744],[-1.4554878,53.3651484],[-1.4557521,53.3653575],[-1.4559273,53.3655714],[-1.4559875,53.3656914],[-1.4560338,53.3658836],[-1.4560314,53.3661246],[-1.4559812,53.3663148],[-1.455903,53.3664557],[-1.4557932,53.3666146],[-1.4556354,53.3667721],[-1.4554565,53.3669094],[-1.4553457,53.3669857],[-1.455204,53.3670771],[-1.4550349,53.3671786],[-1.4547631,53.3673498],[-1.4546773,53.3674143],[-1.4545016,53.3675536],[-1.4544077,53.3676528],[-1.4542978,53.3678272],[-1.4542267,53.3680577],[-1.4542227,53.3682577],[-1.4542831,53.3684914],[-1.4543717,53.3686345],[-1.454508,53.368772],[-1.4546821,53.3688994],[-1.4549565,53.3690472],[-1.4553103,53.36917],[-1.4556871,53.3692708],[-1.45606,53.3693508],[-1.4564677,53.369438],[-1.4566564,53.3694765],[-1.4568862,53.3694876],[-1.4571789,53.3695039],[-1.4574587,53.369538],[-1.4578101,53.3696253],[-1.4580059,53.3697125],[-1.4581496,53.3697982],[-1.45825,53.3698581],[-1.458345,53.3699339],[-1.4586936,53.3702115],[-1.4587971,53.3702923],[-1.4589475,53.3704007],[-1.4592384,53.370603],[-1.4595348,53.3708143],[-1.4596903,53.3709063],[-1.4598043,53.3709791]]},"properties":{"electrified":"contact_line","frequency":"0","gauge":"1435","oneway":"yes","railway":"tram","voltage":"750"}},
{"type":"Feature","geometry":{"type":"LineString","coordinates":[[-1.4300115,53.3616501],[-1.4297989,53.3615161],[-1.4290162,53.3610053],[-1.4289505,53.3609606],[-1.4288155,53.3608686],[-1.4287671,53.3608369],[-1.428716,53.3607978],[-1.4286786,53.3607707],[-1.4286562,53.3607555],[-1.4286431,53.3607431],[-1.4286206,53.360722]]},"properties":{"gauge":"1435","oneway":"yes","railway":"tram","voltage":"750","frequency":"0","electrified":"contact_line"}},
{"type":"Feature","geometry":{"type":"LineString","coordinates":[[-1.507394,53.4007326],[-1.5071457,53.4007977],[-1.5068919,53.4008643],[-1.506678,53.4009239],[-1.5063396,53.401014],[-1.5059779,53.4011109],[-1.5056449,53.4011933],[-1.505386,53.4012691],[-1.5049264,53.4013954],[-1.5045118,53.4015241],[-1.5042447,53.401599],[-1.5038674,53.4017102],[-1.5035531,53.4018013],[-1.5032706,53.4018826],[-1.5031082,53.4019293]]},"properties":{"gauge":"1435","tracks":"2","railway":"tram","voltage":"750","frequency":"0","electrified":"contact_line"}},
{"type":"Feature","geometry":{"type":"LineString","coordinates":[[-1.5031082,53.4019293],[-1.5029316,53.4019827],[-1.5027538,53.4020343],[-1.5026902,53.402053],[-1.5026477,53.4020639],[-1.5025262,53.4020867],[-1.502306,53.4021188],[-1.502188,53.402136],[-1.5019358,53.402173],[-1.5017801,53.4022003],[-1.5016417,53.4022383],[-1.5015306,53.4022972]]},"properties":{"electrified":"contact_line","frequency":"0","gauge":"1435","railway":"tram","tracks":"2","voltage":"750"}},
{"type":"Feature","geometry":{"type":"LineString","coordinates":[[-1.4122266,53.4178027],[-1.4125684,53.4175524]]},"properties":{"gauge":"1435","layer":"1","tracks":"1","railway":"tram","voltage":"750","frequency":"0","electrified":"contact_line"}},
{"type":"Feature","geometry":{"type":"LineString","coordinates":[[-1.4326186,53.391924],[-1.4325675,53.3919697],[-1.43251,53.3920127],[-1.4324439,53.392054],[-1.4323661,53.3920889],[-1.4322793,53.3921141],[-1.432202,53.3921349],[-1.4321181,53.3921492],[-1.4320331,53.3921614],[-1.4319456,53.3921702],[-1.4303553,53.3923],[-1.4296648,53.3923497],[-1.429572,53.3923588],[-1.4293097,53.3923757],[-1.4291674,53.3923922],[-1.4290332,53.3924117],[-1.4289679,53.3924236],[-1.4288091,53.3924524],[-1.4283277,53.3925602],[-1.4280732,53.3926126],[-1.427877,53.3926477],[-1.4276501,53.3926818],[-1.4270856,53.3927484],[-1.4268482,53.3927922],[-1.4267063,53.3928186],[-1.4265642,53.3928586],[-1.4264515,53.3928911],[-1.4263509,53.3929268],[-1.4262488,53.3929688],[-1.4261482,53.3930208],[-1.4260519,53.3930747],[-1.4259548,53.3931382],[-1.425882,53.3931898],[-1.4258203,53.3932422],[-1.4257016,53.3933539],[-1.4255117,53.3935592]]},"properties":{"gauge":"1435","oneway":"yes","tracks":"2","railway":"tram","voltage":"750","frequency":"0","electrified":"contact_line"}},
{"type":"Feature","geometry":{"type":"LineString","coordinates":[[-1.4329044,53.3915251],[-1.4328104,53.3916759],[-1.4327625,53.391751],[-1.4327261,53.3918019],[-1.4326795,53.3918586],[-1.4326186,53.391924]]},"properties":{"gauge":"1435","bridge":"yes","oneway":"yes","tracks":"2","railway":"tram","voltage":"750","frequency":"0","electrified":"contact_line"}},
{"type":"Feature","geometry":{"type":"LineString","coordinates":[[-1.4255117,53.3935592],[-1.4252657,53.3938402]]},"properties":{"gauge":"1435","layer":"1","bridge":"yes","oneway":"yes","tracks":"2","railway":"tram","voltage":"750","frequency":"0","electrified":"contact_line"}},
{"type":"Feature","geometry":{"type":"LineString","coordinates":[[-1.385562,53.3424385],[-1.3863047,53.3421994],[-1.3867094,53.3420711],[-1.3870838,53.3419542],[-1.3873709,53.3418634],[-1.3875325,53.3418159],[-1.3876496,53.3417912],[-1.3878125,53.3417686],[-1.388086,53.3417396],[-1.3882147,53.3417173],[-1.3883578,53.3416799],[-1.3888866,53.3415099]]},"properties":{"gauge":"1435","oneway":"yes","tracks":"1","railway":"tram","voltage":"750","frequency":"0","electrified":"contact_line"}},
{"type":"Feature","geometry":{"type":"LineString","coordinates":[[-1.4120724,53.3411607],[-1.4117474,53.3411176],[-1.4113816,53.3410746],[-1.4106147,53.3409975],[-1.4095736,53.3408871],[-1.4087043,53.3407929],[-1.408149,53.3407149],[-1.4077993,53.3406625],[-1.4074472,53.3405968],[-1.4071199,53.3405242],[-1.4068437,53.3404596],[-1.4065947,53.3404034],[-1.4061659,53.3402958],[-1.4050892,53.3400222],[-1.4047948,53.3399517],[-1.4045374,53.3399055],[-1.4043477,53.3398779],[-1.4041323000000002,53.3398574],[-1.4039107,53.3398524],[-1.4036681,53.3398543],[-1.4033793,53.3398687],[-1.4031055,53.3398941],[-1.4028613,53.3399203],[-1.4025185,53.339966],[-1.4019837,53.3400433],[-1.4008387,53.3402065],[-1.3998705,53.3403442],[-1.3997019,53.3403702],[-1.3993742,53.3404161],[-1.3988967,53.3404806],[-1.3981667,53.340581],[-1.3976371,53.3406473]]},"properties":{"gauge":"1435","oneway":"yes","railway":"tram","voltage":"750","frequency":"0","electrified":"contact_line"}},
{"type":"Feature","geometry":{"type":"LineString","coordinates":[[-1.4054325,53.4154493],[-1.4055413,53.4157345],[-1.4056315,53.4159208],[-1.4057108,53.4160811],[-1.4058686,53.4163558],[-1.4059518,53.4165007],[-1.4059896,53.4165616],[-1.4060891,53.4167219],[-1.4062674,53.4169452],[-1.4070359,53.4178594],[-1.4070869,53.4179321],[-1.4071841,53.4181051]]},"properties":{"gauge":"1435","oneway":"yes","tracks":"2","railway":"tram","voltage":"750","frequency":"0","electrified":"contact_line"}},
{"type":"Feature","geometry":{"type":"LineString","coordinates":[[-1.4051998,53.4147949],[-1.4053983,53.4153456]]},"properties":{"gauge":"1435","bridge":"yes","oneway":"yes","source":"Bing","tracks":"2","railway":"tram","voltage":"750","frequency":"0","electrified":"contact_line"}},
{"type":"Feature","geometry":{"type":"LineString","coordinates":[[-1.510696,53.4163707],[-1.510651,53.4163301],[-1.5104433,53.4161339]]},"properties":{"gauge":"1435","tracks":"1","railway":"tram","voltage":"750","frequency":"0","electrified":"contact_line"}},
{"type":"Feature","geometry":{"type":"LineString","coordinates":[[-1.5092252,53.4148014],[-1.5092972,53.4149125],[-1.5093283,53.4149696],[-1.5096807,53.4152991],[-1.5097569,53.4153784],[-1.5097826,53.4154276],[-1.5097988,53.4154586],[-1.5098332,53.41557]]},"properties":{"gauge":"1435","oneway":"yes","tracks":"1","railway":"tram","voltage":"750","frequency":"0","electrified":"contact_line"}},
{"type":"Feature","geometry":{"type":"LineString","coordinates":[[-1.5008466,53.4024625],[-1.5009755,53.4025264]]},"properties":{"gauge":"1435","tracks":"2","railway":"tram","voltage":"750","frequency":"0","electrified":"contact_line"}},
{"type":"Feature","geometry":{"type":"LineString","coordinates":[[-1.4423065,53.3858339],[-1.4422212,53.3858386],[-1.4421698,53.3858386],[-1.4421144,53.3858347],[-1.4420735,53.3858292],[-1.4418164,53.3857694],[-1.4417808,53.3857631],[-1.4417491,53.3857599],[-1.4417095,53.3857584],[-1.4413375,53.3857639]]},"properties":{"gauge":"1435","tracks":"2","railway":"tram","service":"yard","voltage":"750","frequency":"0","electrified":"contact_line"}},
{"type":"Feature","geometry":{"type":"LineString","coordinates":[[-1.4385393,53.3862057],[-1.4385956,53.3861984],[-1.4386361,53.3861908],[-1.4386685,53.3861827],[-1.4387245,53.3861619],[-1.4387699,53.3861411],[-1.4389002,53.3860712],[-1.4390421,53.3859951],[-1.4390632,53.3859863],[-1.4390885,53.3859781],[-1.439118,53.3859706],[-1.4391413,53.3859654],[-1.4391647,53.3859626],[-1.4392122,53.3859582]]},"properties":{"gauge":"1435","tracks":"2","railway":"tram","service":"yard","voltage":"750","frequency":"0","electrified":"contact_line"}},
{"type":"Feature","geometry":{"type":"LineString","coordinates":[[-1.4423424,53.3858789],[-1.4421648,53.3859224],[-1.4421401,53.3859285],[-1.4420832,53.3859348],[-1.4420209,53.3859411],[-1.4419734,53.385943],[-1.4419165,53.3859436],[-1.4414902,53.3859404],[-1.4391491,53.3860021],[-1.4391259,53.3860027],[-1.4391026,53.386005],[-1.4390788,53.3860095],[-1.4389002,53.3860712]]},"properties":{"gauge":"1435","tracks":"2","railway":"tram","service":"yard","voltage":"750","frequency":"0","electrified":"contact_line"}},
{"type":"Feature","geometry":{"type":"LineString","coordinates":[[-1.4418989,53.3860496],[-1.4417534,53.386072],[-1.4417097,53.3860762],[-1.4416719,53.3860791],[-1.4416276,53.3860807],[-1.4391261,53.3861482],[-1.439083,53.3861493],[-1.4390496,53.3861508],[-1.4390116,53.3861534],[-1.4389593,53.3861603]]},"properties":{"gauge":"1435","tracks":"2","railway":"tram","service":"yard","voltage":"750","frequency":"0","electrified":"contact_line"}},
{"type":"Feature","geometry":{"type":"LineString","coordinates":[[-1.4386676,53.3862022],[-1.4387645,53.3861938],[-1.4388206,53.3861853],[-1.4388719,53.3861768],[-1.4389593,53.3861603],[-1.4391811,53.3861185],[-1.4392135,53.3861144],[-1.4392514,53.3861104],[-1.4392946,53.3861084],[-1.4415557,53.38605],[-1.4417947,53.3860451],[-1.441828,53.3860427],[-1.4418593,53.3860394],[-1.4419112,53.3860317],[-1.4420808,53.3859964]]},"properties":{"gauge":"1435","tracks":"2","railway":"tram","service":"yard","voltage":"750","frequency":"0","electrified":"contact_line"}},
{"type":"Feature","geometry":{"type":"LineString","coordinates":[[-1.4387245,53.3861619],[-1.4388603,53.386118],[-1.4390242,53.3860651],[-1.4390512,53.3860574],[-1.4390837,53.3860506],[-1.439112,53.3860474],[-1.4391519,53.3860453],[-1.4417846,53.3859734],[-1.4418285,53.3859711],[-1.4418734,53.3859659],[-1.4420209,53.3859411]]},"properties":{"gauge":"1435","tracks":"2","railway":"tram","service":"yard","voltage":"750","frequency":"0","electrified":"contact_line"}},
{"type":"Feature","geometry":{"type":"LineString","coordinates":[[-1.4413419,53.3858229],[-1.4418335,53.3858119],[-1.441885,53.3858134],[-1.4421144,53.3858347]]},"properties":{"gauge":"1435","tracks":"2","railway":"tram","service":"yard","voltage":"750","frequency":"0","electrified":"contact_line"}},
{"type":"Feature","geometry":{"type":"LineString","coordinates":[[-1.4383035,53.3859822],[-1.4392122,53.3859582],[-1.4397993,53.3859426],[-1.4419813,53.3858849],[-1.4420506,53.3858809],[-1.4421132,53.3858721],[-1.4423065,53.3858339],[-1.4423386,53.3858275],[-1.4423754,53.3858202],[-1.4424215,53.3858111],[-1.4424841,53.3857964],[-1.4425362,53.3857811],[-1.4426017,53.3857561]]},"properties":{"gauge":"1435","tracks":"2","railway":"tram","service":"yard","voltage":"750","frequency":"0","electrified":"contact_line"}},
{"type":"Feature","geometry":{"type":"LineString","coordinates":[[-1.4421401,53.3859285],[-1.4420414,53.3859595],[-1.4419695,53.3859769],[-1.4419123,53.3859875],[-1.4418485,53.3859978],[-1.4417902,53.3860023],[-1.441748,53.3860036],[-1.4416919,53.3860039],[-1.4391339,53.3860737],[-1.4390962,53.3860753],[-1.4390594,53.3860785],[-1.4390292,53.386082],[-1.4388603,53.386118]]},"properties":{"gauge":"1435","tracks":"2","railway":"tram","service":"yard","voltage":"750","frequency":"0","electrified":"contact_line"}},
{"type":"Feature","geometry":{"type":"LineString","coordinates":[[-1.4397954,53.3858105],[-1.4395918,53.3858149],[-1.4395464,53.3858118],[-1.4394926,53.3858061],[-1.4392946,53.3857779],[-1.4391957,53.3857645]]},"properties":{"gauge":"1435","tracks":"2","railway":"tram","service":"yard","voltage":"750","frequency":"0","electrified":"contact_line"}},
{"type":"Feature","geometry":{"type":"LineString","coordinates":[[-1.4397996,53.3858668],[-1.4395544,53.385873],[-1.4395254,53.3858715],[-1.4394987,53.3858682],[-1.4394271,53.3858545]]},"properties":{"gauge":"1435","tracks":"2","railway":"tram","service":"yard","voltage":"750","frequency":"0","electrified":"contact_line"}},
{"type":"Feature","geometry":{"type":"LineString","coordinates":[[-1.4421648,53.3859224],[-1.4422882,53.385868],[-1.4423754,53.3858202],[-1.4424169,53.3857975],[-1.4425027,53.3857504],[-1.4426328,53.3856641],[-1.4427397,53.3855839],[-1.4427555,53.385572],[-1.44279,53.385539],[-1.442874,53.3854745],[-1.4429033,53.3854567],[-1.442932,53.3854411],[-1.4429755,53.3854193],[-1.4429655,53.385421]]},"properties":{"gauge":"1435","tracks":"1","railway":"tram","service":"yard","voltage":"750","frequency":"0","electrified":"contact_line"}},
{"type":"Feature","geometry":{"type":"LineString","coordinates":[[-1.3888866,53.3415099],[-1.3889349,53.3414945],[-1.389002,53.3414729],[-1.3890098,53.3414703],[-1.3891984,53.3414073],[-1.3893149,53.3413592],[-1.3893942,53.3413157],[-1.3894425,53.3412806],[-1.3894691,53.3412572],[-1.3894972,53.3412372],[-1.389735,53.3410511],[-1.3898241,53.3409811],[-1.3899269,53.3409246],[-1.3900018,53.3408776],[-1.3900071,53.3408743],[-1.3900895,53.3408276],[-1.3901753,53.3407847],[-1.3902768,53.3407406],[-1.3903608,53.3407095],[-1.3904451,53.3406822],[-1.3905344,53.3406563],[-1.3906277,53.3406346],[-1.3907124,53.3406164],[-1.3908517,53.3405937]]},"properties":{"gauge":"1435","oneway":"yes","railway":"tram","voltage":"750","frequency":"0","electrified":"contact_line"}},
{"type":"Feature","geometry":{"type":"LineString","coordinates":[[-1.499611,53.4018169],[-1.4994673,53.4017734],[-1.4992599,53.4017228]]},"properties":{"gauge":"1435","tracks":"1","railway":"tram","voltage":"750","frequency":"0","electrified":"contact_line"}},
{"type":"Feature","geometry":{"type":"LineString","coordinates":[[-1.4973573,53.4007865],[-1.4975344,53.4008662],[-1.4976582,53.400926],[-1.4978224,53.4010036],[-1.4980211,53.4010974],[-1.498144,53.401157],[-1.4982371,53.4012016],[-1.498325,53.4012362],[-1.4983979,53.4012677],[-1.49848,53.4012886],[-1.4985477,53.4013121],[-1.4986328,53.4013476],[-1.4986706,53.4013633],[-1.4987556,53.4014042],[-1.498852,53.4014469],[-1.4989908,53.4015115],[-1.4991957,53.4016111],[-1.4992783,53.4016495],[-1.4995255,53.4017677],[-1.499611,53.4018169],[-1.4999422,53.401967],[-1.5001735,53.4020707],[-1.5004327,53.4021901],[-1.5005502,53.4022766],[-1.5005926,53.4023342]]},"properties":{"electrified":"contact_line","frequency":"0","gauge":"1435","oneway":"yes","railway":"tram","tracks":"1","voltage":"750"}},
{"type":"Feature","geometry":{"type":"LineString","coordinates":[[-1.4792702,53.389551],[-1.4790636,53.3895006],[-1.4788901,53.3894471],[-1.4787016,53.3893984],[-1.4785175,53.3893522],[-1.4783721,53.3893015],[-1.4782731,53.3892591],[-1.4781432,53.3891935],[-1.4780591,53.3891294],[-1.47799,53.3890636],[-1.4779545,53.3890025],[-1.4779424,53.3889493],[-1.4779317,53.38889],[-1.4779186,53.3888014],[-1.4779063,53.388647],[-1.4778957,53.3884523],[-1.4778912,53.3883493],[-1.4779019,53.3882513],[-1.4779128,53.388196],[-1.4779304,53.3881335],[-1.4779403,53.3881095],[-1.4779846,53.3880328],[-1.4780683,53.3879232],[-1.4782082,53.3877899],[-1.4782847,53.3877399],[-1.4786247,53.3875177],[-1.4788421,53.3873704],[-1.4790524,53.3872212],[-1.4792025,53.3871052],[-1.479305,53.3870216],[-1.4793709,53.3869685],[-1.4794863,53.3868662],[-1.4796751,53.3867012],[-1.4797139,53.3866593],[-1.4797772,53.3866044],[-1.4798956,53.3864985],[-1.4799691,53.3864364],[-1.48011,53.3863244],[-1.4802029,53.386255],[-1.4804163,53.3861052],[-1.480502,53.3860492],[-1.4807183,53.3859011],[-1.4808675,53.3858038],[-1.4811176,53.3856345],[-1.4813013,53.3855048],[-1.4816495,53.3852637],[-1.4819486,53.3850604],[-1.4822009,53.3849046],[-1.4824761,53.3847197],[-1.4830099,53.3843764],[-1.4831937,53.3842555],[-1.4833279,53.3841562],[-1.483464,53.3840509],[-1.483564,53.3839673],[-1.4836664,53.3838646],[-1.4837655,53.3837358],[-1.4838351,53.383649],[-1.4839362,53.3834919],[-1.4840168,53.3833263],[-1.4840505,53.3831874],[-1.4840769,53.3830569],[-1.4840924,53.3829366],[-1.4840944,53.3829122],[-1.4840852,53.3825889]]},"properties":{"gauge":"1435","oneway":"yes","tracks":"1","railway":"tram","voltage":"750","frequency":"0","electrified":"contact_line"}},
{"type":"Feature","geometry":{"type":"LineString","coordinates":[[-1.4840505,53.3813826],[-1.4840486,53.380885],[-1.4840466,53.3806743],[-1.4840473,53.380437],[-1.484046,53.3803522],[-1.484045,53.3803334],[-1.4840405,53.3803133],[-1.4840347,53.3803006],[-1.4840247,53.3802833],[-1.4840086,53.3802615],[-1.4839891,53.3802397],[-1.4839689,53.3802228],[-1.4839506,53.3802084],[-1.4839315,53.3801977],[-1.4839092,53.3801857],[-1.4838845,53.3801745],[-1.4838619,53.3801658],[-1.4838387,53.3801581],[-1.4838134,53.3801507],[-1.4837839,53.3801438],[-1.4837489,53.3801377]]},"properties":{"lit":"yes","gauge":"1435","oneway":"yes","tracks":"1","railway":"tram","voltage":"750","maxspeed":"30 mph","frequency":"0","electrified":"contact_line"}},
{"type":"Feature","geometry":{"type":"LineString","coordinates":[[-1.4840852,53.3825889],[-1.4840505,53.3813826]]},"properties":{"gauge":"1435","layer":"-1","oneway":"yes","tracks":"1","tunnel":"yes","railway":"tram","voltage":"750","frequency":"0","electrified":"contact_line"}},
{"type":"Feature","geometry":{"type":"LineString","coordinates":[[-1.373646,53.3413477],[-1.3737749,53.3413669],[-1.3739416,53.3413896],[-1.3740954,53.3414041],[-1.3742357,53.341413],[-1.374317,53.3414179],[-1.374771,53.3414492],[-1.3751941,53.3414924],[-1.3756338,53.3415502],[-1.3759839,53.341609],[-1.3765445,53.3417227],[-1.3770729,53.3418668],[-1.377443,53.3419757],[-1.3774676,53.3419844],[-1.3778175,53.3421076],[-1.3783898,53.342344],[-1.3788006,53.3425579],[-1.3791462,53.3427838],[-1.379329,53.342914],[-1.3794843,53.3430435],[-1.3795877,53.3431429],[-1.3797597,53.3433029],[-1.3797906,53.3433342],[-1.3798022,53.3433451],[-1.3798729,53.343398],[-1.3799594,53.3434391],[-1.3800657,53.3434803],[-1.3802278,53.3435222],[-1.3803792,53.3435473]]},"properties":{"gauge":"1435","oneway":"yes","railway":"tram","voltage":"750","frequency":"0","electrified":"contact_line"}},
{"type":"Feature","geometry":{"type":"LineString","coordinates":[[-1.4813377,53.3800603],[-1.4811717,53.3800577],[-1.4810739,53.3800559],[-1.4808525,53.3800573],[-1.4807717,53.3800584],[-1.4807427,53.3800584],[-1.480547,53.3800594],[-1.4804413,53.3800616],[-1.4803008,53.3800701],[-1.4801236,53.380081],[-1.4800223,53.3800872],[-1.4798835,53.3800987],[-1.4795919,53.3801273],[-1.4793563,53.3801654],[-1.478958,53.3802366],[-1.4783008,53.3803726],[-1.4777604,53.3804814],[-1.4771488,53.3806174],[-1.4769804,53.3806554],[-1.4761283,53.3808478],[-1.475168,53.381079],[-1.4745726,53.3812245],[-1.4740804,53.3813453],[-1.473041,53.3816045],[-1.4728774,53.3816637],[-1.4726923,53.3817365],[-1.4724456,53.3818941],[-1.4722073,53.3820996]]},"properties":{"lit":"yes","gauge":"1435","oneway":"yes","tracks":"1","railway":"tram","voltage":"750","maxspeed":"30 mph","frequency":"0","electrified":"contact_line"}},
{"type":"Feature","geometry":{"type":"LineString","coordinates":[[-1.439407,53.342501],[-1.439012,53.342516],[-1.4387405,53.342531],[-1.4384788,53.3425561],[-1.4381997,53.3426001],[-1.4380612,53.3426219],[-1.4379523,53.3426353],[-1.4378375,53.3426392],[-1.437718,53.342639],[-1.433655,53.342705],[-1.433438,53.342708]]},"properties":{"name":"Sheffield Supertram","gauge":"1435","tracks":"1","railway":"tram","voltage":"750","frequency":"0","electrified":"contact_line"}},
{"type":"Feature","geometry":{"type":"LineString","coordinates":[[-1.4120732,53.3411253],[-1.4123612,53.3411748],[-1.4127569,53.3412661],[-1.4143368,53.3416997],[-1.4159273,53.3421501],[-1.416968,53.3424431],[-1.4176144,53.3426221],[-1.4181267,53.3427486],[-1.4186025,53.3428466],[-1.4188239,53.3428834],[-1.4190648,53.3429234],[-1.4195585,53.3429945],[-1.4195885,53.3429988],[-1.4198192,53.3430388],[-1.4201557,53.3431001],[-1.4204763,53.3431654],[-1.4208358,53.3432614],[-1.4212378,53.3433757],[-1.4233443,53.3439872],[-1.4245375,53.3443194],[-1.4247545,53.3443807],[-1.4250254,53.3444568],[-1.4252553,53.3445009],[-1.4253191,53.3445084],[-1.425464,53.3445255],[-1.4256123,53.344549],[-1.4257457,53.3445663],[-1.4260158,53.3446052],[-1.4262613,53.3446411],[-1.4264295,53.3446673],[-1.4265862,53.34468],[-1.4266981,53.344686],[-1.4267797,53.3446909],[-1.426864,53.3447066],[-1.4269182,53.3447249],[-1.4269781,53.3447522],[-1.427018,53.3447828],[-1.4270588,53.3448168],[-1.4270807,53.3448428],[-1.4270993,53.3448801],[-1.427096,53.344911],[-1.4270917,53.3449319],[-1.4270851,53.3449623],[-1.4270118,53.345058]]},"properties":{"name":"Sheffield Supertram","gauge":"1435","oneway":"yes","tracks":"1","railway":"tram","voltage":"750","frequency":"0","electrified":"contact_line"}},
{"type":"Feature","geometry":{"type":"LineString","coordinates":[[-1.433438,53.342708],[-1.4333068,53.3427095],[-1.433154,53.342707],[-1.432975,53.342678],[-1.4327424,53.3425961],[-1.4326906,53.3425753],[-1.4326056,53.3425436],[-1.4322555,53.3424102],[-1.4321809,53.3423823],[-1.4321359,53.3423609],[-1.4319986,53.3423246],[-1.4318878,53.3422986],[-1.4317539,53.3422978],[-1.4316978,53.3422978],[-1.431609,53.342307],[-1.4311979,53.3424088],[-1.430794,53.342528],[-1.430465,53.342645],[-1.4302863,53.3427208],[-1.429962,53.342873],[-1.4297502,53.3429849],[-1.429553,53.343112],[-1.4295041,53.3431427],[-1.4293045,53.3432786],[-1.4291644,53.3433743],[-1.428992,53.343506],[-1.428855,53.343612],[-1.427831,53.344478],[-1.4276315,53.3446503],[-1.4274837,53.3447623],[-1.4274407,53.344789],[-1.427399,53.344822],[-1.4273161,53.3448724],[-1.427227,53.34491],[-1.427173,53.344936],[-1.4271081,53.34498],[-1.4270118,53.345058]]},"properties":{"name":"Sheffield Supertram","gauge":"1435","oneway":"yes","tracks":"1","railway":"tram","voltage":"750","frequency":"0","electrified":"contact_line"}},
{"type":"Feature","geometry":{"type":"LineString","coordinates":[[-1.426139,53.345815],[-1.4261993,53.3457515],[-1.4262648,53.3456944],[-1.4263083,53.34565],[-1.4263553,53.3455937],[-1.4263969,53.3455352],[-1.4264363,53.3454803],[-1.4265083,53.3454024],[-1.4265704,53.3453424],[-1.426955,53.345024],[-1.427096,53.344911],[-1.4271439,53.3448747],[-1.427274,53.344785],[-1.427527,53.344619],[-1.427616,53.3445609],[-1.4277186,53.3444847],[-1.427807,53.344417],[-1.4280321,53.34424],[-1.42871,53.343659],[-1.429081,53.343342],[-1.42932,53.343159],[-1.4293529,53.3431359],[-1.4294437,53.3430706],[-1.4295031,53.343031],[-1.4295993,53.3429712],[-1.4297868,53.3428638],[-1.4299179,53.3427955],[-1.4300843,53.3427156],[-1.4302776,53.3426267],[-1.4303142,53.3426118],[-1.430383,53.342584],[-1.4305921,53.3425182],[-1.4308301,53.3424583],[-1.430996,53.342413],[-1.431632,53.342256],[-1.431691,53.3422511],[-1.4317761,53.3422441],[-1.4318581,53.3422429],[-1.431957,53.342255],[-1.4320385,53.3422849],[-1.4321632,53.3423313],[-1.4322887,53.3423802],[-1.4326141,53.3425098],[-1.4327134,53.3425527],[-1.4328705,53.3426031],[-1.4329923,53.3426375],[-1.4331524,53.3426721],[-1.4333019,53.3426964],[-1.433438,53.342708]]},"properties":{"name":"Sheffield Supertram","gauge":"1435","oneway":"yes","tracks":"1","railway":"tram","voltage":"750","frequency":"0","electrified":"contact_line"}},
{"type":"Feature","geometry":{"type":"LineString","coordinates":[[-1.426139,53.345815],[-1.4261736,53.3457434],[-1.4261799,53.3456817],[-1.426173,53.345647],[-1.4261376,53.345584],[-1.4261091,53.3455573],[-1.426026,53.345492],[-1.425867,53.3453761],[-1.4257349,53.3452843],[-1.425595,53.3451741],[-1.425477,53.3450718],[-1.4254525,53.3450504],[-1.4252225,53.3448391],[-1.4251475,53.3447658],[-1.4250896,53.3447092],[-1.4250098,53.3446312],[-1.4248984,53.3445241],[-1.4248457,53.3444794],[-1.424766,53.3444367],[-1.4246603,53.3443915],[-1.4245688,53.3443565],[-1.4242797,53.3442798],[-1.4233141,53.34402],[-1.4226928,53.343840899999999],[-1.4208919,53.3433189],[-1.4204844,53.343223],[-1.420123,53.3431412],[-1.4198039,53.3430841],[-1.419539,53.3430435],[-1.418917,53.342948],[-1.4188724,53.3429412],[-1.4187997,53.3429281],[-1.4185773,53.3428879],[-1.4182286,53.342811],[-1.4179721,53.3427546],[-1.4173516,53.3425937],[-1.4158254,53.3421677],[-1.4139018,53.3416247],[-1.4128003,53.3413271],[-1.4125047,53.3412491],[-1.4123236,53.3412089],[-1.4120724,53.3411607]]},"properties":{"gauge":"1435","layer":"1","oneway":"yes","tracks":"1","railway":"tram","voltage":"750","frequency":"0","electrified":"contact_line"}},
{"type":"Feature","geometry":{"type":"LineString","coordinates":[[-1.4709377,53.3824978],[-1.4705765,53.3825231],[-1.4702884,53.3825256],[-1.469872,53.3825332],[-1.469764,53.3825508],[-1.4696494,53.3825784],[-1.4695756,53.3825904],[-1.4694992,53.3825972],[-1.4692518,53.3825996]]},"properties":{"lit":"yes","gauge":"1435","tracks":"2","railway":"tram","voltage":"750","maxspeed":"30 mph","frequency":"0","electrified":"contact_line"}},
{"type":"Feature","geometry":{"type":"LineString","coordinates":[[-1.4722073,53.3820996],[-1.4721303,53.3821892],[-1.4720935,53.3822319],[-1.4720548,53.3822694],[-1.4720202,53.3822943],[-1.4719832,53.3823157],[-1.4719452,53.382335],[-1.4719242,53.3823445],[-1.4719088,53.3823516],[-1.4718644,53.3823677],[-1.4718243,53.3823793],[-1.4717825,53.3823892],[-1.4717259,53.3824003],[-1.4716627,53.3824092],[-1.471555,53.3824258],[-1.4713815,53.3824498],[-1.4711633,53.3824751],[-1.4709377,53.3824978]]},"properties":{"lit":"yes","gauge":"1435","oneway":"yes","tracks":"1","railway":"tram","voltage":"750","maxspeed":"30 mph","frequency":"0","electrified":"contact_line"}},
{"type":"Feature","geometry":{"type":"LineString","coordinates":[[-1.4685655,53.3826249],[-1.4685504,53.3826256],[-1.4684015,53.3826436],[-1.4682972,53.38266],[-1.4682037,53.3826804],[-1.4681138,53.3827039],[-1.4677618,53.3828072],[-1.4675003,53.3828716],[-1.4668163,53.383004],[-1.4665367,53.3830476],[-1.4664474,53.3830612],[-1.4662736,53.3830876],[-1.4662529,53.3830889],[-1.4657118,53.3831538],[-1.4656542,53.3831604],[-1.4656366,53.3831623],[-1.4655511,53.3831716],[-1.4653545,53.3831904],[-1.4651319,53.3832056],[-1.4647309,53.383222],[-1.4644001,53.3832345],[-1.4642771,53.3832285],[-1.4640898,53.3832176],[-1.4636212,53.3831678],[-1.4636034,53.3831658],[-1.4633536,53.3831175],[-1.4630193,53.3830407]]},"properties":{"lit":"yes","gauge":"1435","tracks":"1","railway":"tram","voltage":"750","maxspeed":"20 mph","frequency":"0","electrified":"contact_line"}},
{"type":"Feature","geometry":{"type":"LineString","coordinates":[[-1.4071841,53.4181051],[-1.4073426,53.4182776],[-1.4074468,53.4183972],[-1.4083854,53.4194168],[-1.4084626,53.4194888],[-1.4085146,53.4195293],[-1.4085868,53.4195691],[-1.4086455,53.4195892],[-1.4087057,53.419609],[-1.4087523,53.4196217],[-1.4088161,53.4196318],[-1.4088864,53.4196426],[-1.4089477,53.4196476],[-1.4090233,53.4196493],[-1.4090889,53.4196476],[-1.4091483,53.4196411],[-1.4092195,53.4196318],[-1.4092793,53.4196173],[-1.4093852,53.4195815]]},"properties":{"gauge":"1435","tracks":"1","railway":"tram","voltage":"750","frequency":"0","electrified":"contact_line"}},
{"type":"Feature","geometry":{"type":"LineString","coordinates":[[-1.424595,53.352306],[-1.424548,53.3521764],[-1.4244528,53.3519306],[-1.424424,53.351853],[-1.4243622,53.3516814],[-1.4242856,53.3514687],[-1.424259,53.351395],[-1.424165,53.35094],[-1.4241485,53.3507321],[-1.424143,53.350556],[-1.4241569,53.3503157],[-1.4241789,53.3501124],[-1.4242022,53.3499157],[-1.424294,53.34941],[-1.4244222,53.348654],[-1.424524,53.3480592],[-1.4246116,53.3478011],[-1.4246784,53.3475377],[-1.4247714,53.3473116],[-1.4248829,53.3470984],[-1.4249898,53.3469167],[-1.4251739,53.346689],[-1.4252654,53.3465838],[-1.4253346,53.3465175],[-1.4254671,53.3464011],[-1.4257058,53.3461906],[-1.4259281,53.3459967],[-1.4260068,53.3459274],[-1.426139,53.345815]]},"properties":{"gauge":"1435","oneway":"yes","tracks":"1","railway":"tram","voltage":"750","frequency":"0","electrified":"contact_line"}},
{"type":"Feature","geometry":{"type":"LineString","coordinates":[[-1.4270118,53.345058],[-1.4266112,53.3454098],[-1.4264411,53.3455819],[-1.4263568,53.3456713],[-1.4261395,53.3458653],[-1.4260491,53.3459449],[-1.4260015,53.3459868],[-1.4257834,53.3461759],[-1.4256494,53.3462932]]},"properties":{"gauge":"1435","oneway":"yes","tracks":"1","railway":"tram","voltage":"750","frequency":"0","electrified":"contact_line"}},
{"type":"Feature","geometry":{"type":"LineString","coordinates":[[-1.4423424,53.3858789],[-1.4422661,53.3859084],[-1.4421775,53.3859576],[-1.4420808,53.3859964],[-1.4418989,53.3860496],[-1.4416892,53.3861109],[-1.4416142,53.386121],[-1.4386676,53.3862022],[-1.4385393,53.3862057],[-1.4384084,53.3862084],[-1.4383351,53.3862019],[-1.4382811,53.3861908],[-1.438222,53.3861715],[-1.4381729,53.3861476],[-1.4381294,53.3861185],[-1.4380964,53.3860815],[-1.4380812,53.3860462],[-1.4380707,53.386013],[-1.4380681,53.3859737],[-1.4380773,53.3859391],[-1.4380949,53.3859096],[-1.4381327,53.385873],[-1.4381674,53.3858406],[-1.4382158,53.3858085],[-1.4382567,53.3857881],[-1.4383177,53.3857681],[-1.4384123,53.3857551],[-1.4388691,53.3857438],[-1.4390687,53.385754],[-1.4391957,53.3857645],[-1.4393038,53.3857683],[-1.4393856,53.3857676],[-1.4397911,53.3857534]]},"properties":{"gauge":"1435","tracks":"2","railway":"tram","service":"yard","voltage":"750","frequency":"0","electrified":"contact_line"}},
{"type":"Feature","geometry":{"type":"LineString","coordinates":[[-1.4428574,53.3855656],[-1.4428065,53.3856133],[-1.442771,53.3856466],[-1.4426749,53.3857127],[-1.4426017,53.3857561],[-1.442523,53.3857963],[-1.4423424,53.3858789]]},"properties":{"gauge":"1435","tracks":"2","railway":"tram","service":"yard","voltage":"750","frequency":"0","electrified":"contact_line"}},
{"type":"Feature","geometry":{"type":"LineString","coordinates":[[-1.5011194,53.4025976],[-1.5011898,53.4026325],[-1.5015799,53.4027873],[-1.5016281,53.4028112],[-1.5016718,53.402833],[-1.5019231,53.4029415],[-1.5022129,53.4031014],[-1.5022558,53.4031278],[-1.5023937,53.4032125],[-1.5027301,53.4034585],[-1.5028913,53.4035841],[-1.5030852,53.4037497],[-1.5032625,53.4039414],[-1.5033394,53.4040332],[-1.5034228,53.4041227],[-1.5034934,53.4042159],[-1.5036425,53.4044087],[-1.5037935,53.4046085],[-1.503929,53.4048148],[-1.5040529,53.4049975],[-1.504059,53.4050147],[-1.504074,53.4050674],[-1.5040971,53.4051541],[-1.5041223,53.4052254],[-1.5041371,53.4052662],[-1.5041561,53.4053334],[-1.5041889,53.4054324],[-1.5042103,53.4055009],[-1.5042508,53.4056414],[-1.5042916,53.405789],[-1.5043066,53.4058515],[-1.5043188,53.4059098],[-1.5043256,53.4059715],[-1.5043365,53.4060266],[-1.5043502,53.4060985],[-1.5043515,53.4061685],[-1.5043556,53.406235],[-1.5043542,53.4062901],[-1.5043528,53.4063517],[-1.5043515,53.4063923],[-1.5043474,53.4064474],[-1.5043447,53.4065025],[-1.504342,53.4065544],[-1.5043365,53.406599],[-1.5043311,53.4066412],[-1.5043243,53.406689],[-1.5043135,53.4067881],[-1.504312,53.4068306],[-1.5042959,53.4069219],[-1.5042724,53.4070578],[-1.5042445,53.4072044],[-1.5042131,53.407364],[-1.5041733,53.4075215],[-1.5041345,53.4076897],[-1.5040786,53.4079277],[-1.5040179,53.4081836],[-1.5039766,53.4085063],[-1.5039614,53.4087952],[-1.5039518,53.4089078],[-1.5039501,53.4090489],[-1.5039502,53.4091265],[-1.5039502,53.4092041],[-1.5039603,53.4092614],[-1.5039856,53.4094053],[-1.5040209,53.4095289],[-1.5040599,53.4096441],[-1.5041443,53.4099319],[-1.5041591,53.4099877],[-1.5041869,53.4100927],[-1.5042203,53.4102189],[-1.504252,53.4103383],[-1.5042988,53.4105151],[-1.5043235,53.4106471],[-1.5043666,53.4108407],[-1.5044239,53.4110766],[-1.5044725,53.4112233],[-1.504535,53.4113609],[-1.5045972,53.4114709],[-1.5046754,53.4115644],[-1.5050735,53.4119269],[-1.5053625,53.4121042],[-1.5055315,53.4122082],[-1.5056853,53.4123036],[-1.5059595,53.4124737],[-1.50654,53.4128401],[-1.5066929,53.4129415],[-1.5073346,53.4133827],[-1.508018,53.4138776],[-1.5080648,53.4139115],[-1.508742,53.4143733],[-1.5089833,53.4145667],[-1.5090364,53.4146182],[-1.5092252,53.4148014]]},"properties":{"gauge":"1435","tracks":"2","railway":"tram","voltage":"750","frequency":"0","electrified":"contact_line"}},
{"type":"Feature","geometry":{"type":"LineString","coordinates":[[-1.5013076,53.4023853],[-1.5013696,53.4023534],[-1.501438,53.4023295],[-1.5015306,53.4022972]]},"properties":{"electrified":"contact_line","frequency":"0","gauge":"1435","oneway":"yes","railway":"tram","tracks":"1","voltage":"750"}},
{"type":"Feature","geometry":{"type":"LineString","coordinates":[[-1.5008466,53.4024625],[-1.5010424,53.4024621],[-1.5011699,53.4024396],[-1.5013076,53.4023853]]},"properties":{"gauge":"1435","oneway":"yes","tracks":"1","railway":"tram","voltage":"750","frequency":"0","electrified":"contact_line"}},
{"type":"Feature","geometry":{"type":"LineString","coordinates":[[-1.5007504,53.402422],[-1.5006684,53.4023764],[-1.5005926,53.4023342]]},"properties":{"gauge":"1435","bridge":"yes","tracks":"2","railway":"tram","voltage":"750","frequency":"0","electrified":"contact_line"}},
{"type":"Feature","geometry":{"type":"LineString","coordinates":[[-1.5013896,53.4024391],[-1.5012669,53.402495],[-1.501189,53.402514],[-1.5011023,53.4025256],[-1.5009755,53.4025264]]},"properties":{"gauge":"1435","oneway":"yes","tracks":"1","railway":"tram","voltage":"750","frequency":"0","electrified":"contact_line"}},
{"type":"Feature","geometry":{"type":"LineString","coordinates":[[-1.5015306,53.4022972],[-1.5013896,53.4024391]]},"properties":{"gauge":"1435","oneway":"yes","tracks":"1","railway":"tram","voltage":"750","frequency":"0","electrified":"contact_line"}},
{"type":"Feature","geometry":{"type":"LineString","coordinates":[[-1.4605952,53.3828293],[-1.4605055,53.3828377],[-1.460423,53.3828571],[-1.4603405,53.3828901],[-1.4602096,53.3829727],[-1.4601337,53.3830419],[-1.4598574,53.3832291]]},"properties":{"gauge":"1435","tracks":"1","railway":"tram","voltage":"750","frequency":"0","electrified":"contact_line"}},
{"type":"Feature","geometry":{"type":"LineString","coordinates":[[-1.4607849,53.382839],[-1.4607338,53.3828352],[-1.4605952,53.3828293]]},"properties":{"gauge":"1435","tracks":"2","railway":"tram","voltage":"750","frequency":"0","electrified":"contact_line"}},
{"type":"Feature","geometry":{"type":"LineString","coordinates":[[-1.3863361,53.342231],[-1.3855934,53.3424725],[-1.3840584,53.3429715],[-1.3838571,53.3430369],[-1.3838036,53.3430564]]},"properties":{"gauge":"1435","layer":"1","oneway":"yes","tracks":"1","railway":"tram","voltage":"750","frequency":"0","electrified":"contact_line"}},
{"type":"Feature","geometry":{"type":"LineString","coordinates":[[-1.4795856,53.3800929],[-1.4797663,53.3800665],[-1.4798228,53.3800582],[-1.4799236,53.3800445],[-1.4800037,53.3800346],[-1.4801406,53.3800189],[-1.4801739,53.3800155],[-1.4802396,53.3800088],[-1.4803003,53.3800034],[-1.4804179,53.3799947],[-1.4805188,53.3799929],[-1.4806526,53.3799905],[-1.4807236,53.3799927],[-1.4808139,53.3799954],[-1.4808555,53.3799969],[-1.4813421,53.380015]]},"properties":{"lit":"yes","gauge":"1435","oneway":"yes","tracks":"1","railway":"tram","voltage":"750","maxspeed":"30 mph","frequency":"0","electrified":"contact_line"}},
{"type":"Feature","geometry":{"type":"LineString","coordinates":[[-1.3884836,53.3416774],[-1.3883847,53.3417099],[-1.3880914,53.3417862],[-1.3878627,53.3418446],[-1.3876092,53.3418966],[-1.3871913,53.341985],[-1.3868272,53.3420812],[-1.3865446,53.3421657],[-1.3863361,53.342231]]},"properties":{"gauge":"1435","layer":"1","oneway":"yes","tracks":"1","railway":"tram","voltage":"750","frequency":"0","electrified":"contact_line"}},
{"type":"Feature","geometry":{"type":"LineString","coordinates":[[-1.4602358,53.382544],[-1.4602627,53.3825828],[-1.4602925,53.3826215],[-1.4603362,53.382676],[-1.4603964,53.3827242],[-1.4604551,53.3827519],[-1.4605336,53.3827752],[-1.4606512,53.3827948]]},"properties":{"gauge":"1435","tracks":"1","railway":"tram","voltage":"750","frequency":"0","electrified":"contact_line"}},
{"type":"Feature","geometry":{"type":"LineString","coordinates":[[-1.4792702,53.389551],[-1.4798323,53.3897243],[-1.4799696,53.3897616],[-1.4801084,53.389801],[-1.4803525,53.3898821],[-1.4806441,53.3899874],[-1.4808917,53.3900909],[-1.4814601,53.3903596],[-1.4819207,53.3906011],[-1.4822878,53.3907972],[-1.482371,53.3908361],[-1.4825316,53.3909227]]},"properties":{"gauge":"1435","tracks":"2","railway":"tram","voltage":"750","frequency":"0","electrified":"contact_line"}},
{"type":"Feature","geometry":{"type":"LineString","coordinates":[[-1.5098332,53.41557],[-1.5097067,53.4154582],[-1.5096483,53.4154065],[-1.5094504,53.4152269],[-1.5092935,53.4150763],[-1.5092486,53.415022],[-1.5092318,53.4149735],[-1.5092255,53.4149262],[-1.5092252,53.4148014]]},"properties":{"gauge":"1435","oneway":"yes","tracks":"1","railway":"tram","voltage":"750","frequency":"0","electrified":"contact_line"}},
{"type":"Feature","geometry":{"type":"LineString","coordinates":[[-1.5005926,53.4023342],[-1.5004742,53.4022687],[-1.5002942,53.4021827],[-1.4998914,53.4020024],[-1.4994393,53.4018072],[-1.4993253,53.4017546],[-1.4992599,53.4017228],[-1.4990647,53.4016279],[-1.4989221,53.4015648],[-1.4988284,53.4015168],[-1.4987498,53.401484],[-1.4986756,53.4014531],[-1.4986529,53.401445],[-1.498641,53.4014407],[-1.4985648,53.4014135]]},"properties":{"gauge":"1435","oneway":"yes","tracks":"1","railway":"tram","voltage":"750","frequency":"0","electrified":"contact_line"}},
{"type":"Feature","geometry":{"type":"LineString","coordinates":[[-1.5009755,53.4025264],[-1.5011194,53.4025976]]},"properties":{"gauge":"1435","tracks":"2","railway":"tram","voltage":"750","frequency":"0","electrified":"contact_line"}},
{"type":"Feature","geometry":{"type":"LineString","coordinates":[[-1.493434,53.3990323],[-1.4931209,53.3989732],[-1.4926192,53.3988989],[-1.4925025,53.3988809],[-1.4920859,53.3988192],[-1.4917941,53.3987505],[-1.4915321,53.398663],[-1.4913445,53.398583],[-1.4911514,53.3984802],[-1.4909924,53.3983617],[-1.490834,53.3982212],[-1.4906118,53.397976],[-1.4903891,53.3976644],[-1.4902555,53.3974682],[-1.4900265,53.3971198],[-1.4898736,53.3968619],[-1.4897311,53.3965777],[-1.4896575,53.3964146],[-1.4895894,53.3962512],[-1.4895256,53.3961122],[-1.4894603,53.3959714],[-1.4893709,53.3957674]]},"properties":{"gauge":"1435","tracks":"2","railway":"tram","voltage":"750","frequency":"0","electrified":"contact_line"}},
{"type":"Feature","geometry":{"type":"LineString","coordinates":[[-1.461505,53.3755999],[-1.4614673,53.3752286],[-1.461434,53.3750037],[-1.4613911,53.374765],[-1.4613583,53.374663],[-1.4613044,53.3745667],[-1.461253,53.3744742],[-1.4612273,53.3744279],[-1.4612124,53.3743766],[-1.4612044,53.3743278],[-1.461216,53.3742402],[-1.4612246,53.3741572],[-1.4612232,53.3740764],[-1.4612092,53.3739934],[-1.4611747,53.3737784],[-1.461122,53.3735133],[-1.4611082,53.3733528]]},"properties":{"gauge":"1435","tracks":"1","railway":"tram","voltage":"750","frequency":"0","electrified":"contact_line"}},
{"type":"Feature","geometry":{"type":"LineString","coordinates":[[-1.4049744,53.41403],[-1.4050704999999999,53.4143767],[-1.4051402,53.4146153]]},"properties":{"gauge":"1435","oneway":"yes","tracks":"2","railway":"tram","voltage":"750","frequency":"0","electrified":"contact_line"}},
{"type":"Feature","geometry":{"type":"LineString","coordinates":[[-1.4051402,53.4146153],[-1.4051998,53.4147949]]},"properties":{"gauge":"1435","oneway":"yes","tracks":"2","railway":"tram","voltage":"750","frequency":"0","electrified":"contact_line"}},
{"type":"Feature","geometry":{"type":"LineString","coordinates":[[-1.4125684,53.4175524],[-1.4133734,53.4170349],[-1.4134979,53.4169557]]},"properties":{"gauge":"1435","layer":"1","level":"1","tracks":"1","railway":"tram","voltage":"750","frequency":"0","electrified":"contact_line"}},
{"type":"Feature","geometry":{"type":"LineString","coordinates":[[-1.4124954,53.4175102],[-1.4132836,53.4169951],[-1.4134105,53.4169128]]},"properties":{"gauge":"1435","layer":"1","level":"1","tracks":"1","railway":"tram","voltage":"750","frequency":"0","electrified":"contact_line"}},
{"type":"Feature","geometry":{"type":"LineString","coordinates":[[-1.40054,53.4185013],[-1.4008659,53.418372],[-1.4012468,53.4181802],[-1.4016421,53.4179381],[-1.4020664,53.4176375],[-1.4023892,53.4173405]]},"properties":{"gauge":"1435","railway":"tram","voltage":"750","frequency":"0","electrified":"contact_line"}},
{"type":"Feature","geometry":{"type":"LineString","coordinates":[[-1.4044578,53.4158723],[-1.404983,53.4158562],[-1.4050873,53.4158437],[-1.405189,53.4158147],[-1.4052621,53.4157714],[-1.4053158,53.4157158],[-1.405346,53.4156529],[-1.4053829,53.4155446],[-1.4053871,53.4154533]]},"properties":{"gauge":"1435","oneway":"yes","source":"EsriWorldImagery","railway":"tram","voltage":"750","frequency":"0","electrified":"contact_line"}},
{"type":"Feature","geometry":{"type":"LineString","coordinates":[[-1.4430527,53.3854779],[-1.4428494,53.3855131],[-1.442832,53.3855175],[-1.4428176,53.3855231],[-1.4428045,53.3855299],[-1.44279,53.385539]]},"properties":{"gauge":"1435","tracks":"1","railway":"tram","service":"yard","voltage":"750","frequency":"0","electrified":"contact_line"}},
{"type":"Feature","geometry":{"type":"LineString","coordinates":[[-1.4423386,53.3858275],[-1.4423643,53.3858192],[-1.4423951,53.3858074],[-1.4424169,53.3857975]]},"properties":{"gauge":"1435","tracks":"1","railway":"tram","service":"yard","voltage":"750","frequency":"0","electrified":"contact_line"}},
{"type":"Feature","geometry":{"type":"LineString","coordinates":[[-1.4373466,53.385947],[-1.4372712,53.3859595],[-1.4371977,53.3859745],[-1.4371138,53.3860083]]},"properties":{"gauge":"1435","oneway":"yes","tracks":"2","railway":"tram","service":"yard","voltage":"750","frequency":"0","electrified":"contact_line"}},
{"type":"Feature","geometry":{"type":"LineString","coordinates":[[-1.4370317,53.385998],[-1.4370922,53.3859804],[-1.4371453,53.3859703],[-1.4372198,53.3859579],[-1.4373466,53.385947]]},"properties":{"gauge":"1435","oneway":"yes","tracks":"2","railway":"tram","service":"yard","voltage":"750","frequency":"0","electrified":"contact_line"}},
{"type":"Feature","geometry":{"type":"LineString","coordinates":[[-1.405337,53.4153106],[-1.4051353,53.4147501]]},"properties":{"gauge":"1435","bridge":"yes","oneway":"yes","tracks":"1","railway":"tram","voltage":"750","frequency":"0","electrified":"contact_line"}},
{"type":"Feature","geometry":{"type":"LineString","coordinates":[[-1.4071841,53.4181051],[-1.406136,53.4168619],[-1.4060582,53.4167668],[-1.4059858,53.4166645],[-1.405935,53.4165863],[-1.4058964,53.4165269],[-1.405794,53.4163456],[-1.4057001,53.4161745],[-1.4055952,53.4159716],[-1.4054945,53.4157547],[-1.4054301,53.4155768],[-1.4053871,53.4154533]]},"properties":{"gauge":"1435","oneway":"yes","tracks":"1","railway":"tram","voltage":"750","frequency":"0","electrified":"contact_line"}},
{"type":"Feature","geometry":{"type":"LineString","coordinates":[[-1.4254314,53.3935359],[-1.4256156,53.3933397],[-1.4256974,53.3932589],[-1.4257845,53.393183],[-1.4258409,53.3931374],[-1.4259119,53.3930902],[-1.4260192,53.3930246],[-1.4261466,53.3929518],[-1.4262418,53.3929094],[-1.4263558,53.3928663],[-1.4264524,53.3928359],[-1.4265355,53.3928119],[-1.4266455,53.3927871],[-1.4267609,53.3927631],[-1.4269111,53.3927351],[-1.4270411,53.3927175],[-1.4276661,53.3926463],[-1.4278485,53.3926215],[-1.4280644,53.39258],[-1.4282347,53.3925464],[-1.4287714,53.3924315],[-1.4288664,53.3924112],[-1.4289911,53.392388],[-1.4291359,53.3923664],[-1.4293143,53.3923472],[-1.4295647,53.3923255],[-1.4302672,53.3922699],[-1.4303476,53.3922649],[-1.4319107,53.3921377],[-1.4320046,53.3921265],[-1.4320872,53.3921164],[-1.432162,53.392103],[-1.4322384,53.3920865],[-1.4322969,53.3920673],[-1.4323757,53.3920422],[-1.4324422,53.3920006],[-1.4325124,53.3919522],[-1.4325692,53.3919034]]},"properties":{"gauge":"1435","oneway":"yes","tracks":"1","railway":"tram","voltage":"750","frequency":"0","electrified":"contact_line"}},
{"type":"Feature","geometry":{"type":"LineString","coordinates":[[-1.4251729,53.3938113],[-1.4254314,53.3935359]]},"properties":{"gauge":"1435","bridge":"yes","oneway":"yes","tracks":"1","railway":"tram","voltage":"750","frequency":"0","electrified":"contact_line"}},
{"type":"Feature","geometry":{"type":"LineString","coordinates":[[-1.4325692,53.3919034],[-1.4326125,53.3918549],[-1.4326707,53.391785],[-1.432854,53.3915182]]},"properties":{"gauge":"1435","bridge":"yes","oneway":"yes","tracks":"1","railway":"tram","voltage":"750","frequency":"0","electrified":"contact_line"}},
{"type":"Feature","geometry":{"type":"LineString","coordinates":[[-1.432854,53.3915182],[-1.4330858,53.3911215],[-1.4344301,53.3890418],[-1.4346603,53.3886668],[-1.43469,53.3886161],[-1.4347159,53.3885818],[-1.434738,53.3885482],[-1.4347751,53.3885069],[-1.4348439,53.3884552],[-1.4349215,53.3884179],[-1.4349729,53.388395],[-1.4351087,53.3883462],[-1.4352328,53.3883018],[-1.4353259,53.3882467],[-1.4353874,53.3882065],[-1.435433,53.3881628],[-1.4354753,53.388112],[-1.435525,53.3880481],[-1.4364518,53.3865741]]},"properties":{"gauge":"1435","oneway":"yes","tracks":"1","railway":"tram","voltage":"750","frequency":"0","electrified":"contact_line"}},
{"type":"Feature","geometry":{"type":"LineString","coordinates":[[-1.4364518,53.3865741],[-1.4366943,53.3862208]]},"properties":{"gauge":"1435","bridge":"yes","oneway":"yes","tracks":"1","railway":"tram","voltage":"750","frequency":"0","electrified":"contact_line"}},
{"type":"Feature","geometry":{"type":"LineString","coordinates":[[-1.4366943,53.3862208],[-1.4367424,53.3861662],[-1.4367779,53.3861328],[-1.4368322,53.3860994],[-1.4369078,53.386056],[-1.4369615,53.3860309],[-1.4370317,53.385998],[-1.437517,53.3857692],[-1.4376885,53.3856973],[-1.4377619,53.3856609],[-1.4378424,53.3856249],[-1.4379229,53.3855937],[-1.4379966,53.3855657],[-1.4380878,53.3855409],[-1.4381731,53.3855174],[-1.4382781,53.3854955],[-1.4383814,53.3854842],[-1.4385097,53.3854756],[-1.4413836,53.3854938],[-1.4419529,53.3854958],[-1.4421229,53.3854964],[-1.4422506,53.3854969],[-1.4423418,53.3854984],[-1.4424237,53.3854982],[-1.4425356,53.385492],[-1.4426325,53.3854766],[-1.4429655,53.385421],[-1.4429755,53.3854193],[-1.4436263,53.3853155],[-1.4445919,53.3851606],[-1.4446834,53.3851408],[-1.4447596,53.3851235],[-1.4448296,53.3851031],[-1.4449028,53.3850737],[-1.4449652,53.3850466],[-1.4450164,53.3850129],[-1.445063,53.384981],[-1.4451092,53.3849451],[-1.4451556,53.384901],[-1.4451899,53.3848579],[-1.4452239,53.3848164],[-1.4452471,53.3847742]]},"properties":{"gauge":"1435","oneway":"yes","tracks":"1","railway":"tram","voltage":"750","frequency":"0","electrified":"contact_line"}},
{"type":"Feature","geometry":{"type":"LineString","coordinates":[[-1.4453591,53.3844131],[-1.4453781,53.3843645],[-1.4454063,53.3842966],[-1.4454375,53.3842568],[-1.4454813,53.3842075],[-1.4455323,53.3841707],[-1.4455728,53.3841386],[-1.4456458,53.3841022],[-1.445716,53.3840659],[-1.4457925,53.3840419],[-1.4458199,53.3840347],[-1.4458783,53.3840195],[-1.4459655,53.3840099],[-1.4460553,53.3840027],[-1.4461465,53.3839987],[-1.4462328,53.3839994],[-1.4469085,53.3840116],[-1.4469668,53.3840128],[-1.4469981,53.3840131],[-1.4471336,53.3840171],[-1.4472596,53.3840259],[-1.4474273,53.3840427],[-1.4485283,53.3841948],[-1.4490924,53.3842655],[-1.4495757,53.3843138],[-1.4520829,53.3845781],[-1.4527542,53.3846511],[-1.4528792,53.3846655],[-1.4531001,53.3846878],[-1.453118,53.3846897],[-1.4534019,53.3847198],[-1.4538257,53.3847582],[-1.4539665,53.3847682]]},"properties":{"gauge":"1435","oneway":"yes","tracks":"1","railway":"tram","voltage":"750","frequency":"0","electrified":"contact_line"}},
{"type":"Feature","geometry":{"type":"LineString","coordinates":[[-1.4452471,53.3847742],[-1.4453591,53.3844131]]},"properties":{"gauge":"1435","bridge":"yes","oneway":"yes","tracks":"1","railway":"tram","voltage":"750","frequency":"0","electrified":"contact_line"}},
{"type":"Feature","geometry":{"type":"LineString","coordinates":[[-1.4557951,53.3846758],[-1.4559178,53.3846514],[-1.4563475,53.3845571],[-1.4566437,53.3844855],[-1.4568498,53.384424],[-1.4573829,53.3842452],[-1.4589017,53.3836992],[-1.4590938,53.3836296],[-1.4592567,53.3835556],[-1.4594138,53.3834773],[-1.4595665,53.383391],[-1.4596834,53.3833174],[-1.4597949,53.3832338]]},"properties":{"gauge":"1435","bridge":"yes","tracks":"1","railway":"tram","voltage":"750","frequency":"0","electrified":"contact_line"}},
{"type":"Feature","geometry":{"type":"LineString","coordinates":[[-1.4539665,53.3847682],[-1.4541563,53.3847754],[-1.4542998,53.3847774],[-1.4544701,53.384779],[-1.4546458,53.384777],[-1.4548463,53.3847694],[-1.4550219,53.3847606]]},"properties":{"gauge":"1435","bridge":"yes","oneway":"yes","tracks":"1","railway":"tram","voltage":"750","frequency":"0","electrified":"contact_line"}},
{"type":"Feature","geometry":{"type":"LineString","coordinates":[[-1.4051353,53.4147501],[-1.4050957,53.4146179],[-1.4049503,53.414133],[-1.4049238,53.4140339],[-1.4047949,53.4135512],[-1.4047627,53.4134049],[-1.4047466,53.4132866],[-1.4047332,53.4131491],[-1.4047359,53.4130228],[-1.4047721,53.4118093],[-1.4047748,53.4116958],[-1.4047828,53.4116087],[-1.4048043,53.4115008],[-1.4048593,53.4113329],[-1.4050095,53.4109956],[-1.4051785,53.410631],[-1.4052576,53.4104824],[-1.4053863,53.4102777],[-1.4054802,53.4101434],[-1.4056197,53.4099667],[-1.4057618,53.4098156],[-1.4058986,53.4096742],[-1.4060797,53.4095095],[-1.4063627,53.4092664],[-1.408385,53.4076604],[-1.4092058,53.4070216],[-1.4100426,53.4063452],[-1.4101285,53.4062741],[-1.4102411,53.4061646],[-1.4103551,53.406047],[-1.4105335,53.405868],[-1.410622,53.4057896],[-1.4107065,53.4057161],[-1.4109894,53.4053864],[-1.4110409,53.4053265],[-1.411087,53.4052599],[-1.4111906,53.4051129],[-1.4112925,53.4049726],[-1.411385,53.404825],[-1.4114725,53.404665],[-1.4115556,53.4044947],[-1.4120208,53.4035414],[-1.4121173,53.4033383],[-1.4122211,53.4031345],[-1.4125824,53.4024318],[-1.4126208,53.4023488],[-1.4127456,53.4020808],[-1.4127814,53.4020093],[-1.4128139,53.4019308],[-1.4129102,53.4017069],[-1.4130212,53.4014769],[-1.4130977,53.401365],[-1.4131969,53.4012283],[-1.4133056,53.4010923],[-1.4134222,53.4009572],[-1.4135429,53.4008229],[-1.4136744,53.4006965],[-1.4138259,53.4005646],[-1.4139828,53.4004399],[-1.4141317,53.4003311],[-1.41431,53.4002184],[-1.4144643,53.4001224],[-1.4145917,53.4000481],[-1.4147499,53.3999609],[-1.4149095,53.3998818],[-1.4150691,53.3998058],[-1.4152314,53.3997402],[-1.4153963,53.3996675],[-1.4156149,53.3995883],[-1.4157866,53.3995363],[-1.4159395,53.3994891],[-1.4160495,53.3994588],[-1.4162922,53.3994004],[-1.4181148,53.3989766],[-1.4185251,53.3988742],[-1.4188483,53.3987855],[-1.4190629,53.3987295],[-1.4192882,53.398656],[-1.4195498,53.3985752],[-1.4198367,53.3984736],[-1.4199498,53.3984364],[-1.4200514,53.3983921],[-1.4202994,53.3982905],[-1.4205261,53.3981882],[-1.4207366,53.3980842],[-1.4209472,53.3979699],[-1.4210436,53.3979152],[-1.4211296,53.3978523],[-1.4212851,53.3977572],[-1.4214863,53.3976196],[-1.4217304,53.3974509],[-1.4219034,53.3973213],[-1.422075,53.3971854],[-1.4223017,53.3969911],[-1.4224613,53.3968328],[-1.4226638,53.396624],[-1.424088,53.3949783],[-1.4246486,53.3943793],[-1.4249437,53.3940555],[-1.4251729,53.3938113]]},"properties":{"gauge":"1435","oneway":"yes","tracks":"1","railway":"tram","voltage":"750","frequency":"0","electrified":"contact_line"}},
{"type":"Feature","geometry":{"type":"LineString","coordinates":[[-1.4597949,53.3832338],[-1.4600814,53.3830173],[-1.4601436,53.3829668],[-1.4603106,53.3828552],[-1.460383,53.38282],[-1.4604514,53.3828024],[-1.4605258,53.3827924],[-1.4606512,53.3827948]]},"properties":{"gauge":"1435","tracks":"1","railway":"tram","voltage":"750","frequency":"0","electrified":"contact_line"}},
{"type":"Feature","geometry":{"type":"LineString","coordinates":[[-1.4550219,53.3847606],[-1.4551634,53.3847526],[-1.4553364,53.3847378],[-1.4554913,53.3847226],[-1.4556509,53.384701],[-1.4557951,53.3846758]]},"properties":{"gauge":"1435","tracks":"1","railway":"tram","voltage":"750","frequency":"0","electrified":"contact_line"}},
{"type":"Feature","geometry":{"type":"LineString","coordinates":[[-1.4621204,53.3828917],[-1.4623913,53.3829092],[-1.4626517,53.3829316],[-1.4628185,53.3829583]]},"properties":{"gauge":"1435","tracks":"1","railway":"tram","voltage":"750","frequency":"0","electrified":"contact_line"}},
{"type":"Feature","geometry":{"type":"LineString","coordinates":[[-1.4607922,53.3828001],[-1.4621204,53.3828917]]},"properties":{"gauge":"1435","bridge":"yes","tracks":"1","railway":"tram","voltage":"750","frequency":"0","electrified":"contact_line"}},
{"type":"Feature","geometry":{"type":"LineString","coordinates":[[-1.4630438,53.3830092],[-1.4633663,53.3830824],[-1.4635969,53.383128],[-1.4640516,53.3831768],[-1.4640785,53.3831787],[-1.4642786,53.3831936],[-1.4644062,53.3832009],[-1.4647309,53.3831884],[-1.4651299,53.3831716],[-1.4653458,53.3831548],[-1.4655161,53.3831408],[-1.465592,53.3831327],[-1.4656504,53.3831264],[-1.4656988,53.3831209],[-1.4658413,53.3831048],[-1.4658802,53.3831002],[-1.466445,53.3830267],[-1.46653,53.3830156],[-1.4668002,53.3829728],[-1.4673456,53.3828668],[-1.4674895,53.3828388],[-1.467743,53.3827728],[-1.4679066,53.382724]]},"properties":{"gauge":"1435","tracks":"1","railway":"tram","voltage":"750","frequency":"0","electrified":"contact_line"}},
{"type":"Feature","geometry":{"type":"LineString","coordinates":[[-1.4628185,53.3829583],[-1.4630438,53.3830092]]},"properties":{"gauge":"1435","bridge":"yes","tracks":"1","railway":"tram","voltage":"750","frequency":"0","electrified":"contact_line"}},
{"type":"Feature","geometry":{"type":"LineString","coordinates":[[-1.4601436,53.3829668],[-1.4601933,53.3828876],[-1.4602228,53.3827988],[-1.460251,53.3827308],[-1.4602446,53.3826508]]},"properties":{"gauge":"1435","tracks":"1","railway":"tram","voltage":"750","frequency":"0","electrified":"contact_line"}},
{"type":"Feature","geometry":{"type":"LineString","coordinates":[[-1.4605952,53.3828293],[-1.4604514,53.3828024],[-1.4603723,53.3827712],[-1.4603103,53.3827279],[-1.4602446,53.3826508],[-1.4602101,53.3825951],[-1.4601847,53.3825553]]},"properties":{"gauge":"1435","tracks":"1","railway":"tram","voltage":"750","frequency":"0","electrified":"contact_line"}},
{"type":"Feature","geometry":{"type":"LineString","coordinates":[[-1.4601847,53.3825553],[-1.4601494,53.3825052],[-1.4601102,53.3824424],[-1.4600786,53.3823785],[-1.4600595,53.3823066]]},"properties":{"gauge":"1435","layer":"1","bridge":"yes","tracks":"1","railway":"tram","voltage":"750","frequency":"0","electrified":"contact_line"}},
{"type":"Feature","geometry":{"type":"LineString","coordinates":[[-1.4600595,53.3823066],[-1.4600535,53.3822287],[-1.4600694,53.3821476],[-1.4600885,53.3821032],[-1.4601047,53.3820647],[-1.4601497,53.3819887],[-1.4603079,53.381809],[-1.4605209,53.381591],[-1.4606977,53.3814004],[-1.4607981,53.3812775],[-1.4608661,53.3811737],[-1.4608956,53.3810102],[-1.4608942,53.380855],[-1.4608835,53.380729],[-1.460888,53.3806101],[-1.4609216,53.3804586],[-1.4609618,53.3802955],[-1.4609896,53.3801131],[-1.4610164,53.3798865],[-1.4610409,53.3796305],[-1.4611022,53.3791691],[-1.4611844,53.3783857],[-1.4612136,53.3781074],[-1.4612407,53.3778615],[-1.4612813,53.3775489],[-1.4612833,53.3775333],[-1.4613725,53.3767474],[-1.4614793,53.3759074],[-1.4615012,53.3757125],[-1.461505,53.3755999]]},"properties":{"gauge":"1435","tracks":"1","railway":"tram","voltage":"750","frequency":"0","electrified":"contact_line"}},
{"type":"Feature","geometry":{"type":"LineString","coordinates":[[-1.4611606,53.373352],[-1.4611843,53.3735115],[-1.4612407,53.3737755],[-1.4612782,53.3739908],[-1.4612889,53.3741616],[-1.4612836,53.374254],[-1.4612758,53.3743306],[-1.4613037,53.3744348],[-1.4613544,53.3745568],[-1.4614094,53.374655],[-1.4614432,53.3747604],[-1.4614864,53.3750006],[-1.4615199,53.375226],[-1.4615537,53.3755493]]},"properties":{"gauge":"1435","tracks":"1","railway":"tram","voltage":"750","frequency":"0","electrified":"contact_line"}},
{"type":"Feature","geometry":{"type":"LineString","coordinates":[[-1.4679066,53.382724],[-1.4680897,53.3826728],[-1.4681882,53.3826452],[-1.4683901,53.38261],[-1.4684791,53.3825998],[-1.4685283,53.3825961],[-1.4686415,53.3825876],[-1.4686942,53.3825861],[-1.4688534,53.3825796],[-1.4694113,53.382564],[-1.4694844,53.3825612],[-1.4695622,53.382556],[-1.4696306,53.382544],[-1.4697433,53.382516],[-1.4698477,53.382494],[-1.4702884,53.3824921],[-1.4705718,53.3824871],[-1.4708005,53.3824809],[-1.470938,53.382464]]},"properties":{"gauge":"1435","tracks":"1","railway":"tram","voltage":"750","frequency":"0","electrified":"contact_line"}},
{"type":"Feature","geometry":{"type":"LineString","coordinates":[[-1.4685655,53.3826249],[-1.4685504,53.3826256],[-1.4683968,53.3826332],[-1.4682922,53.382642],[-1.468197,53.3826564],[-1.4680953,53.3826801],[-1.4679066,53.382724]]},"properties":{"gauge":"1435","tracks":"1","railway":"tram","service":"crossover","voltage":"750","frequency":"0","electrified":"contact_line"}},
{"type":"Feature","geometry":{"type":"LineString","coordinates":[[-1.4606512,53.3827948],[-1.4607401,53.3827961],[-1.4607922,53.3828001]]},"properties":{"gauge":"1435","tracks":"1","railway":"tram","voltage":"750","frequency":"0","electrified":"contact_line"}},
{"type":"Feature","geometry":{"type":"LineString","coordinates":[[-1.5008466,53.4024625],[-1.5007504,53.402422]]},"properties":{"gauge":"1435","tracks":"2","railway":"tram","voltage":"750","frequency":"0","electrified":"contact_line"}},
{"type":"Feature","geometry":{"type":"LineString","coordinates":[[-1.4692518,53.3825996],[-1.4686999,53.3826195],[-1.4686462,53.3826216],[-1.4685655,53.3826249]]},"properties":{"lit":"yes","gauge":"1435","tracks":"1","railway":"tram","voltage":"750","maxspeed":"20 mph","frequency":"0","electrified":"contact_line"}},
{"type":"Feature","geometry":{"type":"LineString","coordinates":[[-1.4119139,53.4180375],[-1.4122266,53.4178027]]},"properties":{"gauge":"1435","layer":"1","tracks":"1","railway":"tram","voltage":"750","frequency":"0","electrified":"contact_line"}},
{"type":"Feature","geometry":{"type":"LineString","coordinates":[[-1.4053871,53.4154533],[-1.405337,53.4153106]]},"properties":{"gauge":"1435","oneway":"yes","tracks":"1","railway":"tram","voltage":"750","frequency":"0","electrified":"contact_line"}},
{"type":"Feature","geometry":{"type":"LineString","coordinates":[[-1.4053983,53.4153456],[-1.4054325,53.4154493]]},"properties":{"gauge":"1435","oneway":"yes","tracks":"2","railway":"tram","voltage":"750","frequency":"0","electrified":"contact_line"}},
{"type":"Feature","geometry":{"type":"LineString","coordinates":[[-1.4402218,53.3425796],[-1.4401462,53.3425623],[-1.4399019,53.3425128],[-1.4398035,53.3424982],[-1.4396899,53.3424956],[-1.439407,53.342501]]},"properties":{"name":"Sheffield Supertram","gauge":"1435","tracks":"1","railway":"tram","voltage":"750","frequency":"0","electrified":"contact_line"}},
{"type":"Feature","geometry":{"type":"LineString","coordinates":[[-1.5091181,53.4006518],[-1.508276,53.4006836]]},"properties":{"gauge":"1435","tracks":"1","railway":"tram","voltage":"750","frequency":"0","electrified":"contact_line"}},
{"type":"Feature","geometry":{"type":"LineString","coordinates":[[-1.5104433,53.4161339],[-1.5099221,53.4156522],[-1.5098332,53.41557]]},"properties":{"gauge":"1435","tracks":"1","railway":"tram","voltage":"750","frequency":"0","electrified":"contact_line"}},
{"type":"Feature","geometry":{"type":"LineString","coordinates":[[-1.4044578,53.4158723],[-1.4042709,53.4158725],[-1.4040897,53.4158832],[-1.403946,53.4158996],[-1.4037906,53.4159391],[-1.4036458,53.415987],[-1.4035122,53.4160435],[-1.4033963,53.4161152],[-1.4032786,53.4162096],[-1.4031779,53.4163271],[-1.4030741,53.4164922],[-1.4028309,53.4168402],[-1.4026103,53.4171235],[-1.4023892,53.4173405]]},"properties":{"gauge":"1435","railway":"tram","voltage":"750","frequency":"0","electrified":"contact_line"}},
{"type":"Feature","geometry":{"type":"LineString","coordinates":[[-1.4054325,53.4154493],[-1.4054301,53.4155768],[-1.4053989,53.4156688],[-1.4053671,53.4157377],[-1.4053192,53.4157938],[-1.405241,53.4158385],[-1.4051491,53.4158723],[-1.4050318,53.4158873],[-1.4047987,53.415895],[-1.4044578,53.4158723]]},"properties":{"gauge":"1435","oneway":"yes","railway":"tram","voltage":"750","frequency":"0","electrified":"contact_line"}},
{"type":"Feature","geometry":{"type":"LineString","coordinates":[[-1.3831054,53.343321],[-1.383478,53.3431686],[-1.3836552,53.3430891],[-1.3837477,53.3430429],[-1.3838562,53.342999],[-1.3840311,53.3429415],[-1.385562,53.3424385]]},"properties":{"gauge":"1435","oneway":"yes","railway":"tram","voltage":"750","frequency":"0","electrified":"contact_line"}},
{"type":"Feature","geometry":{"type":"LineString","coordinates":[[-1.380373,53.3435759],[-1.3802092,53.3435474],[-1.3801306,53.3435338],[-1.3799777,53.3434836],[-1.3797794,53.3433954],[-1.3797493,53.343375],[-1.3796856,53.3433244],[-1.3794749,53.3431364],[-1.3793466,53.3430322],[-1.3791718,53.3428917],[-1.3789414,53.3427172],[-1.378796,53.3426133],[-1.3784113,53.3424049],[-1.3779258,53.3421967],[-1.3774373,53.3420178]]},"properties":{"gauge":"1435","oneway":"yes","railway":"tram","voltage":"750","frequency":"0","electrified":"contact_line"}},
{"type":"Feature","geometry":{"type":"LineString","coordinates":[[-1.3939541,53.340697],[-1.394554,53.3407386]]},"properties":{"gauge":"1435","oneway":"yes","railway":"tram","voltage":"750","frequency":"0","electrified":"contact_line"}},
{"type":"Feature","geometry":{"type":"LineString","coordinates":[[-1.4254671,53.3464011],[-1.4256494,53.3462932]]},"properties":{"gauge":"1435","oneway":"yes","railway":"tram","service":"crossover","voltage":"750","frequency":"0","electrified":"contact_line"}},
{"type":"Feature","geometry":{"type":"LineString","coordinates":[[-1.4611844,53.3783857],[-1.4612211,53.3785772]]},"properties":{"gauge":"1435","tracks":"1","railway":"tram","service":"crossover","voltage":"750","frequency":"0","electrified":"contact_line"}},
{"type":"Feature","geometry":{"type":"LineString","coordinates":[[-1.424646,53.3522812],[-1.425004,53.353065],[-1.4253768,53.3539206],[-1.4257389,53.3546002],[-1.4264094,53.3557384],[-1.4268367,53.356389],[-1.4269996,53.3566997],[-1.4276822,53.3578325]]},"properties":{"gauge":"1435","oneway":"yes","railway":"tram","voltage":"750","frequency":"0","electrified":"contact_line"}},
{"type":"Feature","geometry":{"type":"LineString","coordinates":[[-1.4286206,53.360722],[-1.4285997,53.3606898],[-1.4285603,53.3606296],[-1.4285433,53.3605778],[-1.4284843,53.3601098],[-1.428485,53.359997],[-1.428434,53.359672],[-1.4284149,53.3594693],[-1.4283949,53.3593595],[-1.4283577,53.3591894],[-1.4283071,53.3590417],[-1.4276252,53.3578469]]},"properties":{"gauge":"1435","oneway":"yes","railway":"tram","voltage":"750","frequency":"0","electrified":"contact_line"}},
{"type":"Feature","geometry":{"type":"LineString","coordinates":[[-1.4973573,53.4007865],[-1.4970411,53.4006375],[-1.4962494,53.40026],[-1.4961223,53.4002055],[-1.495987,53.400139],[-1.4958128,53.4000524],[-1.4955894,53.3999042],[-1.4955402,53.3998797],[-1.4952552,53.399738],[-1.4949829,53.3996025],[-1.4949577,53.3995903],[-1.494406,53.399323],[-1.4942501,53.3992567],[-1.4940472,53.3991848],[-1.49377,53.3991058],[-1.4937098,53.3990926],[-1.4936495,53.3990794],[-1.493434,53.3990323]]},"properties":{"gauge":"1435","tracks":"2","railway":"tram","voltage":"750","frequency":"0","electrified":"contact_line"}},
{"type":"Feature","geometry":{"type":"LineString","coordinates":[[-1.394554,53.3407386],[-1.3946452,53.3407458],[-1.3950758,53.340771],[-1.3954969,53.340795],[-1.395851,53.3407982],[-1.3960915,53.3407884],[-1.39653,53.3407489],[-1.3968618,53.3407075],[-1.3969544,53.3406959],[-1.3979227,53.340584]]},"properties":{"gauge":"1435","oneway":"yes","railway":"tram","voltage":"750","frequency":"0","electrified":"contact_line"}},
{"type":"Feature","geometry":{"type":"LineString","coordinates":[[-1.3945531,53.340777],[-1.3942932,53.3407727],[-1.3938995,53.3407799],[-1.3935793,53.3407814],[-1.3933848,53.3407734],[-1.3931515,53.3407533],[-1.3929892,53.3407325],[-1.3926526,53.3406821],[-1.3924326,53.3406549],[-1.3921926,53.3406332],[-1.3919498,53.340622],[-1.3917178,53.3406188],[-1.3915918,53.3406212],[-1.3914416,53.3406284],[-1.3913182,53.3406356],[-1.3912163,53.3406444],[-1.3910929,53.3406581],[-1.3909923,53.3406701],[-1.3908837,53.3406885],[-1.3907885,53.3407061],[-1.3906932,53.3407293],[-1.3906087,53.3407525],[-1.3905026,53.3407858],[-1.3903969,53.340823],[-1.3903325,53.340851],[-1.390244,53.3408903],[-1.3901715,53.3409271],[-1.3901174,53.3409564],[-1.3900683,53.3409831],[-1.3899399,53.3410634],[-1.3897193,53.3411955],[-1.3896257,53.341253],[-1.3895788,53.3412793],[-1.3895035,53.3413216],[-1.3894362,53.3413566],[-1.3893568,53.3413929],[-1.3892499,53.3414316],[-1.3890654,53.3414911],[-1.3890374,53.3415],[-1.38896,53.3415245],[-1.3884836,53.3416774]]},"properties":{"gauge":"1435","oneway":"yes","railway":"tram","voltage":"750","frequency":"0","electrified":"contact_line"}},
{"type":"Feature","geometry":{"type":"LineString","coordinates":[[-1.3976371,53.3406473],[-1.3972954,53.3406901],[-1.396873,53.3407394]]},"properties":{"gauge":"1435","oneway":"yes","railway":"tram","voltage":"750","frequency":"0","electrified":"contact_line"}},
{"type":"Feature","geometry":{"type":"LineString","coordinates":[[-1.396873,53.3407394],[-1.3965355,53.3407792],[-1.3961053,53.3408185],[-1.3958537,53.3408318],[-1.3955613,53.3408302],[-1.3952475,53.3408158],[-1.3948413,53.3407899],[-1.3945531,53.340777]]},"properties":{"gauge":"1435","oneway":"yes","railway":"tram","voltage":"750","frequency":"0","electrified":"contact_line"}},
{"type":"Feature","geometry":{"type":"LineString","coordinates":[[-1.3838036,53.3430564],[-1.3835395,53.3431858],[-1.3833134,53.3432816]]},"properties":{"gauge":"1435","layer":"1","oneway":"yes","tracks":"1","railway":"tram","voltage":"750","sidewalk":"no","frequency":"0","electrified":"contact_line"}},
{"type":"Feature","geometry":{"type":"LineString","coordinates":[[-1.3774373,53.3420178],[-1.3769855,53.3418814],[-1.3765207,53.3417573],[-1.3760026,53.3416474],[-1.3756164,53.3415834],[-1.3750966,53.3415162],[-1.3746428,53.3414713],[-1.3742973,53.3414481],[-1.3742343,53.3414438],[-1.3741385,53.3414346]]},"properties":{"gauge":"1435","oneway":"yes","railway":"tram","voltage":"750","frequency":"0","electrified":"contact_line"}},
{"type":"Feature","geometry":{"type":"LineString","coordinates":[[-1.3741385,53.3414346],[-1.3739673,53.3414216],[-1.373807,53.3414055],[-1.3736041,53.3413772]]},"properties":{"gauge":"1435","oneway":"yes","railway":"tram","voltage":"750","sidewalk":"no","frequency":"0","electrified":"contact_line"}},
{"type":"Feature","geometry":{"type":"LineString","coordinates":[[-1.4719886,53.3821827],[-1.4720322,53.3821566],[-1.4722095,53.3820253],[-1.472474,53.3818055],[-1.4724925,53.3817901],[-1.4725944,53.3817285],[-1.4728439,53.3816181],[-1.4730383,53.3815637],[-1.4733745,53.3814803],[-1.4735828,53.3814285],[-1.4740281,53.3813101],[-1.4745028,53.3811813],[-1.4750138,53.3810558],[-1.475683,53.3809102],[-1.4762248,53.3807854],[-1.476882,53.380635],[-1.477409,53.380523],[-1.4776472,53.380471],[-1.4778489,53.380427],[-1.4784846,53.3802958],[-1.4790465,53.380175],[-1.4795856,53.3800929]]},"properties":{"lit":"yes","gauge":"1435","oneway":"yes","tracks":"1","railway":"tram","voltage":"750","maxspeed":"30 mph","frequency":"0","electrified":"contact_line"}},
{"type":"Feature","geometry":{"type":"LineString","coordinates":[[-1.4837489,53.3801377],[-1.4834695,53.380131],[-1.4829691,53.3801302],[-1.482473,53.3801174],[-1.4822061,53.3801094],[-1.4820009,53.380091],[-1.4818279,53.3800774],[-1.4815356,53.3800654],[-1.4813377,53.3800603]]},"properties":{"lit":"yes","gauge":"1435","oneway":"yes","tracks":"2","railway":"tram","voltage":"750","maxspeed":"30 mph","frequency":"0","electrified":"contact_line"}},
{"type":"Feature","geometry":{"type":"LineString","coordinates":[[-1.4405066,53.3662938],[-1.4403905,53.3662564],[-1.4403367,53.3662362],[-1.4401571,53.3661896],[-1.4399345,53.3661372],[-1.439669,53.366106],[-1.439565,53.3660973],[-1.4394228,53.3661065],[-1.4394061,53.3661076],[-1.4393,53.3661206],[-1.4391339,53.36617],[-1.4391154,53.3661758],[-1.4388123,53.366289],[-1.4386137,53.3663778],[-1.4385404,53.3664101]]},"properties":{"electrified":"contact_line","frequency":"0","gauge":"1435","layer":"0","railway":"tram","tracks":"1","voltage":"750"}},
{"type":"Feature","geometry":{"type":"LineString","coordinates":[[-1.4385404,53.3664101],[-1.4384969,53.3664259],[-1.4383332,53.3664949],[-1.4382114,53.3665446],[-1.4381415,53.3665629],[-1.4380929,53.3665692],[-1.438006,53.3665805],[-1.4378433,53.3665649],[-1.4377276,53.3665067],[-1.4377217,53.3665037],[-1.4376429,53.3664502],[-1.4375232,53.3663692],[-1.4371155,53.3661108],[-1.4368535,53.3659399],[-1.4363212,53.365617],[-1.4359179,53.3653585],[-1.4356725,53.3652145],[-1.4355374,53.3651319],[-1.4353493,53.3650168],[-1.435183,53.3649152],[-1.4349537,53.3647631],[-1.4347377,53.3646215],[-1.4345634,53.3645039],[-1.4344814,53.3644537],[-1.4343984,53.364403],[-1.4341863,53.3642684],[-1.4341075,53.3642039],[-1.4337574,53.3639765],[-1.4335026,53.3638156],[-1.4330346,53.3635211],[-1.4328388,53.3633915],[-1.4323734,53.3631034],[-1.432071,53.3629173],[-1.4318302,53.3627744],[-1.4314547,53.3625592],[-1.4310832,53.3623143],[-1.4308512,53.3621622],[-1.4305401,53.3619661],[-1.4302343,53.3617789],[-1.430115,53.36171],[-1.4300115,53.3616501]]},"properties":{"electrified":"contact_line","frequency":"0","gauge":"1435","layer":"0","oneway":"yes","railway":"tram","tracks":"1","voltage":"750"}},
{"type":"Feature","geometry":{"type":"LineString","coordinates":[[-1.4405066,53.3662938],[-1.4406339,53.3663092],[-1.4407176,53.3663149],[-1.4407941,53.3663168],[-1.4409015,53.366326]]},"properties":{"gauge":"1435","oneway":"yes","tracks":"1","railway":"tram","service":"crossover","voltage":"750","frequency":"0","electrified":"contact_line"}},
{"type":"Feature","geometry":{"type":"LineString","coordinates":[[-1.4598043,53.3709791],[-1.4598969,53.3710239],[-1.4601396,53.3711335],[-1.4604427,53.3712352],[-1.4606868,53.3713416],[-1.4609148,53.3714904],[-1.461073,53.3716888],[-1.4611025,53.3718081],[-1.4611213,53.3719953],[-1.4610851,53.3722833],[-1.4610676,53.3725002],[-1.4610797,53.3728066],[-1.4611173,53.3730586],[-1.4611606,53.373352]]},"properties":{"gauge":"1435","bridge":"yes","oneway":"yes","tracks":"1","railway":"tram","voltage":"750","frequency":"0","electrified":"contact_line"}},
{"type":"Feature","geometry":{"type":"LineString","coordinates":[[-1.4597735,53.3710047],[-1.459626,53.3709199],[-1.4594731,53.3708239],[-1.4593618,53.3707487],[-1.4591821,53.3706279],[-1.4589849,53.370479],[-1.4588991,53.3704217],[-1.4587598,53.3703105],[-1.4586335,53.370207],[-1.4583995,53.3700245],[-1.4583948,53.3700221],[-1.4583063,53.3699514],[-1.4581923,53.3698725],[-1.4581054,53.3698237],[-1.4580877,53.3698149],[-1.4579509,53.3697469],[-1.4577149,53.3696525],[-1.4575151,53.3695972],[-1.4571733,53.3695451],[-1.457051,53.3695348],[-1.4569416,53.3695315],[-1.4568755,53.3695319],[-1.4567506,53.3695244],[-1.4566227,53.3695111],[-1.4564529,53.3694908],[-1.456131,53.3694164],[-1.4558119,53.3693428],[-1.455368,53.3692324],[-1.4551212,53.3691604],[-1.454857,53.3690635],[-1.4547376,53.3690019],[-1.4545995,53.3689139],[-1.4544533,53.3688051],[-1.4543326,53.368689],[-1.45422,53.3685226],[-1.4541529,53.3683794],[-1.4541301,53.3682569],[-1.4541303,53.3682448],[-1.4541328,53.3680697],[-1.4541462,53.3679529],[-1.4541771,53.3678616],[-1.4542401,53.3677248],[-1.4542663,53.3676805],[-1.454334,53.3675888],[-1.4543796,53.3675432],[-1.4545794,53.3673743],[-1.4548396,53.3672047],[-1.4549524,53.3671393],[-1.4550193,53.3671006],[-1.4553236,53.3669138],[-1.4553438,53.3669014],[-1.4554913,53.3667974],[-1.4556389,53.3666781],[-1.4557596,53.3665485],[-1.4558172,53.3664669],[-1.4558826,53.3663048],[-1.4559057,53.3662476],[-1.4559366,53.3661644],[-1.455954,53.3660787],[-1.4559621,53.3659955],[-1.4559634,53.3659011],[-1.4559468,53.3657699],[-1.4558923,53.3656298],[-1.455836,53.3655282],[-1.4557596,53.3654185],[-1.4556013,53.3652721],[-1.4554202999999999,53.3651497],[-1.4552607,53.3650472],[-1.4549764,53.3649104],[-1.4547752,53.3648296],[-1.454668,53.3647928],[-1.4545083,53.3647431],[-1.4541844,53.3646604],[-1.4538994,53.3645991],[-1.4535789,53.3645639],[-1.4532946,53.3645479],[-1.4530666,53.3645327],[-1.4528789,53.3645119],[-1.4528361,53.3645069],[-1.4526254,53.3644822],[-1.4525782,53.3644755],[-1.4524068,53.364451],[-1.4522338,53.3644246],[-1.4518811,53.3643606],[-1.4516598,53.3643038],[-1.4513004,53.3641845],[-1.4510375,53.3640909],[-1.450831,53.3639981],[-1.4507468,53.3639604],[-1.4506526,53.3639181],[-1.4504148,53.3638065],[-1.4502744,53.3637524],[-1.4499673,53.3636588],[-1.4497857,53.3636073],[-1.4495344,53.3635545],[-1.4491856,53.3634905],[-1.448839,53.3634585],[-1.4486172,53.3634532],[-1.4482373,53.3634491],[-1.4481444,53.3634514],[-1.448031,53.363454],[-1.4479409,53.3634563],[-1.4475225,53.3634787],[-1.4473324,53.3635089],[-1.44721,53.3635283],[-1.44703,53.3635706],[-1.4467245,53.363642],[-1.4464008,53.363738],[-1.446109,53.3638356],[-1.4458515,53.3639261],[-1.4456329,53.3640253],[-1.4453003,53.3642102],[-1.4450093,53.3644054],[-1.4448886,53.3644989],[-1.4446324,53.3647215],[-1.4443873,53.3649683],[-1.4441375,53.3652554],[-1.4440019,53.3654096],[-1.4438546,53.3655762],[-1.443691,53.3657539],[-1.4436424,53.3658049],[-1.4434469,53.3659779],[-1.4432699,53.3661116],[-1.4430821,53.3662196],[-1.4427589,53.3663532],[-1.4425803,53.3663991],[-1.4424223,53.3664397],[-1.4420454,53.3665181],[-1.4418865,53.3665334],[-1.4417303,53.3665485],[-1.4416894,53.3665505],[-1.4416566,53.3665529],[-1.4415526,53.3665473],[-1.4414701,53.3665429],[-1.4411683,53.3664909],[-1.441152,53.3664832],[-1.4409457,53.3664317],[-1.440903,53.3664191],[-1.4406051,53.3663268],[-1.4405066,53.3662938]]},"properties":{"gauge":"1435","layer":"0","oneway":"yes","tracks":"1","railway":"tram","voltage":"750","frequency":"0","electrified":"contact_line"}},
{"type":"Feature","geometry":{"type":"LineString","coordinates":[[-1.4611082,53.3733528],[-1.4610931,53.3732091],[-1.4610556,53.3729474],[-1.4610234,53.3727138],[-1.4610073,53.372469],[-1.4610583,53.3720337],[-1.4610556,53.3718129],[-1.461018,53.3717056],[-1.4609402,53.3715904],[-1.4608303,53.3714768],[-1.4606988,53.3713856],[-1.4604762,53.371288],[-1.4601517,53.3711728],[-1.4598969,53.3710687],[-1.4597735,53.3710047]]},"properties":{"gauge":"1435","bridge":"yes","oneway":"yes","tracks":"1","railway":"tram","voltage":"750","frequency":"0","electrified":"contact_line"}}
]}
