{"type":"FeatureCollection","features":[
{"type":"Feature","geometry":{"type":"Point","coordinates":[-0.722846,51.5183532]},"properties":{"layer":"3","name":"Maidenhead","naptan:AtcoCode":"9100MDNHEAD","network":"National Rail;TfL Rail","operator":"Great Western Railway","public_transport":"station","railway":"station","ref:crs":"MAI","wikidata":"Q1801859","wikipedia":"en:Maidenhead railway station"}},
{"type":"Feature","geometry":{"type":"Point","coordinates":[-0.8428255,51.4117503]},"properties":{"name":"Wokingham","network":"National Rail","railway":"station","ref:crs":"WKM","operator":"South West Trains","wikidata":"Q2588372","wikipedia":"en:Wokingham railway station","naptan:AtcoCode":"9100WOKNGHM"}},
{"type":"Feature","geometry":{"type":"Point","coordinates":[-0.7103717,51.5770779]},"properties":{"name":"Bourne End","fixme":"?NPE Shows this SW of current location","source":"NPE","network":"National Rail","railway":"station","ref:crs":"BNE","operator":"Great Western Railway","wikidata":"Q2018754","wikipedia":"en:Bourne End railway station","naptan:AtcoCode":"9100BORNEND","public_transport":"station"}},
{"type":"Feature","geometry":{"type":"Point","coordinates":[-0.6470844,51.5233926]},"properties":{"name":"Burnham","naptan:AtcoCode":"9100BNHAM","network":"TfL Rail","operator":"TfL Rail","public_transport":"station","railway":"station","ref:crs":"BNM","wheelchair":"yes","wikidata":"Q1999740","wikipedia":"en:Burnham railway station"}},
{"type":"Feature","geometry":{"type":"Point","coordinates":[-1.1369636,51.4021098]},"properties":{"name":"Aldermaston","naptan:AtcoCode":"9100ALDMSTN","network":"National Rail","public_transport":"station","railway":"station","ref:crs":"AMT","source":"NPE","wikidata":"Q2148392","wikipedia":"en:Aldermaston railway station"}},
{"type":"Feature","geometry":{"type":"Point","coordinates":[-1.178281,51.3960489]},"properties":{"name":"Midgham","naptan:AtcoCode":"9100MIDGHAM","network":"National Rail","public_transport":"station","railway":"station","ref:crs":"MDG","source":"NPE","wikidata":"Q1984950","wikipedia":"en:Midgham railway station"}},
{"type":"Feature","geometry":{"type":"Point","coordinates":[-1.3076512,51.3987364]},"properties":{"name":"Newbury Racecourse","source":"NPE","network":"National Rail","railway":"station","ref:crs":"NRC","operator":"Great Western Railway","wikidata":"Q2460953","wikipedia":"en:Newbury Racecourse railway station","wheelchair":"limited","naptan:AtcoCode":"9100NEWBRYR"}},
{"type":"Feature","geometry":{"type":"Point","coordinates":[-0.7284148,51.5331544]},"properties":{"name":"Furze Platt","note":"this is really a classic halt","source":"NPE","network":"National Rail","railway":"station","ref:crs":"FZP","operator":"Great Western Railway","wikidata":"Q2099123","wikipedia":"en:Furze Platt railway station","naptan:AtcoCode":"9100FURZEP","public_transport":"station"}},
{"type":"Feature","geometry":{"type":"Point","coordinates":[-0.8766558,51.4985546]},"properties":{"name":"Wargrave","naptan:AtcoCode":"9100WARGRAV","network":"National Rail","operator":"Great Western Railway","public_transport":"station","railway":"station","ref:crs":"WGV","source":"NPE","train":"yes","wheelchair":"yes","wikidata":"Q2081278","wikipedia":"en:Wargrave railway station"}},
{"type":"Feature","geometry":{"type":"Point","coordinates":[-0.6489387,51.4639151]},"properties":{"usage":"tourism","railway":"station"}},
{"type":"Feature","geometry":{"type":"Point","coordinates":[-0.6531334,51.4646107]},"properties":{"layer":"1","usage":"tourism","railway":"station"}},
{"type":"Feature","geometry":{"type":"Point","coordinates":[-0.7242433,51.4074442]},"properties":{"name":"Martins Heron","network":"National Rail","railway":"station","ref:crs":"MAO","operator":"South West Trains","wikidata":"Q2744100","wikipedia":"en:Martins Heron railway station","naptan:AtcoCode":"9100MHERON"}},
{"type":"Feature","geometry":{"type":"Point","coordinates":[-0.8192585,51.3664877]},"properties":{"name":"Crowthorne","naptan:AtcoCode":"9100CRWTHRN","network":"National Rail","public_transport":"station","railway":"station","ref:crs":"CRN","source":"bing","wikidata":"Q4371483","wikipedia":"en:Crowthorne railway station"}},
{"type":"Feature","geometry":{"type":"Point","coordinates":[-0.8038071,51.3465435]},"properties":{"name":"Sandhurst","naptan:AtcoCode":"9100SNDHRST","network":"National Rail","operator":"Great Western Railway","public_transport":"station","railway":"station","ref:crs":"SND","source":"bing","source:operator":"Local Knowledge","wikidata":"Q2848846","wikipedia":"en:Sandhurst railway station"}},
{"type":"Feature","geometry":{"type":"Point","coordinates":[-0.6502646,51.4637657]},"properties":{"name":"Hill Train Bottom","usage":"tourism","network":"Hill Train","railway":"station","operator":"LEGOLAND Windsor Resort"}},
{"type":"Feature","geometry":{"type":"Point","coordinates":[-0.6536388,51.4641989]},"properties":{"name":"Hill Train Top","usage":"tourism","network":"Hill Train","railway":"station","operator":"LEGOLAND Windsor Resort"}},
{"type":"Feature","geometry":{"type":"Point","coordinates":[-1.090279,51.4853425]},"properties":{"name":"Pangbourne","network":"National Rail","railway":"station","ref:crs":"PAN","operator":"Great Western Railways","wikidata":"Q1959230","wikipedia":"en:Pangbourne railway station","naptan:AtcoCode":"9100PANGBRN"}},
{"type":"Feature","geometry":{"type":"Point","coordinates":[-0.751879,51.4131149]},"properties":{"name":"Bracknell","name:be":"Бракнэл","name:lt":"Braknelis","network":"National Rail","railway":"station","ref:crs":"BCE","operator":"South West Railway","wikidata":"Q1970873","addr:city":"Bracknell","wikipedia":"en:Bracknell railway station","addr:street":"Market Street","addr:postcode":"RG12 1HX","addr:housename":"Bracknell station","naptan:AtcoCode":"9100BRACKNL"}},
{"type":"Feature","geometry":{"type":"Point","coordinates":[-0.7222499,51.5573685]},"properties":{"name":"Cookham","source":"NPE","network":"National Rail","railway":"station","ref:crs":"COO","operator":"First Great Western","wikidata":"Q2694705","wikipedia":"en:Cookham railway station","naptan:AtcoCode":"9100COOKHAM","public_transport":"station"}},
{"type":"Feature","geometry":{"type":"Point","coordinates":[-1.0296647,51.4716513]},"properties":{"name":"Tilehurst","train":"yes","network":"National Rail","railway":"station","ref:crs":"TLH","operator":"Great Western Railway","wikidata":"Q2285322","wikipedia":"en:Tilehurst railway station","naptan:AtcoCode":"9100TILHRST","public_transport":"station"}},
{"type":"Feature","geometry":{"type":"Point","coordinates":[-1.322751,51.3975325]},"properties":{"name":"Newbury","source":"NPE","network":"National Rail","railway":"station","ref:crs":"NBY","wikidata":"Q2206584","wikipedia":"en:Newbury railway station","wheelchair":"yes","naptan:AtcoCode":"9100NEWBURY","toilets:wheelchair":"yes"}},
{"type":"Feature","geometry":{"type":"Point","coordinates":[-1.0218192,51.4191905]},"properties":{"name":"Amnerfield Miniature Railway","usage":"tourism","railway":"station"}},
{"type":"Feature","geometry":{"type":"Point","coordinates":[-0.541868,51.5078593]},"properties":{"name":"Langley","naptan:AtcoCode":"9100LANGLEY","network":"TfL Rail","operator":"TfL Rail","public_transport":"station","railway":"station","ref:crs":"LNY","wikidata":"Q2790476","wikipedia":"en:Langley railway station"}},
{"type":"Feature","geometry":{"type":"Point","coordinates":[-0.8633396,51.4753162]},"properties":{"name":"Twyford","naptan:AtcoCode":"9100TWYFORD","network":"National Rail;TfL Rail","operator":"Great Western Railway","public_transport":"station","railway":"station","ref:crs":"TWY","source":"local_knowledge","wikidata":"Q512845","wikipedia":"en:Twyford railway station"}},
{"type":"Feature","geometry":{"type":"Point","coordinates":[-0.6332427,51.3921459]},"properties":{"name":"Sunningdale","note":"On this railway station customers have to show their rail ticket at the ticket office to get the code for using the toilets.","network":"National Rail","railway":"station","ref:crs":"SNG","wikidata":"Q2537626","wikipedia":"en:Sunningdale railway station","naptan:AtcoCode":"9100SUNNGDL","public_transport":"station"}},
{"type":"Feature","geometry":{"type":"Point","coordinates":[-0.8918298,51.4367674]},"properties":{"name":"Winnersh Triangle","network":"National Rail","railway":"station","ref:crs":"WTI","operator":"South West Trains","wikidata":"Q2506711","wikipedia":"en:Winnersh Triangle railway station","naptan:AtcoCode":"9100WINETGL"}},
{"type":"Feature","geometry":{"type":"Point","coordinates":[-0.8779199,51.4307527]},"properties":{"name":"Winnersh","network":"National Rail","railway":"station","ref:crs":"WNS","wikidata":"Q3543567","wikipedia":"en:Winnersh railway station","naptan:AtcoCode":"9100WINERSH","public_transport":"station"}},
{"type":"Feature","geometry":{"type":"Point","coordinates":[-0.5793863,51.4828971]},"properties":{"name":"Datchet","source":"NPE","network":"National Rail","railway":"station","ref:crs":"DAT","operator":"South Western Railway","wikidata":"Q2796746","wikipedia":"en:Datchet railway station","naptan:AtcoCode":"9100DATCHET","public_transport":"station"}},
{"type":"Feature","geometry":{"type":"Point","coordinates":[-0.558857,51.4699493]},"properties":{"name":"Sunnymeads","source":"NPE","network":"National Rail","railway":"station","ref:crs":"SNY","operator":"South Western Railway","wikidata":"Q2406647","wikipedia":"en:Sunnymeads railway station","naptan:AtcoCode":"9100SUNYMDS","public_transport":"station"}},
{"type":"Feature","geometry":{"type":"Point","coordinates":[-0.541994,51.4579278]},"properties":{"name":"Wraysbury","source":"NPE","network":"National Rail","railway":"station","ref:crs":"WRY","operator":"South Western Railway","wikidata":"Q2308555","wikipedia":"en:Wraysbury railway station","naptan:AtcoCode":"9100WRYSBRY","public_transport":"station"}},
{"type":"Feature","geometry":{"type":"Point","coordinates":[-0.9723236,51.4591971]},"properties":{"name":"Reading","train":"yes","source":"NPE","network":"National Rail;TfL Rail","railway":"station","ref:crs":"RDG","operator":"Network Rail","wikidata":"Q801355","wikipedia":"en:Reading railway station","wheelchair":"limited","naptan:AtcoCode":"9100RDNG4AB","public_transport":"station"}},
{"type":"Feature","geometry":{"type":"Point","coordinates":[-1.074364,51.4333628]},"properties":{"name":"Theale","source":"NPE","network":"National Rail","railway":"station","ref:crs":"THE","wikidata":"Q2338556","wikipedia":"en:Theale railway station","naptan:AtcoCode":"9100THEALE"}},
{"type":"Feature","geometry":{"type":"Point","coordinates":[-1.5114295,51.4147137]},"properties":{"name":"Hungerford","source":"NPE","network":"National Rail","railway":"station","ref:crs":"HGD","operator":"Great Western","wikidata":"Q2180574","addr:city":"Hungerford","wikipedia":"en:Hungerford railway station","addr:street":"Station Road","internet_access":"no","naptan:AtcoCode":"9100HUNGRFD","public_transport":"station"}},
{"type":"Feature","geometry":{"type":"Point","coordinates":[-0.990755,51.4546625]},"properties":{"name":"Reading West","source":"NPE","network":"National Rail","railway":"station","ref:crs":"RDW","wikidata":"Q2474528","wikipedia":"en:Reading West railway station","wheelchair":"limited","naptan:AtcoCode":"9100REDGWST"}},
{"type":"Feature","geometry":{"type":"Point","coordinates":[-1.2427417,51.3938591]},"properties":{"name":"Thatcham","naptan:AtcoCode":"9100THATCHM","network":"National Rail","railway":"station","ref:crs":"THA","source":"NPE","wikidata":"Q2605037","wikipedia":"en:Thatcham railway station"}},
{"type":"Feature","geometry":{"type":"Point","coordinates":[-1.4459175,51.4026136]},"properties":{"name":"Kintbury","source":"NPE","network":"National Rail","railway":"station","ref:crs":"KIT","wikidata":"Q2474287","wikipedia":"en:Kintbury railway station","naptan:AtcoCode":"9100KNTBRY"}},
{"type":"Feature","geometry":{"type":"Point","coordinates":[-0.591276,51.512103]},"properties":{"name":"Slough","network":"National Rail;TfL Rail","railway":"station","ref:crs":"SLO","operator":"Great Western Railway","wikidata":"Q71950","addr:city":"Slough","wikipedia":"en:Slough railway station","wheelchair":"yes","addr:postcode":"SL2 5BY","naptan:AtcoCode":"9100SLOUGH","source:building":"OS_OpenData_StreetView","public_transport":"station"}},
{"type":"Feature","geometry":{"type":"Point","coordinates":[-0.9177114,51.4410298]},"properties":{"name":"Earley","network":"National Rail","railway":"station","ref:crs":"EAR","wikidata":"Q2345955","addr:city":"Reading","wikipedia":"en:Earley railway station","naptan:AtcoCode":"9100ERLY","source:building":"OS_OpenData_StreetView"}},
{"type":"Feature","geometry":{"type":"Point","coordinates":[-0.6767778,51.4062463]},"properties":{"name":"Ascot","network":"National Rail","railway":"station","ref:crs":"ACT","old_name":"Ascot and Sunninghill","operator":"South West Trains","wikidata":"Q2750890","wikipedia":"en:Ascot railway station","addr:street":"Station Hill","addr:postcode":"SL5 9EG","naptan:AtcoCode":"9100ASCOT"}},
{"type":"Feature","geometry":{"type":"Point","coordinates":[-0.6056201,51.4862859]},"properties":{"name":"Windsor and Eton Riverside","train":"yes","network":"National Rail","railway":"station","ref:crs":"WNR","operator":"South Western Railway","wikidata":"Q6547636","wikipedia":"en:Windsor & Eton Riverside railway station","naptan:AtcoCode":"9100WSORAER","public_transport":"station"}},
{"type":"Feature","geometry":{"type":"Point","coordinates":[-1.0356438,51.3720595]},"properties":{"name":"Mortimer","source":"NPE","network":"National Rail","railway":"station","ref:crs":"MOR","wikidata":"Q2105261","wikipedia":"en:Mortimer railway station","naptan:AtcoCode":"9100MTIMER"}},
{"type":"Feature","geometry":{"type":"Point","coordinates":[-0.6105638,51.4832744]},"properties":{"name":"Windsor and Eton Central","naptan:AtcoCode":"9100WINDSEC","network":"National Rail","operator":"Great Western Railway","public_transport":"station","railway":"station","ref:crs":"WNC","wheelchair":"yes","wikidata":"Q3098091","wikipedia":"en:Windsor & Eton Central railway station"}}
]}
