{"type":"FeatureCollection","features":[
{"type":"Feature","geometry":{"type":"Point","coordinates":[-2.5886798,51.4683479]},"properties":{"name":"Montpelier","network":"National Rail","railway":"station","ref:crs":"MTP","operator":"Great Western Railway","wikidata":"Q962430","addr:city":"Bristol","wikipedia":"en:Montpelier railway station","addr:street":"Station Road","naptan:AtcoCode":"9100MONPELR"}},
{"type":"Feature","geometry":{"type":"Point","coordinates":[-2.5661698,51.4673261]},"properties":{"name":"Stapleton Road","source":"NPE","network":"National Rail","railway":"station","ref:crs":"SRD","wikidata":"Q2537961","wikipedia":"en:Stapleton Road railway station","naptan:AtcoCode":"9100STPLTNR"}},
{"type":"Feature","geometry":{"type":"Point","coordinates":[-2.56417,51.45858]},"properties":{"name":"Lawrence Hill","network":"National Rail","railway":"station","ref:crs":"LWH","wikidata":"Q4785868","wikipedia":"en:Lawrence Hill railway station","addr:street":"Church Road","addr:postcode":"BS5 0AF","naptan:AtcoCode":"9100LAWRNCH"}},
{"type":"Feature","geometry":{"type":"Point","coordinates":[-2.6111568,51.4644529]},"properties":{"name":"Clifton Down","network":"National Rail","railway":"station","ref:crs":"CFN","wikidata":"Q2462275","wikipedia":"en:Clifton Down railway station","wheelchair":"yes","naptan:AtcoCode":"9100CLFDOWN"}},
{"type":"Feature","geometry":{"type":"Point","coordinates":[-2.5934966,51.4407892]},"properties":{"name":"Bedminster","network":"National Rail","railway":"station","ref:crs":"BMT","operator":"First Great Western","wikidata":"Q4879315","wikipedia":"en:Bedminster railway station","naptan:AtcoCode":"9100BDMNSTR"}},
{"type":"Feature","geometry":{"type":"Point","coordinates":[-2.6084459,51.4330438]},"properties":{"name":"Parson Street","network":"National Rail","railway":"station","ref:crs":"PSN","wikidata":"Q2492432","wikipedia":"en:Parson Street railway station","naptan:AtcoCode":"9100PARSNST"}},
{"type":"Feature","geometry":{"type":"Point","coordinates":[-2.696373,51.5126195]},"properties":{"name":"St Andrews Road","source":"NPE","network":"National Rail","railway":"station","ref:crs":"SAR","wikidata":"Q1922079","wikipedia":"en:St Andrews Road railway station","naptan:AtcoCode":"9100SADWRD"}},
{"type":"Feature","geometry":{"type":"Point","coordinates":[-2.6789896,51.4842612]},"properties":{"name":"Shirehampton","source":"NPE","network":"National Rail","railway":"station","ref:crs":"SHH","wikidata":"Q2346420","wikipedia":"en:Shirehampton railway station","naptan:AtcoCode":"9100SHAMPTN"}},
{"type":"Feature","geometry":{"type":"Point","coordinates":[-2.5991434,51.468284]},"properties":{"name":"Redland","source":"NPE","network":"National Rail","railway":"station","ref:crs":"RDA","wikidata":"Q603576","wikipedia":"en:Redland railway station","naptan:AtcoCode":"9100REDLAND"}},
{"type":"Feature","geometry":{"type":"Point","coordinates":[-2.605539,51.4480613]},"properties":{"name":"SS Great Britain","usage":"tourism","railway":"station","wheelchair":"yes"}},
{"type":"Feature","geometry":{"type":"Point","coordinates":[-2.5973283,51.448133]},"properties":{"name":"Princes Wharf","usage":"tourism","railway":"station"}},
{"type":"Feature","geometry":{"type":"Point","coordinates":[-2.6198394,51.4464863]},"properties":{"name":"Butterfly Junction","usage":"tourism","railway":"station"}},
{"type":"Feature","geometry":{"type":"Point","coordinates":[-2.6988623,51.4997221]},"properties":{"name":"Avonmouth","source":"NPE","network":"National Rail","railway":"station","ref:crs":"AVN","wikidata":"Q2198007","wikipedia":"en:Avonmouth railway station","naptan:AtcoCode":"9100AVONMTH"}},
{"type":"Feature","geometry":{"type":"Point","coordinates":[-2.6496514,51.4795006]},"properties":{"name":"Sea Mills","network":"National Rail","railway":"station","ref:crs":"SML","wikidata":"Q2672919","wikipedia":"en:Sea Mills railway station","wheelchair":"yes","naptan:AtcoCode":"9100SEMILLS","public_transport":"station","toilets:wheelchair":"no"}},
{"type":"Feature","geometry":{"type":"Point","coordinates":[-2.5804029,51.4490991]},"properties":{"name":"Bristol Temple Meads","name:cy":"Temple Meads Bryste","name:en":"Bristol Temple Meads","network":"National Rail","railway":"station","ref:crs":"BRI","alt_name":"Temple Meads","operator":"Network Rail","wikidata":"Q800579","wikipedia":"en:Bristol Temple Meads railway station","ref:stanox":"81700","ref:tiploc":"BRSTLTM","addr:postcode":"BS1 6QF","naptan:AtcoCode":"9100BRSTLTM","public_transport":"station"}}
]}
