{"type":"FeatureCollection","features":[
{"type":"Feature","geometry":{"type":"Point","coordinates":[-0.7103717,51.5770779]},"properties":{"name":"Bourne End","fixme":"?NPE Shows this SW of current location","source":"NPE","network":"National Rail","railway":"station","ref:crs":"BNE","operator":"Great Western Railway","wikidata":"Q2018754","wikipedia":"en:Bourne End railway station","naptan:AtcoCode":"9100BORNEND","public_transport":"station"}},
{"type":"Feature","geometry":{"type":"Point","coordinates":[-0.7179834,51.9999805]},"properties":{"name":"Fenny Stratford","naptan:AtcoCode":"9100FSTR","network":"National Rail","postal_code":"MK2 2XP","railway":"station","ref:crs":"FEN","source":"NPE","wikidata":"Q2277649","wikipedia":"en:Fenny Stratford railway station"}},
{"type":"Feature","geometry":{"type":"Point","coordinates":[-0.8292113,51.7359634]},"properties":{"name":"Monks Risborough","note":"This is a halt IIRC- Little more than a platform with a ticket machine","source":"NPE","network":"National Rail","railway":"station","ref:crs":"MRS","operator":"Chiltern Railways","wikidata":"Q925646","platforms":"1","wikipedia":"en:Monks Risborough railway station","naptan:AtcoCode":"9100MNKRISB"}},
{"type":"Feature","geometry":{"type":"Point","coordinates":[-0.9421714,51.771088]},"properties":{"name":"Haddenham and Thame Parkway","network":"National Rail","railway":"station","ref:crs":"HDM","wikidata":"Q2848978","wikipedia":"en:Haddenham & Thame Parkway railway station","naptan:AtcoCode":"9100HADMATP"}},
{"type":"Feature","geometry":{"type":"Point","coordinates":[-0.8254447,51.6759885]},"properties":{"name":"Saunderton","train":"yes","network":"National Rail","railway":"station","ref:crs":"SDR","wikidata":"Q2740928","wikipedia":"en:Saunderton railway station","naptan:AtcoCode":"9100SUNDRTN","public_transport":"station"}},
{"type":"Feature","geometry":{"type":"Point","coordinates":[-0.5549256,51.5887853]},"properties":{"name":"Gerrards Cross","naptan:AtcoCode":"9100GERRDSX","network":"National Rail","operator":"Chiltern Railways","public_transport":"station","railway":"station","ref:crs":"GER","source":"Bing","wikidata":"Q2412080","wikipedia":"en:Gerrards Cross railway station"}},
{"type":"Feature","geometry":{"type":"Point","coordinates":[-0.5176671,51.5805841]},"properties":{"name":"Denham Golf Club","network":"National Rail","railway":"station","ref:crs":"DGC","operator":"Chiltern Railways","wikidata":"Q2521362","wikipedia":"en:Denham Golf Club railway station","naptan:AtcoCode":"9100DENHMGC","public_transport":"station"}},
{"type":"Feature","geometry":{"type":"Point","coordinates":[-0.4973598,51.5787302]},"properties":{"name":"Denham","naptan:AtcoCode":"9100DENHAM","network":"National Rail","operator":"Chiltern Railways","public_transport":"station","railway":"station","ref:crs":"DNM","source":"NPE","wikipedia":"en:Denham railway station"}},
{"type":"Feature","geometry":{"type":"Point","coordinates":[-0.7476905,51.7618168]},"properties":{"name":"Wendover","source":"NPE","network":"National Rail","railway":"station","ref:crs":"WND","wikidata":"Q2751439","wikipedia":"en:Wendover railway station","naptan:AtcoCode":"9100WENDOVR"}},
{"type":"Feature","geometry":{"type":"Point","coordinates":[-0.7092361,51.7035032]},"properties":{"name":"Great Missenden","source":"NPE","network":"National Rail","railway":"station","ref:crs":"GMN","wikidata":"Q1843842","wikipedia":"en:Great Missenden railway station","wheelchair":"yes","naptan:AtcoCode":"9100GTMSNDN","public_transport":"station","toilets:wheelchair":"yes"}},
{"type":"Feature","geometry":{"type":"Point","coordinates":[-0.5068108,51.5086086]},"properties":{"name":"Iver","naptan:AtcoCode":"9100IVER","network":"National Rail;TfL Rail","operator":"TfL Rail","public_transport":"station","railway":"station","ref:crs":"IVR","wheelchair":"no","wikidata":"Q6098724","wikipedia":"en:Iver railway station"}},
{"type":"Feature","geometry":{"type":"Point","coordinates":[-0.6322352999999999,52.0212587]},"properties":{"name":"Aspley Guise","source":"NPE","network":"National Rail","railway":"station","ref:crs":"APG","wikidata":"Q3043426","wikipedia":"en:Aspley Guise railway station","naptan:AtcoCode":"9100ASPLEYG"}},
{"type":"Feature","geometry":{"type":"Point","coordinates":[-0.6818864,51.5233325]},"properties":{"name":"Taplow","naptan:AtcoCode":"9100TAPLOW","network":"TfL Rail","operator":"TfL Rail","public_transport":"station","railway":"station","ref:crs":"TAP","wikidata":"Q4330307","wikipedia":"en:Taplow railway station"}},
{"type":"Feature","geometry":{"type":"Point","coordinates":[-0.6545849,52.0181276]},"properties":{"name":"Woburn Sands","source":"NPE","network":"National Rail","railway":"station","ref:crs":"WOB","wikidata":"Q2253624","wikipedia":"en:Woburn Sands railway station","postal_code":"MK17 8UD","naptan:AtcoCode":"9100WOBURNS"}},
{"type":"Feature","geometry":{"type":"Point","coordinates":[-0.6962178,52.0042693]},"properties":{"name":"Bow Brickhill","naptan:AtcoCode":"9100BOWBRKH","network":"National Rail","postal_code":"MK7 8LA","public_transport":"station","railway":"station","ref:crs":"BWB","source":"NPE","wikidata":"Q2144435","wikipedia":"en:Bow Brickhill railway station"}},
{"type":"Feature","geometry":{"type":"Point","coordinates":[-0.7222357,52.0480742]},"properties":{"name":"Miniature Train","type":"miniature","train":"yes","usage":"tourism","railway":"station","public_transport":"station"}},
{"type":"Feature","geometry":{"type":"Point","coordinates":[-0.9114939,51.5668724]},"properties":{"name":"Somersham","usage":"tourism","railway":"station"}},
{"type":"Feature","geometry":{"type":"Point","coordinates":[-0.907229,51.5679824]},"properties":{"name":"Bourne Again Junction","usage":"tourism","railway":"station","old_name":"Bourne End","request_stop":"yes"}},
{"type":"Feature","geometry":{"type":"Point","coordinates":[-0.6435932,51.6114109]},"properties":{"name":"Beaconsfield","network":"National Rail","railway":"station","ref:crs":"BCF","website":"http://www.nationalrail.co.uk/stations_destinations/BCF.aspx","operator":"Chiltern Railways","wikidata":"Q4876042","wikipedia":"en:Beaconsfield railway station (England)","naptan:AtcoCode":"9100BCNSFLD","public_transport":"station"}},
{"type":"Feature","geometry":{"type":"Point","coordinates":[-0.859831,51.8312778]},"properties":{"name":"Aylesbury Vale Parkway","network":"National Rail","railway":"station","ref:crs":"AVP","wikidata":"Q4831380","wikipedia":"en:Aylesbury Vale Parkway railway station","wheelchair":"yes","naptan:AtcoCode":"9100AYLSPWY"}},
{"type":"Feature","geometry":{"type":"Point","coordinates":[-0.6073643,51.6740875]},"properties":{"fare_zone":"9","line":"Metropolitan","name":"Amersham","naptan:AtcoCode":"9100AMERSHM","network":"National Rail;London Underground","operator":"London Underground","public_transport":"station","railway":"station","ref:crs":"AMR","source":"aerial imagery, GPS and interpolation from bridge.","station":"subway","subway":"yes","train":"yes","wikidata":"Q800384","wikipedia":"en:Amersham station"}},
{"type":"Feature","geometry":{"type":"Point","coordinates":[-0.5611671,51.6681019]},"properties":{"addr:postcode":"HP7 9PR","fare_zone":"8","line":"Metropolitan","name":"Chalfont & Latimer","naptan:AtcoCode":"9100CHLFNAL","network":"National Rail;London Underground","note":"Chiltern Line and Metropolitan Line Station","operator":"London Underground","public_transport":"station","railway":"station","ref:crs":"CFO","source":"GPS","source_ref":"https//en.wikipedia.org/wiki/List_of_London_Underground_stations","station":"subway","subway":"yes","train":"yes","wheelchair":"yes","wikidata":"Q800618","wikipedia":"en:Chalfont & Latimer station"}},
{"type":"Feature","geometry":{"type":"Point","coordinates":[-0.6080105,51.6098754]},"properties":{"name":"Seer Green and Jordans","network":"National Rail","railway":"station","ref:crs":"SRG","operator":"Chiltern Railways","wikidata":"Q7445936","wikipedia":"en:Seer Green and Jordans railway station","naptan:AtcoCode":"9100SEERGRN","public_transport":"station"}},
{"type":"Feature","geometry":{"type":"Point","coordinates":[-0.7843417,51.7878849]},"properties":{"name":"Stoke Mandeville","source":"NPE","network":"National Rail","railway":"station","ref:crs":"SKM","wikidata":"Q2244698","wikipedia":"en:Stoke Mandeville railway station","naptan:AtcoCode":"9100STKM"}},
{"type":"Feature","geometry":{"type":"Point","coordinates":[-0.6619813,51.8582898]},"properties":{"name":"Cheddington","network":"National Rail","railway":"station","ref:crs":"CED","wikidata":"Q1885115","wikipedia":"en:Cheddington railway station","naptan:AtcoCode":"9100CHDNGTN"}},
{"type":"Feature","geometry":{"type":"Point","coordinates":[-0.611116,51.7052231]},"properties":{"fare_zone":"9","line":"Metropolitan","name":"Chesham","network":"London Underground","operator":"London Underground","public_transport":"station","railway":"station","source":"NPE","station":"subway","subway":"yes","wheelchair":"yes","wikidata":"Q138914","wikipedia":"en:Chesham tube station"}},
{"type":"Feature","geometry":{"type":"Point","coordinates":[-0.8085573,51.7523306]},"properties":{"name":"Little Kimble","network":"National Rail","railway":"station","ref:crs":"LTK","operator":"Chiltern Railways","wikidata":"Q2116125","wikipedia":"en:Little Kimble railway station","naptan:AtcoCode":"9100LTLKMBL"}},
{"type":"Feature","geometry":{"type":"Point","coordinates":[-0.7363,51.9954534]},"properties":{"name":"Bletchley","name:it":"Bleƒçlis","network":"National Rail","railway":"station","ref:crs":"BLY","wikidata":"Q4869827","platforms":"8","wikipedia":"en:Bletchley railway station","addr:street":"Sherwood Drive","addr:postcode":"MK3 6DZ","naptan:AtcoCode":"9100BLTCHLY"}},
{"type":"Feature","geometry":{"type":"Point","coordinates":[-0.8440858,51.7180454]},"properties":{"name":"Princes Risborough","network":"National Rail","railway":"station","ref:crs":"PRR","operator":"Chiltern Railways","wikidata":"Q2000163","wikipedia":"en:Princes Risborough railway station","naptan:AtcoCode":"9100PRINRIS"}},
{"type":"Feature","geometry":{"type":"Point","coordinates":[-0.8143149,51.8134286]},"properties":{"name":"Aylesbury","network":"National Rail","railway":"station","ref:crs":"AYS","website":"http://www.nationalrail.co.uk/stations_destinations/AYS.aspx","operator":"Chiltern Railways","wikidata":"Q2338815","wikipedia":"en:Aylesbury railway station","naptan:AtcoCode":"9100AYLSBRY","public_transport":"station"}},
{"type":"Feature","geometry":{"type":"Point","coordinates":[-0.8047602,52.065978]},"properties":{"name":"Wolverton","network":"National Rail","railway":"station","ref:crs":"WOL","wikidata":"Q1824147","platforms":"4","wikipedia":"en:Wolverton railway station","naptan:AtcoCode":"9100WLVR"}},
{"type":"Feature","geometry":{"type":"Point","coordinates":[-0.7445773,51.6293727]},"properties":{"name":"High Wycombe","network":"National Rail","railway":"station","ref:crs":"HWY","operator":"Chiltern Railways","wikidata":"Q1851135","platforms":"3","wikipedia":"en:High Wycombe railway station","addr:street":"Amersham Hill","addr:postcode":"HP13 6NN","naptan:AtcoCode":"9100HWYCOMB","public_transport":"station"}},
{"type":"Feature","geometry":{"type":"Point","coordinates":[-0.7664026,51.571086]},"properties":{"name":"Marlow","network":"National Rail","railway":"station","ref:crs":"MLW","website":"http://www.nationalrail.co.uk/stations/MLW/details.aspx","operator":"Great Western Railway","wikidata":"Q2171438","noaddress":"yes","wikipedia":"en:Marlow railway station","wheelchair":"yes","naptan:AtcoCode":"9100MARLOW","public_transport":"station"}},
{"type":"Feature","geometry":{"type":"Point","coordinates":[-0.7748261,52.0342006]},"properties":{"addr:city":"Milton Keynes","addr:housename":"Station House","addr:housenumber":"302","addr:postcode":"MK9 1LA","addr:street":"Elder Gate","name":"Milton Keynes Central","naptan:AtcoCode":"9100MKNSCEN","network":"National Rail","operator":"London Northwestern Railway","platforms":"7","public_transport":"station","railway":"station","ref:crs":"MKC","wheelchair":"limited","wheelchair:description":"Refurbishment of station forecourt in Spring 2012 created several difficulties for disabled visitors. Rounded drop off, 1 (unmarked) dropped kerb","wikidata":"Q2747135","wikipedia":"en:Milton Keynes Central railway station"}},
{"type":"Feature","geometry":{"type":"Point","coordinates":[-0.7084561,52.0106337]},"properties":{"name":"Caldecotte Minature Railway","usage":"tourism","railway":"station","addr:city":"Milton Keynes","addr:street":"Lakeside Grove","addr:postcode":"MK7 8HP"}},
{"type":"Feature","geometry":{"type":"Point","coordinates":[-0.9228506,51.8625389]},"properties":{"name":"Golding Spring Central","railway":"station","usage":"tourism"}}
]}
