{"type":"FeatureCollection","features":[
{"type":"Feature","geometry":{"type":"Point","coordinates":[-0.4801012,52.6478103]},"properties":{"name":"Stamford","naptan:AtcoCode":"9100STAMFD","network":"National Rail","operator":"CrossCountry Trains","postal_code":"PE9 2JL","public_transport":"station","railway":"station","ref:crs":"SMD","wikidata":"Q2661650","wikipedia":"en:Stamford railway station"}},
{"type":"Feature","geometry":{"type":"Point","coordinates":[0.3663527,52.2016386]},"properties":{"name":"Dullingham","network":"National Rail","railway":"station","ref:crs":"DUL","wikidata":"Q3353344","wikipedia":"en:Dullingham railway station","naptan:AtcoCode":"9100DULNGHM"}},
{"type":"Feature","geometry":{"type":"Point","coordinates":[0.0091415,52.0908316]},"properties":{"name":"Meldreth","network":"National Rail","railway":"station","ref:crs":"MEL","wikidata":"Q2915277","wikipedia":"en:Meldreth railway station","naptan:AtcoCode":"9100MELDRTH","public_transport":"station"}},
{"type":"Feature","geometry":{"type":"Point","coordinates":[-0.4094509,52.5610781]},"properties":{"name":"Yarwell Junction (NVR)","public_transport":"station","railway":"station","tourism":"heritage_railway","usage":"tourism","wikidata":"Q8049606","wikipedia":"en:Yarwell Junction railway station"}},
{"type":"Feature","geometry":{"type":"Point","coordinates":[-0.3900609,52.5681178]},"properties":{"name":"Wansford (NVR)","usage":"tourism","railway":"station","tourism":"heritage_railway","wikidata":"Q7968086","wikipedia":"en:Wansford railway station","public_transport":"station"}},
{"type":"Feature","geometry":{"type":"Point","coordinates":[-0.2800883,52.5600241]},"properties":{"name":"Orton Mere (NVR)","usage":"tourism","railway":"station","tourism":"heritage_railway","wikidata":"Q7105095","wikipedia":"en:Orton Mere railway station","public_transport":"station"}},
{"type":"Feature","geometry":{"type":"Point","coordinates":[0.1778063,52.4978134]},"properties":{"name":"Manea","source":"OS_OpenData_StreetView","network":"National Rail","railway":"station","ref:crs":"MNE","wikidata":"Q2486636","wikipedia":"en:Manea railway station","addr:street":"Station Road","addr:postcode":"PE15 0HG","naptan:AtcoCode":"9100MANEA"}},
{"type":"Feature","geometry":{"type":"Point","coordinates":[-0.1180869,52.5495767]},"properties":{"name":"Whittlesea","naptan:AtcoCode":"9100WHTLSEA","network":"National Rail","note":"station name really _is_ spelled differently friom the town!","public_transport":"station","railway":"station","ref:crs":"WLE","source":"survey","wikidata":"Q2123705","wikipedia":"en:Whittlesea railway station"}},
{"type":"Feature","geometry":{"type":"Point","coordinates":[0.4073491,52.238341]},"properties":{"addr:city":"Newmarket","addr:street":"Green Road","name":"Newmarket","naptan:AtcoCode":"9100NWMKET","network":"National Rail","operator":"Greater Anglia","platforms":"1","railway":"station","ref:crs":"NMK","wikidata":"Q2320175","wikipedia":"en:Newmarket (Suffolk) railway station"}},
{"type":"Feature","geometry":{"type":"Point","coordinates":[-0.3026045,52.5588977]},"properties":{"name":"Ferry Meadows (NVR)","usage":"tourism","railway":"station","tourism":"heritage_railway","wikidata":"Q5445493","wikipedia":"en:Ferry Meadows railway station","public_transport":"station"}},
{"type":"Feature","geometry":{"type":"Point","coordinates":[-0.2479461,52.5677599]},"properties":{"name":"Peterborough (NVR)","usage":"tourism","railway":"station","tourism":"heritage_railway","website":"https://www.nvr.org.uk/nene-valley-station","operator":"Nene Valley Railway","wikidata":"Q7178016","wikipedia":"en:Peterborough Nene Valley railway station","public_transport":"station"}},
{"type":"Feature","geometry":{"type":"Point","coordinates":[-0.2470646,52.2316268]},"properties":{"addr:city":"St Neots","addr:postcode":"PE19 1QF","addr:street":"Hawkesden Road","alt_name":"Saint Neots","name":"St Neots","naptan:AtcoCode":"9100STNEOTS","network":"National Rail","operator":"Great Northern","public_transport":"station","railway":"station","ref:crs":"SNO","ref:tiploc":"STNEOTS","website":"http://www.nationalrail.co.uk/stations/sno/details.html","wheelchair":"yes","wikidata":"Q3072111","wikipedia":"en:St. Neots railway station"}},
{"type":"Feature","geometry":{"type":"Point","coordinates":[0.1375027,52.194144]},"properties":{"name":"Cambridge","name:cy":"Caergrawnt","network":"National Rail","railway":"station","ref:crs":"CBG","operator":"Abellio Greater Anglia / Great Northern","wikidata":"Q3088356","addr:city":"Cambridge","platforms":"8","wikipedia":"en:Cambridge railway station","wheelchair":"yes","addr:street":"Station Road","addr:postcode":"CB1 2JH","naptan:AtcoCode":"9100CAMBDGE","public_transport":"station"}},
{"type":"Feature","geometry":{"type":"Point","coordinates":[-0.3073283,52.5627863]},"properties":{"name":"Ham Lane (FMR)","operator":"Ferry Meadows Railway","public_transport":"station","railway":"station","tourism":"miniature_railway","train":"yes","usage":"tourism","wheelchair":"yes"}},
{"type":"Feature","geometry":{"type":"Point","coordinates":[-0.3125963,52.5667473]},"properties":{"name":"Gunwade (FMR)","usage":"tourism","railway":"station","tourism":"miniature_railway","operator":"Ferry Meadows Railway","wheelchair":"yes"}},
{"type":"Feature","geometry":{"type":"Point","coordinates":[0.3164293,52.4624307]},"properties":{"name":"Littleport","network":"National Rail","railway":"station","ref:crs":"LTP","wikidata":"Q2173947","wikipedia":"en:Littleport railway station","wheelchair":"limited","internet_access":"no","naptan:AtcoCode":"9100LTLPORT"}},
{"type":"Feature","geometry":{"type":"Point","coordinates":[-0.1924222,52.3287389]},"properties":{"name":"Huntingdon","train":"yes","source":"NPE","network":"National Rail","railway":"station","ref:crs":"HUN","wikidata":"Q5945150","wikipedia":"en:Huntingdon railway station","ref:tiploc":"HNTNGDN","naptan:AtcoCode":"9100HNTNGDN","public_transport":"station"}},
{"type":"Feature","geometry":{"type":"Point","coordinates":[0.1587703,52.2246512]},"properties":{"name":"Cambridge North","train":"yes","source":"survey","network":"National Rail","railway":"station","ref:crs":"CMB","wikidata":"Q5025527","wikipedia":"en:Cambridge North railway station","naptan:AtcoCode":"9100CAMBNTH","public_transport":"station"}},
{"type":"Feature","geometry":{"type":"Point","coordinates":[0.1967721,52.2622923]},"properties":{"name":"Waterbeach","network":"National Rail","railway":"station","ref:crs":"WBC","wikidata":"Q2620884","wikipedia":"en:Waterbeach railway station","naptan:AtcoCode":"9100WATBECH"}},
{"type":"Feature","geometry":{"type":"Point","coordinates":[-0.2503162,52.5746038]},"properties":{"name":"Peterborough","train":"yes","network":"National Rail","railway":"station","ref:crs":"PBO","operator":"London North Eastern Railway","wikidata":"Q2206677","wikipedia":"en:Peterborough railway station","naptan:AtcoCode":"9100PBRO","public_transport":"station"}},
{"type":"Feature","geometry":{"type":"Point","coordinates":[0.412795,52.4302453]},"properties":{"name":"Shippea Hill","source":"NPE","network":"National Rail","railway":"station","ref:crs":"SPP","old_name":"Mildenhall Road","operator":"Greater Anglia","wikidata":"Q1822505","wikipedia":"en:Shippea Hill railway station","request_stop":"yes","naptan:AtcoCode":"9100SPHL","public_transport":"station"}},
{"type":"Feature","geometry":{"type":"Point","coordinates":[0.4901443,52.2772574]},"properties":{"name":"Kennett","network":"National Rail","railway":"station","ref:crs":"KNE","wikidata":"Q3926161","wikipedia":"en:Kennett railway station","naptan:AtcoCode":"9100KENNETT"}},
{"type":"Feature","geometry":{"type":"Point","coordinates":[0.1656879,52.1035456]},"properties":{"name":"Whittlesford Parkway","note":"Name changed in Summer 2007 timetables","network":"National Rail","railway":"station","ref:crs":"WLF","wikidata":"Q1985489","wikipedia":"en:Whittlesford Parkway railway station","naptan:AtcoCode":"9100WTLESFD","public_transport":"station"}},
{"type":"Feature","geometry":{"type":"Point","coordinates":[0.1398403,52.1492887]},"properties":{"name":"Shelford","network":"National Rail","railway":"station","ref:crs":"SED","wikidata":"Q4387174","wikipedia":"en:Shelford railway station","naptan:AtcoCode":"9100SHELFD","public_transport":"station"}},
{"type":"Feature","geometry":{"type":"Point","coordinates":[0.2664989,52.3906885]},"properties":{"name":"Ely","network":"National Rail","railway":"station","ref:crs":"ELY","operator":"Greater Anglia","wikidata":"Q2324504","addr:city":"Ely","wikipedia":"en:Ely railway station","addr:street":"Station Road","addr:postcode":"CB7 4BS","addr:housename":"Ely Station","naptan:AtcoCode":"9100ELYY","public_transport":"station"}},
{"type":"Feature","geometry":{"type":"Point","coordinates":[0.0913188,52.5600848]},"properties":{"name":"March","train":"yes","network":"National Rail","railway":"station","ref:crs":"MCH","wikidata":"Q2023178","wikipedia":"en:March railway station","wheelchair":"yes","addr:street":"Station Approach","addr:postcode":"PE15 8SJ","naptan:AtcoCode":"9100MRCH","public_transport":"station"}},
{"type":"Feature","geometry":{"type":"Point","coordinates":[-0.1099212,52.0306258]},"properties":{"name":"Ashwell & Morden","network":"National Rail","railway":"station","ref:crs":"AWM","operator":"First Capital Connect","wikidata":"Q2361700","addr:city":"Odsey, Baldock","wikipedia":"en:Ashwell & Morden railway station","addr:postcode":"SG7 5RT","naptan:AtcoCode":"9100ASHWELC"}},
{"type":"Feature","geometry":{"type":"Point","coordinates":[0.0569774,52.1193575]},"properties":{"name":"Foxton","naptan:AtcoCode":"9100FOXTON","network":"National Rail","operator":"First Capital Connect","platforms":"2","public_transport":"station","railway":"station","ref:crs":"FXN","source:ref":"ATOC","wikidata":"Q2951467","wikipedia":"en:Foxton railway station"}},
{"type":"Feature","geometry":{"type":"Point","coordinates":[0.0316482,52.114457]},"properties":{"name":"Shepreth","network":"National Rail","railway":"station","ref:crs":"STH","wikipedia":"en:Shepreth railway station","source:ref":"ATOC"}}
]}
