{"type":"FeatureCollection","features":[
{"type":"Feature","geometry":{"type":"Point","coordinates":[-2.602769,53.2662973]},"properties":{"name":"Acton Bridge","network":"National Rail","railway":"station","ref:crs":"ACB","uic_ref":"7000024","wikipedia":"en:Acton Bridge railway station","naptan:AtcoCode":"9100ACBG"}},
{"type":"Feature","geometry":{"type":"Point","coordinates":[-2.8912865,53.2081213]},"properties":{"name":"Bache","naptan:AtcoCode":"9100BACHE","network":"National Rail","public_transport":"station","railway":"station","ref:crs":"BAC","wikipedia":"en:Bache railway station"}},
{"type":"Feature","geometry":{"type":"Point","coordinates":[-2.9431266,53.2853649]},"properties":{"name":"Little Sutton","network":"National Rail","railway":"station","ref:crs":"LTT","wikipedia":"en:Little Sutton railway station","naptan:AtcoCode":"9100LTLSUTN"}},
{"type":"Feature","geometry":{"type":"Point","coordinates":[-2.9241632,53.2840557]},"properties":{"name":"Overpool","network":"National Rail","railway":"station","ref:crs":"OVE","wikipedia":"en:Overpool railway station","naptan:AtcoCode":"9100OPOL"}},
{"type":"Feature","geometry":{"type":"Point","coordinates":[-2.9425764,53.2602417]},"properties":{"name":"Capenhurst","network":"National Rail","railway":"station","ref:crs":"CPU","wikipedia":"en:Capenhurst railway station","naptan:AtcoCode":"9100CPNHRST"}},
{"type":"Feature","geometry":{"type":"Point","coordinates":[-2.8960456,53.2821114]},"properties":{"name":"Ellesmere Port","train":"yes","network":"National Rail","railway":"station","ref:crs":"ELP","wikidata":"Q5365264","wikipedia":"en:Ellesmere Port railway station","naptan:AtcoCode":"9100ELSMPRT","public_transport":"station"}},
{"type":"Feature","geometry":{"type":"Point","coordinates":[-2.7711482,53.2752889]},"properties":{"name":"Helsby","network":"National Rail","railway":"station","ref:crs":"HSB","wikipedia":"en:Helsby railway station","naptan:AtcoCode":"9100HELSBY","public_transport":"station"}},
{"type":"Feature","geometry":{"type":"Point","coordinates":[-2.2404522,53.3485037]},"properties":{"name":"Styal","network":"National Rail","railway":"station","ref:crs":"SYA","wikipedia":"en:Styal railway station","naptan:AtcoCode":"9100STYAL"}},
{"type":"Feature","geometry":{"type":"Point","coordinates":[-2.2988432,53.0930252]},"properties":{"addr:postcode":"ST7 2XW","addr:street":"Sandbach Road","name":"Alsager","naptan:AtcoCode":"9100ALSAGER","network":"National Rail","railway":"station","ref:crs":"ASG","source":"NPE","wikipedia":"en:Alsager railway station"}},
{"type":"Feature","geometry":{"type":"Point","coordinates":[-2.6031073,53.3857577]},"properties":{"name":"Warrington Bank Quay","network":"National Rail","railway":"station","ref:crs":"WBQ","website":"https://www.nationalrail.co.uk/stations_destinations/wbq.aspx","operator":"Avanti West Coast","wikidata":"Q2641986","wikipedia":"en:Warrington Bank Quay railway station","addr:street":"Parker Street","addr:postcode":"WA1 1LW","naptan:AtcoCode":"9100WRGTNBQ","public_transport":"station"}},
{"type":"Feature","geometry":{"type":"Point","coordinates":[-3.062958,53.2917321]},"properties":{"addr:city":"Neston","addr:postcode":"CH64 9SR","addr:street":"Ladies Walk","internet_access":"no","name":"Neston","naptan:AtcoCode":"9100NESTON","network":"National Rail","operator":"Transport for Wales","public_transport":"station","railway":"station","ref:crs":"NES","wikidata":"Q2540573","wikipedia":"en:Neston railway station"}},
{"type":"Feature","geometry":{"type":"Point","coordinates":[-2.0835284,53.3600557]},"properties":{"name":"Middlewood","network":"National Rail","railway":"station","ref:crs":"MDL","alt_name":"Middlewood (Lower)","wikidata":"Q1922273","wikipedia":"en:Middlewood railway station","wikipedia:en":"Middlewood railway station","naptan:AtcoCode":"9100MDWD","wikimedia_commons":"Category:Help Category:Middlewood railway station"}},
{"type":"Feature","geometry":{"type":"Point","coordinates":[-3.0733389,53.3296559]},"properties":{"addr:city":"Heswall","addr:postcode":"CH60 1XQ","addr:street":"Brimstage Road","internet_access":"no","name":"Heswall","naptan:AtcoCode":"9100HESWALL","network":"National Rail","operator":"Transport for Wales","public_transport":"station","railway":"station","ref:crs":"HSW","source":"NPE","wheelchair":"yes","wikidata":"Q3418506","wikipedia":"en:Heswall railway station"}},
{"type":"Feature","geometry":{"type":"Point","coordinates":[-2.881377,53.1908839]},"properties":{"name":"Grosvenor Park Miniature Railway","type":"miniature station","usage":"tourism","railway":"station","station":"light_rail","light_rail":"yes","public_transport":"station"}},
{"type":"Feature","geometry":{"type":"Point","coordinates":[-2.2260089,53.3270993]},"properties":{"name":"Wilmslow","naptan:AtcoCode":"9100WLMSL","network":"National Rail","public_transport":"station","railway":"station","ref:crs":"WML","wikipedia":"en:Wilmslow railway station"}},
{"type":"Feature","geometry":{"type":"Point","coordinates":[-2.7235659,53.2958317]},"properties":{"addr:postcode":"WA6 7DJ","name":"Frodsham","naptan:AtcoCode":"9100FRDSHM","network":"National Rail","public_transport":"station","railway":"station","ref:crs":"FRD","wikidata":"Q2471361","wikipedia":"en:Frodsham railway station"}},
{"type":"Feature","geometry":{"type":"Point","coordinates":[-2.9772951,53.2969966]},"properties":{"name":"Hooton","network":"National Rail","railway":"station","ref:crs":"HOO","wikipedia":"en:Hooton railway station","naptan:AtcoCode":"9100HOOTON","public_transport":"station"}},
{"type":"Feature","geometry":{"type":"Point","coordinates":[-2.5187309,53.0635485]},"properties":{"name":"Nantwich","network":"National Rail","railway":"station","ref:crs":"NAN","operator":"Trafnidiaeth Cymru","wikipedia":"en:Nantwich railway station","operator:cy":"Trafnidiaeth Cymru","operator:en":"Transport for Wales","naptan:AtcoCode":"9100NANTWCH"}},
{"type":"Feature","geometry":{"type":"Point","coordinates":[-2.5956111,53.0195948]},"properties":{"name":"Wrenbury","network":"National Rail","railway":"station","ref:crs":"WRE","operator":"Trafnidiaeth Cymru","wikidata":"Q2669037","wikipedia":"en:Wrenbury railway station","operator:cy":"Trafnidiaeth Cymru","operator:en":"Transport for Wales","request_stop":"yes","naptan:AtcoCode":"9100WRENBRY"}},
{"type":"Feature","geometry":{"type":"Point","coordinates":[-2.3839364,53.2356291]},"properties":{"usage":"tourism","railway":"station","station":"miniature"}},
{"type":"Feature","geometry":{"type":"Point","coordinates":[-2.816687,53.2766029]},"properties":{"name":"Ince and Elton","train":"yes","network":"National Rail","railway":"station","ref:crs":"INE","wikidata":"Q2676232","wikipedia":"en:Ince & Elton railway station","naptan:AtcoCode":"9100INEL","public_transport":"station"}},
{"type":"Feature","geometry":{"type":"Point","coordinates":[-2.8411329,53.278318]},"properties":{"name":"Stanlow and Thornton","train":"yes","source":"NPE","network":"National Rail","railway":"station","ref:crs":"SNT","wikidata":"Q2311368","wikipedia":"en:Stanlow and Thornton railway station","naptan:AtcoCode":"9100STNLWAT","public_transport":"station"}},
{"type":"Feature","geometry":{"type":"Point","coordinates":[-2.6654958,53.3279397]},"properties":{"name":"Runcorn East","source":"NPE","network":"National Rail","railway":"station","ref:crs":"RUE","wikipedia":"en:Runcorn East railway station","naptan:AtcoCode":"9100RUNCRNE"}},
{"type":"Feature","geometry":{"type":"Point","coordinates":[-2.4647767,53.2677491]},"properties":{"name":"Lostock Gralam","network":"National Rail","railway":"station","ref:crs":"LTG","wikipedia":"en:Lostock Gralam railway station","addr:street":"Station Road","addr:postcode":"CW9 7NU","naptan:AtcoCode":"9100LSTG"}},
{"type":"Feature","geometry":{"type":"Point","coordinates":[-2.2366228,53.3038625]},"properties":{"name":"Alderley Edge","naptan:AtcoCode":"9100ALDEDGE","network":"National Rail","railway":"station","ref:crs":"ALD","wheelchair":"yes","wikipedia":"en:Alderley Edge railway station"}},
{"type":"Feature","geometry":{"type":"Point","coordinates":[-2.3263394,53.2225699]},"properties":{"name":"Goostrey","network":"National Rail","railway":"station","ref:crs":"GTR","wikipedia":"en:Goostrey railway station","naptan:AtcoCode":"9100GOOSTRY"}},
{"type":"Feature","geometry":{"type":"Point","coordinates":[-2.341439,53.3557218]},"properties":{"name":"Ashley","network":"National Rail","railway":"station","ref:crs":"ASY","wikipedia":"en:Ashley railway station","naptan:AtcoCode":"9100ASHLEY"}},
{"type":"Feature","geometry":{"type":"Point","coordinates":[-2.8795296,53.1967494]},"properties":{"name":"Chester","train":"yes","name:cy":"Caer","name:en":"Chester","name:it":"ÄŒesteris","network":"National Rail","railway":"station","ref:crs":"CTR","operator":"Trafnidiaeth Cymru","wikidata":"Q2478175","wikipedia":"en:Chester railway station","operator:cy":"Trafnidiaeth Cymru","operator:en":"Transport for Wales","naptan:AtcoCode":"9100CHST","public_transport":"station"}},
{"type":"Feature","geometry":{"type":"Point","coordinates":[-2.3336005,53.3295673]},"properties":{"name":"Mobberley","source":"NPE","network":"National Rail","railway":"station","ref:crs":"MOB","wikipedia":"en:Mobberley railway station","naptan:AtcoCode":"9100MOBERLY"}},
{"type":"Feature","geometry":{"type":"Point","coordinates":[-2.7341997,53.3786146]},"properties":{"name":"Widnes","naptan:AtcoCode":"9100WIDNES","network":"National Rail","operator":"Northern Rail","public_transport":"station","railway":"station","ref:crs":"WID","wikidata":"Q1499079","wikipedia":"en:Widnes railway station"}},
{"type":"Feature","geometry":{"type":"Point","coordinates":[-2.7393871,53.3385599]},"properties":{"name":"Runcorn","network":"National Rail","railway":"station","ref:crs":"RUN","wikidata":"Q4455872","wikipedia":"en:Runcorn railway station","naptan:AtcoCode":"9100RUNCORN","public_transport":"station"}},
{"type":"Feature","geometry":{"type":"Point","coordinates":[-2.4326364,53.0889629]},"properties":{"name":"Crewe","name:cy":"Cryw","name:en":"Crewe","naptan:AtcoCode":"9100CREWE","network":"National Rail","public_transport":"station","railway":"station","ref:crs":"CRE","wheelchair":"yes","wikipedia":"en:Crewe railway station"}},
{"type":"Feature","geometry":{"type":"Point","coordinates":[-2.7322101,53.2318152]},"properties":{"name":"Mouldsworth","network":"National Rail","railway":"station","ref:crs":"MLD","wikipedia":"en:Mouldsworth railway station","addr:street":"Station Road","addr:postcode":"WA6 9EG","naptan:AtcoCode":"9100MLDSWTH"}},
{"type":"Feature","geometry":{"type":"Point","coordinates":[-2.6665302,53.2288345]},"properties":{"name":"Delamere","network":"National Rail","railway":"station","ref:crs":"DLM","website":"http://www.nationalrail.co.uk/stations/DLM/details.html","wikidata":"Q1931482","wikipedia":"en:Delamere railway station","naptan:AtcoCode":"9100DELAMER"}},
{"type":"Feature","geometry":{"type":"Point","coordinates":[-2.5995386,53.2399223]},"properties":{"name":"Cuddington","network":"National Rail","railway":"station","ref:crs":"CUD","wikidata":"Q2832836","wikipedia":"en:Cuddington railway station","naptan:AtcoCode":"9100CUDNGTN"}},
{"type":"Feature","geometry":{"type":"Point","coordinates":[-2.5344589,53.2514201]},"properties":{"addr:city":"Northwich","addr:street":"Chester Road","name":"Greenbank","naptan:AtcoCode":"9100GBNK","network":"National Rail","not:addr:postcode":"CW9 7NJ","phone":"+44 845 00 00 125","public_transport":"station","railway":"station","ref:crs":"GBK","source":"http://www.nationalrail.co.uk/stations/GBK/details.aspx","website":"https://www.northernrailway.co.uk/stations/GBK","wikipedia":"en:Greenbank railway station"}},
{"type":"Feature","geometry":{"type":"Point","coordinates":[-2.4968484,53.2613648]},"properties":{"name":"Northwich","naptan:AtcoCode":"9100NTHWICH","network":"National Rail","public_transport":"station","railway":"station","ref:crs":"NWI","wikipedia":"en:Northwich railway station"}},
{"type":"Feature","geometry":{"type":"Point","coordinates":[-2.4196724,53.2748823]},"properties":{"name":"Plumley","network":"National Rail","railway":"station","ref:crs":"PLM","wikipedia":"en:Plumley railway station","naptan:AtcoCode":"9100PLUMLEY"}},
{"type":"Feature","geometry":{"type":"Point","coordinates":[-2.3721765,53.3015965]},"properties":{"name":"Knutsford","network":"National Rail","railway":"station","ref:crs":"KNF","wikipedia":"en:Knutsford railway station","naptan:AtcoCode":"9100KNUTSFD"}},
{"type":"Feature","geometry":{"type":"Point","coordinates":[-2.1924594,53.1577982]},"properties":{"name":"Congleton","naptan:AtcoCode":"9100CONGLTN","network":"National Rail","public_transport":"station","railway":"station","ref:crs":"CNG","wheelchair":"yes","wikipedia":"en:Congleton railway station"}},
{"type":"Feature","geometry":{"type":"Point","coordinates":[-2.145326,53.2931099]},"properties":{"name":"Prestbury","network":"National Rail","railway":"station","ref:crs":"PRB","operator":"Northern Rail","wikipedia":"en:Prestbury railway station","naptan:AtcoCode":"9100PSBY"}},
{"type":"Feature","geometry":{"type":"Point","coordinates":[-2.1336443,53.3197238]},"properties":{"name":"Adlington (Cheshire)","naptan:AtcoCode":"9100ADLC","network":"National Rail","railway":"station","ref:crs":"ADC","wikidata":"Q2780857","wikipedia":"en:Adlington railway station (Cheshire)"}},
{"type":"Feature","geometry":{"type":"Point","coordinates":[-2.7752696,53.3725786]},"properties":{"name":"Hough Green","source":"NPE","network":"National Rail","railway":"station","ref:crs":"HGN","operator":"Northern Rail","wikidata":"Q2048141","platforms":"2","wikipedia":"en:Hough Green railway station","wheelchair":"limited","naptan:AtcoCode":"9100HOUGHGR","wheelchair:description":"Platform for trains to Liverpool has step-free access through ticket office, and all trains that call here carry a wheelchair boarding ramp as a matter of course. However, the platform for trains to Warrington and Manchester is only accessible via steps."}},
{"type":"Feature","geometry":{"type":"Point","coordinates":[-2.6369293,53.3937436]},"properties":{"name":"Warrington West","train":"yes","network":"National Rail","railway":"station","ref:crs":"WAW","ref:nalco":"658300","wikipedia":"en:Warrington West railway station","ref:STANOX":"36713","ref:tiploc":"WRGTWST","public_transport":"station"}},
{"type":"Feature","geometry":{"type":"Point","coordinates":[-2.6505871,53.3923448]},"properties":{"name":"Sankey for Penketh","network":"National Rail","railway":"station","ref:crs":"SNK","wikidata":"Q2489669","wikipedia":"en:Sankey railway station","naptan:AtcoCode":"9100SANKEY"}},
{"type":"Feature","geometry":{"type":"Point","coordinates":[-2.5251395,53.4127822]},"properties":{"name":"Birchwood","network":"National Rail","railway":"station","ref:crs":"BWD","wikidata":"Q1846262","wikipedia":"en:Birchwood railway station","naptan:AtcoCode":"9100BIRCHWD"}},
{"type":"Feature","geometry":{"type":"Point","coordinates":[-2.5569297,53.4056193]},"properties":{"name":"Padgate","source":"NPE","network":"National Rail","railway":"station","ref:crs":"PDG","wikidata":"Q7123720","wikipedia":"en:Padgate railway station","naptan:AtcoCode":"9100PADGATE"}},
{"type":"Feature","geometry":{"type":"Point","coordinates":[-2.5924167,53.3919402]},"properties":{"name":"Warrington Central","source":"NPE","network":"National Rail","railway":"station","ref:crs":"WAC","operator":"Northern Rail","wikidata":"Q2746238","wikipedia":"en:Warrington Central railway station","addr:street":"Winwick Street","addr:postcode":"WA2 7TT","naptan:AtcoCode":"9100WRGT","public_transport":"station"}},
{"type":"Feature","geometry":{"type":"Point","coordinates":[-2.2136737,53.346446]},"properties":{"name":"Handforth","network":"National Rail","railway":"station","ref:crs":"HTH","wikipedia":"en:Handforth railway station","naptan:AtcoCode":"9100HNDFRTH"}},
{"type":"Feature","geometry":{"type":"Point","coordinates":[-2.2804386,53.2704221]},"properties":{"name":"Chelford","naptan:AtcoCode":"9100CHELFD","network":"National Rail","railway":"station","ref:crs":"CEL","source":"NPE","wheelchair":"yes","wikipedia":"en:Chelford railway station"}},
{"type":"Feature","geometry":{"type":"Point","coordinates":[-2.3511004,53.1992752]},"properties":{"name":"Holmes Chapel","naptan:AtcoCode":"9100HCHP","network":"National Rail","public_transport":"station","railway":"station","ref:crs":"HCH","wheelchair":"yes","wikipedia":"en:Holmes Chapel railway station"}},
{"type":"Feature","geometry":{"type":"Point","coordinates":[-2.3936342,53.1502337]},"properties":{"name":"Sandbach","source":"NPE","network":"National Rail","railway":"station","ref:crs":"SDB","wikipedia":"en:Sandbach railway station","wheelchair":"limited","naptan:AtcoCode":"9100SBCH"}},
{"type":"Feature","geometry":{"type":"Point","coordinates":[-2.0426188,53.3582435]},"properties":{"name":"Disley","network":"National Rail","railway":"station","ref:crs":"DSL","wikipedia":"en:Disley railway station","naptan:AtcoCode":"9100DISLEY"}},
{"type":"Feature","geometry":{"type":"Point","coordinates":[-2.553519,53.241569]},"properties":{"name":"Hartford","phone":"0845 604 0500","source":"http://www.nationalrail.co.uk/stations/HTF/details.aspx","network":"National Rail","railway":"station","ref:crs":"HTF","website":"http://www.nationalrail.co.uk/stations/HTF/details.aspx","addr:city":"Northwich","wikipedia":"en:Hartford railway station","wheelchair":"limited","addr:street":"Chester Road","naptan:AtcoCode":"9100HARTFD","public_transport":"station"}},
{"type":"Feature","geometry":{"type":"Point","coordinates":[-2.134793,53.3505513]},"properties":{"name":"Poynton","network":"National Rail","railway":"station","ref:crs":"PYT","wikipedia":"en:Poynton railway station","naptan:AtcoCode":"9100POYNTON"}},
{"type":"Feature","geometry":{"type":"Point","coordinates":[-2.1219368,53.2593665]},"properties":{"addr:postcode":"SK11 6JP","addr:street":"Watersgreen","name":"Macclesfield","naptan:AtcoCode":"9100MACLSFD","network":"National Rail","old_name":"Macclesfield Central","public_transport":"station","railway":"station","ref:crs":"MAC","wikipedia":"en:Macclesfield railway station"}},
{"type":"Feature","geometry":{"type":"Point","coordinates":[-2.4599923,53.4282913]},"properties":{"name":"Glazebrook","source":"OS_OpenData_StreetView","network":"National Rail","railway":"station","ref:crs":"GLZ","operator":"Northern Rail","wikidata":"Q1888823","wikipedia":"en:Glazebrook railway station","addr:street":"Glazebrook Lane","addr:postcode":"WA3 5BA","naptan:AtcoCode":"9100GLAZBRK"}},
{"type":"Feature","geometry":{"type":"Point","coordinates":[-2.4943089,53.1904159]},"properties":{"name":"Winsford","phone":"0845 604 0500","source":"http://www.nationalrail.co.uk/stations/WSF/details.aspx","network":"National Rail","railway":"station","ref:crs":"WSF","website":"http://www.nationalrail.co.uk/stations/WSF/details.aspx","addr:city":"Winsford","wikipedia":"en:Winsford railway station","wheelchair":"limited","addr:street":"Station Road","addr:postcode":"CW7 3NF","naptan:AtcoCode":"9100WNSFD","public_transport":"station"}}
]}
