{"type":"FeatureCollection","features":[
{"type":"Feature","geometry":{"type":"Point","coordinates":[-2.9329194,54.8905816]},"properties":{"name":"Carlisle","train":"yes","network":"National Rail","railway":"station","ref:crs":"CAR","wikidata":"Q2792535","wikipedia":"en:Carlisle railway station","naptan:AtcoCode":"9100CARLILE","public_transport":"station"}},
{"type":"Feature","geometry":{"type":"Point","coordinates":[-2.7722766,54.8094607]},"properties":{"name":"Armathwaite","naptan:AtcoCode":"9100ARMTHWT","network":"National Rail","public_transport":"station","railway":"station","ref:crs":"AWT","source":"OS_OpenData_StreetView","wikidata":"Q2444747","wikipedia":"en:Armathwaite railway station"}},
{"type":"Feature","geometry":{"type":"Point","coordinates":[-2.7036908,54.7508153]},"properties":{"name":"Lazonby and Kirkoswald","source":"NPE","network":"National Rail","railway":"station","ref:crs":"LZB","wikidata":"Q1973653","wikipedia":"en:Lazonby and Kirkoswald railway station","naptan:AtcoCode":"9100LAZKRKO","public_transport":"station"}},
{"type":"Feature","geometry":{"type":"Point","coordinates":[-2.6635574,54.6943632]},"properties":{"name":"Langwathby","source":"NPE","network":"National Rail","railway":"station","ref:crs":"LGW","wikidata":"Q2035773","wikipedia":"en:Langwathby railway station","naptan:AtcoCode":"9100LWBY","public_transport":"station"}},
{"type":"Feature","geometry":{"type":"Point","coordinates":[-2.3263682,54.3214617]},"properties":{"name":"Garsdale","source":"NPE","network":"National Rail","railway":"station","ref:crs":"GSD","wikidata":"Q2145153","wikipedia":"en:Garsdale railway station","naptan:AtcoCode":"9100GARSDLE","public_transport":"station"}},
{"type":"Feature","geometry":{"type":"Point","coordinates":[-2.3635911,54.2825669]},"properties":{"name":"Dent","train":"yes","source":"NPE","network":"National Rail","railway":"station","ref:crs":"DNT","wikidata":"Q2319302","wikipedia":"en:Dent railway station","naptan:AtcoCode":"9100DENT","public_transport":"station"}},
{"type":"Feature","geometry":{"type":"Point","coordinates":[-2.8190719,54.3756184]},"properties":{"name":"Staveley","network":"National Rail","railway":"station","ref:crs":"SVL","alt_name":"Staveley (Cumbria)","operator":"Northern","wikidata":"Q2032914","addr:city":"Staveley","wikipedia":"en:Staveley railway station","wheelchair":"no","addr:street":"Station Road","addr:postcode":"LA8 9NG","naptan:AtcoCode":"9100STAVELY","public_transport":"station"}},
{"type":"Feature","geometry":{"type":"Point","coordinates":[-2.3825907,54.5354896]},"properties":{"name":"Warcop","railway":"station","usage":"tourism","wikidata":"Q7968900"}},
{"type":"Feature","geometry":{"type":"Point","coordinates":[-2.357978,54.4625907]},"properties":{"end_date":"1962-01-22","name":"Kirkby Stephen East","operator":"Stainmore Railway","public_transport":"station","railway":"station","source":"NPE","start_date":"1861-08-08","usage":"tourism"}},
{"type":"Feature","geometry":{"type":"Point","coordinates":[-2.9740018,54.1779678]},"properties":{"name":"Cark and Cartmel","network":"National Rail","railway":"station","ref:crs":"CAK","alt_name":"Cark","wikidata":"Q2229171","wikipedia":"en:Cark and Cartmel railway station","naptan:AtcoCode":"9100CARK","public_transport":"station"}},
{"type":"Feature","geometry":{"type":"Point","coordinates":[-3.1788365,54.154226]},"properties":{"name":"Dalton","source":"npe","network":"National Rail","railway":"station","ref:crs":"DLT","alt_name":"Dalton-in-Furness","wikidata":"Q3152097","wikipedia":"en:Dalton railway station","naptan:AtcoCode":"9100DALTON","public_transport":"station"}},
{"type":"Feature","geometry":{"type":"Point","coordinates":[-3.2161134,54.2587172]},"properties":{"name":"Foxfield","naptan:AtcoCode":"9100FOXFILD","network":"National Rail","public_transport":"stop_position","railway":"station","ref:crs":"FOX","source":"npe","train":"yes","wikidata":"Q2206984","wikipedia":"en:Foxfield railway station"}},
{"type":"Feature","geometry":{"type":"Point","coordinates":[-3.3344736,54.2259441]},"properties":{"name":"Silecroft","naptan:AtcoCode":"9100SILCRFT","network":"National Rail","public_transport":"stop_position","railway":"station","ref:crs":"SIC","request_stop":"yes","source":"npe","train":"yes","wikidata":"Q2587065","wikipedia":"en:Silecroft railway station"}},
{"type":"Feature","geometry":{"type":"Point","coordinates":[-3.4851711,54.3962884]},"properties":{"name":"Seascale","naptan:AtcoCode":"9100SEASCAL","network":"National Rail","public_transport":"stop_position","railway":"station","ref:crs":"SSC","source":"npe","train":"yes","wikidata":"Q2605327","wikipedia":"en:Seascale railway station"}},
{"type":"Feature","geometry":{"type":"Point","coordinates":[-3.5655406,54.4561682]},"properties":{"name":"Nethertown","naptan:AtcoCode":"9100NETHRTN","network":"National Rail","public_transport":"stop_position","railway":"station","ref:crs":"NRT","request_stop":"yes","source":"npe","train":"yes","wikidata":"Q1901274","wikipedia":"en:Nethertown railway station"}},
{"type":"Feature","geometry":{"type":"Point","coordinates":[-3.5820824,54.5414869]},"properties":{"name":"Corkickle","naptan:AtcoCode":"9100CRCK","network":"National Rail","public_transport":"stop_position","railway":"station","ref:crs":"CKL","source":"OS OpenData StreetView","train":"yes","wikidata":"Q4394993","wikipedia":"en:Corkickle railway station"}},
{"type":"Feature","geometry":{"type":"Point","coordinates":[-3.5806556,54.5705144]},"properties":{"name":"Parton","naptan:AtcoCode":"9100PARTON","network":"National Rail","public_transport":"stop_position","railway":"station","ref:crs":"PRN","request_stop":"yes","source":"npe","train":"yes","wikidata":"Q5086006","wikipedia":"en:Parton railway station"}},
{"type":"Feature","geometry":{"type":"Point","coordinates":[-3.5656096,54.6136362]},"properties":{"name":"Harrington","naptan:AtcoCode":"9100HNGT","network":"National Rail","public_transport":"stop_position","railway":"station","ref:crs":"HRR","source":"npe","train":"yes","wikipedia":"en:Harrington railway station"}},
{"type":"Feature","geometry":{"type":"Point","coordinates":[-3.5204804,54.69007]},"properties":{"name":"Flimby","naptan:AtcoCode":"9100FLIMBY","network":"National Rail","public_transport":"stop_position","railway":"station","ref:crs":"FLM","request_stop":"yes","source":"npe","train":"yes","wikidata":"Q2075537","wikipedia":"en:Flimby railway station"}},
{"type":"Feature","geometry":{"type":"Point","coordinates":[-3.3312585,54.7592673]},"properties":{"name":"Aspatria","naptan:AtcoCode":"9100ASPTRIA","network":"National Rail","public_transport":"stop_position","railway":"station","ref:crs":"ASP","source":"NPE","train":"yes","wikidata":"Q3364830","wikipedia":"en:Aspatria railway station"}},
{"type":"Feature","geometry":{"type":"Point","coordinates":[-2.9885758,54.846165]},"properties":{"name":"Dalston","train":"yes","source":"npe","network":"National Rail","railway":"station","ref:crs":"DLS","wikidata":"Q5211644","wikipedia":"en:Dalston railway station (Cumbria)","naptan:AtcoCode":"9100DALSTON","public_transport":"station"}},
{"type":"Feature","geometry":{"type":"Point","coordinates":[-2.9738587,54.269655]},"properties":{"name":"Newby Bridge Halt","railway":"station","source":"npe","usage":"tourism"}},
{"type":"Feature","geometry":{"type":"Point","coordinates":[-3.0000168,54.2497682]},"properties":{"name":"Haverthwaite","public_transport":"station","railway":"station","source":"npe","usage":"tourism"}},
{"type":"Feature","geometry":{"type":"Point","coordinates":[-3.2744379,54.3953088]},"properties":{"name":"Dalegarth for Boot","usage":"tourism","source":"OS7","railway":"station","website":"https://ravenglass-railway.co.uk/","old_name":"Eskdale (Dalegarth)","operator":"Ravenglass & Eskdale Railway","wikidata":"Q5210738","platforms":"2","wikipedia":"en:Dalegarth railway station","public_transport":"station"}},
{"type":"Feature","geometry":{"type":"Point","coordinates":[-3.3034231,54.3923259]},"properties":{"name":"Fisherground Halt","usage":"tourism","railway":"station","website":"https://ravenglass-railway.co.uk/","operator":"Ravenglass & Eskdale Railway","wikidata":"Q5454871","wikipedia":"en:Fisherground railway station"}},
{"type":"Feature","geometry":{"type":"Point","coordinates":[-3.3176938,54.3867951]},"properties":{"name":"Eskdale Green","usage":"tourism","source":"OS7","railway":"station","alt_name":"The Green","operator":"Ravenglass & Eskdale Railway","wikidata":"Q7738219","wikipedia":"en:The Green railway station","source:name":"knowledge","public_transport":"station"}},
{"type":"Feature","geometry":{"type":"Point","coordinates":[-3.3300669,54.3879142]},"properties":{"name":"Irton Road","usage":"tourism","source":"OS7","railway":"station","website":"https://ravenglass-railway.co.uk/","operator":"Ravenglass & Eskdale Railway","wikidata":"Q6073966","platforms":"2","wikipedia":"en:Irton Road railway station","public_transport":"station"}},
{"type":"Feature","geometry":{"type":"Point","coordinates":[-3.4081846,54.3558349]},"properties":{"name":"Ravenglass (R&ER)","usage":"tourism","railway":"station","website":"https://ravenglass-railway.co.uk/","wikidata":"Q2133644","wikipedia":"en:Ravenglass and Eskdale Railway"}},
{"type":"Feature","geometry":{"type":"Point","coordinates":[-3.2824194,54.392606]},"properties":{"name":"Beckfoot","usage":"tourism","source":"Bing","railway":"station","website":"https://ravenglass-railway.co.uk/","operator":"Ravenglass & Eskdale Railway","wikidata":"Q4878703","wikipedia":"en:Beckfoot railway station"}},
{"type":"Feature","geometry":{"type":"Point","coordinates":[-3.1643538,54.829095]},"properties":{"local_ref":"AT","name":"Wigton","naptan:AtcoCode":"9100WIGTON","naptan:Bearing":"N","naptan:BusStopType":"CUS","naptan:CommonName":"Railway Station","naptan:Indicator":"at","naptan:Landmark":"Wigton Railway Station","naptan:NaptanCode":"cumagwag","naptan:Street":"Station Road spur","naptan:verified":"no","network":"National Rail","operator":"Northern","public_transport":"station","railway":"station","ref:crs":"WGT","source":"naptan_import","wheelchair":"yes","wikidata":"Q2251503","wikipedia":"en:Wigton railway station"}},
{"type":"Feature","geometry":{"type":"Point","coordinates":[-3.3768816,54.8811186]},"properties":{"name":"Siloth Miniature Railway","usage":"tourism","railway":"station","station":"miniature"}},
{"type":"Feature","geometry":{"type":"Point","coordinates":[-2.486536,54.58041]},"properties":{"name":"Appleby","source":"NPE","network":"National Rail","railway":"station","ref:crs":"APP","old_name":"Appleby West","wikidata":"Q2169384","wikipedia":"en:Appleby railway station","naptan:AtcoCode":"9100APBY","public_transport":"station"}},
{"type":"Feature","geometry":{"type":"Point","coordinates":[-2.4418146,54.8146429]},"properties":{"name":"Alston","usage":"tourism","railway":"station","operator":"South Tynedale Railway","wikidata":"Q4735872"}},
{"type":"Feature","geometry":{"type":"Point","coordinates":[-3.4940868,54.7112989]},"properties":{"name":"Maryport","naptan:AtcoCode":"9100MPRT","network":"National Rail","public_transport":"stop_position","railway":"station","ref:crs":"MRY","train":"yes","wikidata":"Q2326887","wikipedia":"en:Maryport railway station"}},
{"type":"Feature","geometry":{"type":"Point","coordinates":[-3.393988,54.3667627]},"properties":{"name":"Muncaster Mill","operator":"Ravenglass & Eskdale Railway","public_transport":"station","railway":"station","usage":"tourism","website":"https://ravenglass-railway.co.uk/","wikidata":"Q6935639","wikipedia":"en:Muncaster Mill railway station"}},
{"type":"Feature","geometry":{"type":"Point","coordinates":[-3.1872166,54.2329033]},"properties":{"name":"Kirkby-in-Furness","naptan:AtcoCode":"9100KRKBYIF","network":"National Rail","public_transport":"stop_position","railway":"station","ref:crs":"KBF","request_stop":"yes","source":"npe","train":"yes","wikipedia":"en:Kirkby-in-Furness railway station"}},
{"type":"Feature","geometry":{"type":"Point","coordinates":[-2.9025366,54.195759]},"properties":{"name":"Grange-over-Sands","source":"NPE","network":"National Rail","railway":"station","ref:crs":"GOS","wikidata":"Q2404532","wikipedia":"en:Grange-over-Sands railway station","wheelchair":"yes","naptan:AtcoCode":"9100GOVS","public_transport":"station"}},
{"type":"Feature","geometry":{"type":"Point","coordinates":[-3.5911836,54.4924838]},"properties":{"name":"St Bees","naptan:AtcoCode":"9100STBEES","network":"National Rail","operator":"Northern Trains","public_transport":"station","railway":"station","ref:crs":"SBS","source":"NPE","train":"yes","wikidata":"Q2545047","wikipedia":"en:St Bees railway station"}},
{"type":"Feature","geometry":{"type":"Point","coordinates":[-2.8319642,54.8837307]},"properties":{"addr:city":"Wetheral","addr:postcode":"CA4 8JP","name":"Wetheral","naptan:AtcoCode":"9100WETHERL","network":"National Rail","operator":"Northern","public_transport":"station","railway":"station","ref:crs":"WRL","source":"NPE","wikipedia":"en:Wetheral railway station"}},
{"type":"Feature","geometry":{"type":"Point","coordinates":[-3.2260261,54.1191205]},"properties":{"name":"Barrow-in-Furness","naptan:AtcoCode":"9100BAROW","network":"National Rail","operator":"Northern","public_transport":"station","railway":"station","ref:crs":"BIF","train":"yes","wikidata":"Q1814436","wikipedia":"en:Barrow-in-Furness railway station"}},
{"type":"Feature","geometry":{"type":"Point","coordinates":[-3.4088794,54.3556605]},"properties":{"name":"Ravenglass","naptan:AtcoCode":"9100RGLS","network":"National Rail","official_name":"Ravenglass for Eskdale","operator":"Northern","public_transport":"station","railway":"station","ref:crs":"RAV","wikidata":"Q2401288","wikipedia":"en:Ravenglass railway station"}},
{"type":"Feature","geometry":{"type":"Point","coordinates":[-3.5871793,54.5532204]},"properties":{"name":"Whitehaven","network":"National Rail","railway":"station","ref:crs":"WTH","operator":"Northern","wikidata":"Q2194627","wikipedia":"en:Whitehaven railway station","naptan:AtcoCode":"9100WHITHVN","public_transport":"station"}},
{"type":"Feature","geometry":{"type":"Point","coordinates":[-3.3844633,54.3708895]},"properties":{"name":"Miteside Halt","usage":"tourism","railway":"station","website":"https://ravenglass-railway.co.uk/","operator":"Ravenglass & Eskdale Railway","wikidata":"Q6881552","wikipedia":"en:Miteside Halt railway station","wheelchair":"no"}},
{"type":"Feature","geometry":{"type":"Point","coordinates":[-3.3677232,54.378379]},"properties":{"name":"Murthwaite Halt","usage":"tourism","railway":"station","website":"https://ravenglass-railway.co.uk/","operator":"Ravenglass and Eskdale Railway","wikidata":"Q6939739","wikipedia":"en:Murthwaite Halt railway station","wheelchair":"no","public_transport":"station"}},
{"type":"Feature","geometry":{"type":"Point","coordinates":[-2.9554994,54.2777237]},"properties":{"name":"Lakeside","usage":"tourism","railway":"station","wikidata":"Q6479174","wikipedia":"en:Lakeside railway station (England)"}},
{"type":"Feature","geometry":{"type":"Point","coordinates":[-2.767351,54.3555182]},"properties":{"name":"Burneside","train":"yes","network":"National Rail","railway":"station","ref:crs":"BUD","alt_name":"Burneside (Cumbria)","operator":"Northern","wikidata":"Q2520439","addr:city":"Burneside","wikipedia":"en:Burneside railway station","addr:street":"Station Road","addr:postcode":"LA9 6RD","naptan:AtcoCode":"9100BNSD","public_transport":"station"}},
{"type":"Feature","geometry":{"type":"Point","coordinates":[-2.9252051,54.1728754]},"properties":{"name":"Kents Bank","network":"National Rail","railway":"station","ref:crs":"KBK","wikidata":"Q2552522","wikipedia":"en:Kents Bank railway station","naptan:AtcoCode":"9100KTBK","public_transport":"station"}},
{"type":"Feature","geometry":{"type":"Point","coordinates":[-3.0979329,54.1917155]},"properties":{"name":"Ulverston","naptan:AtcoCode":"9100ULVRSTN","network":"National Rail","platforms":"3","public_transport":"station","railway":"station","ref:crs":"ULV","source":"Bing","wikidata":"Q2055056","wikipedia":"en:Ulverston railway station"}},
{"type":"Feature","geometry":{"type":"Point","coordinates":[-2.7038502,54.9321536]},"properties":{"addr:city":"Brampton","addr:postcode":"CA8 1HW","alt_name":"Brampton (Cumbria)","name":"Brampton","naptan:AtcoCode":"9100BRMPTNC","network":"National Rail","old_name":"Brampton Junction","operator":"Northern","platforms":"2","public_transport":"station","railway":"station","ref:crs":"BMP","wikidata":"Q2631617","wikipedia":"en:Brampton railway station (Cumbria)"}},
{"type":"Feature","geometry":{"type":"Point","coordinates":[-3.2045609,54.1891252]},"properties":{"name":"Askam","network":"National Rail","railway":"station","ref:crs":"ASK","wikidata":"Q2501136","wikipedia":"en:Askam railway station","naptan:AtcoCode":"9100ASKAM","public_transport":"station"}},
{"type":"Feature","geometry":{"type":"Point","coordinates":[-3.2453885,54.2444234]},"properties":{"name":"Green Road","naptan:AtcoCode":"9100GREENRD","network":"National Rail","public_transport":"station","railway":"station","ref:crs":"GNR","request_stop":"yes","train":"yes","wikidata":"Q4825330","wikipedia":"en:Green Road railway station"}},
{"type":"Feature","geometry":{"type":"Point","coordinates":[-3.2706093,54.2110036]},"properties":{"name":"Millom","naptan:AtcoCode":"9100MLLM","network":"National Rail","public_transport":"station","railway":"station","ref:crs":"MLM","train":"yes","wikidata":"Q2250935","wikipedia":"en:Millom railway station"}},
{"type":"Feature","geometry":{"type":"Point","coordinates":[-3.3938202,54.2911824]},"properties":{"name":"Bootle","naptan:AtcoCode":"9100BOOTLE","network":"National Rail","public_transport":"station","railway":"station","ref:crs":"BOC","request_stop":"yes","train":"yes","wikidata":"Q1975978","wikipedia":"en:Bootle railway station"}},
{"type":"Feature","geometry":{"type":"Point","coordinates":[-3.5104538,54.4166451]},"properties":{"name":"Sellafield","naptan:AtcoCode":"9100SELAFLD","network":"National Rail","public_transport":"station","railway":"station","ref:crs":"SEL","train":"yes","wikidata":"Q5371765","wikipedia":"en:Sellafield railway station"}},
{"type":"Feature","geometry":{"type":"Point","coordinates":[-3.4435811,54.3768581]},"properties":{"name":"Drigg","network":"National Rail","railway":"station","ref:crs":"DRI","wikidata":"Q2345937","wikipedia":"en:Drigg railway station","request_stop":"yes","naptan:AtcoCode":"9100DRIGG"}},
{"type":"Feature","geometry":{"type":"Point","coordinates":[-3.5419885,54.4394814]},"properties":{"name":"Braystones","naptan:AtcoCode":"9100BRYSTNS","network":"National Rail","public_transport":"station","railway":"station","ref:crs":"BYS","request_stop":"yes","train":"yes","wikidata":"Q2299653","wikipedia":"en:Braystones railway station"}},
{"type":"Feature","geometry":{"type":"Point","coordinates":[-2.7586794,54.661886]},"properties":{"name":"Penrith North Lakes","train":"yes","network":"National Rail","railway":"station","ref:crs":"PNR","alt_name":"Penrith","historic":"Penrith for Ullswater","wikidata":"Q2362780","platforms":"3","wikipedia":"en:Penrith railway station","addr:street":"Ullswater Road","naptan:AtcoCode":"9100PNTH","public_transport":"station"}},
{"type":"Feature","geometry":{"type":"Point","coordinates":[-2.368703,54.4549076]},"properties":{"name":"Kirkby Stephen","source":"NPE","network":"National Rail","railway":"station","ref:crs":"KSW","old_name":"Kirkby Stephen West","wikidata":"Q2238374","wikipedia":"en:Kirkby Stephen railway station","naptan:AtcoCode":"9100KSTP"}},
{"type":"Feature","geometry":{"type":"Point","coordinates":[-2.9033054,54.3794896]},"properties":{"name":"Windermere","train":"yes","network":"National Rail","railway":"station","ref:crs":"WDM","website":"https://www.northernrailway.co.uk/stations/WDM","operator":"Northern","wikidata":"Q2530403","addr:city":"Windermere","wikipedia":"en:Windermere railway station","addr:street":"Station Precinct","addr:postcode":"LA23 1AH","naptan:AtcoCode":"9100WMER","public_transport":"station"}},
{"type":"Feature","geometry":{"type":"Point","coordinates":[-3.558903,54.6449643]},"properties":{"name":"Workington","train":"yes","network":"National Rail","railway":"station","ref:crs":"WKG","wikidata":"Q2345398","wikipedia":"en:Workington railway station","naptan:AtcoCode":"9100WKNT","public_transport":"station"}},
{"type":"Feature","geometry":{"type":"Point","coordinates":[-2.7401448,54.3322466]},"properties":{"name":"Kendal","train":"yes","network":"National Rail","railway":"station","ref:crs":"KEN","operator":"Northern","wikidata":"Q1916006","addr:city":"Kendal","platforms":"1","wikipedia":"en:Kendal railway station","wheelchair":"yes","addr:street":"Station Road","addr:postcode":"LA9 6BT","naptan:AtcoCode":"9100KENDAL","public_transport":"station"}},
{"type":"Feature","geometry":{"type":"Point","coordinates":[-2.7217774,54.3050597]},"properties":{"name":"Oxenholme Lake District","train":"yes","network":"National Rail","railway":"station","ref:crs":"OXN","operator":"Virgin Trains","wikidata":"Q2104076","platforms":"3","wikipedia":"en:Oxenholme Lake District railway station","short_name":"Oxenholme","naptan:AtcoCode":"9100OXENHLM","public_transport":"station"}},
{"type":"Feature","geometry":{"type":"Point","coordinates":[-2.8280559,54.202601]},"properties":{"name":"Arnside","train":"yes","network":"National Rail","railway":"station","ref:crs":"ARN","wikidata":"Q4776543","wikipedia":"en:Arnside railway station","naptan:AtcoCode":"9100ARNSIDE","public_transport":"station"}},
{"type":"Feature","geometry":{"type":"Point","coordinates":[-3.1943835,54.1150592]},"properties":{"name":"Roose","naptan:AtcoCode":"9100ROOSE","network":"National Rail","public_transport":"station","railway":"station","ref:crs":"ROO","source":"npe","wikidata":"Q3394586","wikipedia":"en:Roose railway station"}}
]}
