{"type":"FeatureCollection","features":[
{"type":"Feature","geometry":{"type":"Point","coordinates":[-1.9489697,53.4445126]},"properties":{"name":"Glossop","network":"National Rail","railway":"station","ref:crs":"GLO","operator":"Northern Rail","wikidata":"Q2189195","addr:city":"Glossop","wikipedia":"en:Glossop railway station","wheelchair":"yes","addr:street":"Norfolk Street","naptan:AtcoCode":"9100GLSP"}},
{"type":"Feature","geometry":{"type":"Point","coordinates":[-1.9705971,53.4493243]},"properties":{"name":"Dinting","network":"National Rail","railway":"station","ref:crs":"DTG","operator":"Northern Rail","wikidata":"Q2470567","wikipedia":"en:Dinting railway station","naptan:AtcoCode":"9100DNTG","public_transport":"station"}},
{"type":"Feature","geometry":{"type":"Point","coordinates":[-2.0163275,53.4408091]},"properties":{"name":"Broadbottom","network":"National Rail","railway":"station","ref:crs":"BDB","operator":"Northern Rail","wikidata":"Q2634328","wikipedia":"en:Broadbottom railway station","naptan:AtcoCode":"9100BRBM"}},
{"type":"Feature","geometry":{"type":"Point","coordinates":[-1.9653832,53.4608456]},"properties":{"name":"Hadfield","naptan:AtcoCode":"9100HADFILD","network":"National Rail","operator":"Northern Rail","public_transport":"station","railway":"station","ref:crs":"HDF","source":"npe","wikidata":"Q1926252","wikipedia":"en:Hadfield railway station"}},
{"type":"Feature","geometry":{"type":"Point","coordinates":[-1.682375,52.8641449]},"properties":{"name":"Tutbury and Hatton","naptan:AtcoCode":"9100TUTBURY","network":"National Rail","public_transport":"station","railway":"station","ref:crs":"TUT","wikidata":"Q2564949","wikipedia":"en:Tutbury and Hatton railway station"}},
{"type":"Feature","geometry":{"type":"Point","coordinates":[-1.5691356,53.0356487]},"properties":{"name":"Idridgehay","usage":"tourism","railway":"station","wikidata":"Q5989561"}},
{"type":"Feature","geometry":{"type":"Point","coordinates":[-1.547398,53.0182899]},"properties":{"name":"Shottle","public_transport":"station","railway":"station","source":"NPE","usage":"tourism","wikidata":"Q7502588"}},
{"type":"Feature","geometry":{"type":"Point","coordinates":[-1.5687991,53.0827559]},"properties":{"name":"Wirksworth","public_transport":"station","railway":"station","usage":"tourism","wikidata":"Q8026960","wikipedia":"en:Wirksworth railway station"}},
{"type":"Feature","geometry":{"type":"Point","coordinates":[-1.4722913,52.8976023]},"properties":{"name":"Peartree","naptan:AtcoCode":"9100PEARTRE","network":"National Rail","note":"Only a few services call here, I would not consider it a railway=halt since it has proper platforms and it isn't a request stop","public_transport":"station","railway":"station","ref:crs":"PEA","source":"NPE","start_date":"1839","wikidata":"Q7158389","wikipedia":"en:Peartree railway station"}},
{"type":"Feature","geometry":{"type":"Point","coordinates":[-1.4694368,53.301481]},"properties":{"name":"Dronfield","naptan:AtcoCode":"9100DRONFLD","network":"National Rail","platforms":"2","railway":"station","ref:crs":"DRO","wikipedia":"en:Dronfield railway station"}},
{"type":"Feature","geometry":{"type":"Point","coordinates":[-1.9185882,53.2566395]},"properties":{"name":"Buxton Miniature Railway","usage":"tourism","railway":"station"}},
{"type":"Feature","geometry":{"type":"Point","coordinates":[-1.2872899,52.8849595]},"properties":{"name":"Long Eaton","train":"yes","network":"National Rail","railway":"station","ref:crs":"LGE","wikidata":"Q2357399","wikipedia":"en:Long Eaton railway station","wheelchair":"limited","naptan:AtcoCode":"9100LNGEATN","public_transport":"station","wheelchair:description":"Both platforms have a lift available. Sloped access is steep."}},
{"type":"Feature","geometry":{"type":"Point","coordinates":[-1.574777,53.0964641]},"properties":{"name":"Recreation Ground Halt","fixme":"location needs verification as the trees are too dense to see the platfom...","usage":"tourism","railway":"station","request_stop":"yes"}},
{"type":"Feature","geometry":{"type":"Point","coordinates":[-1.5707431,53.0957021]},"properties":{"name":"Steeple Grange","public_transport":"station","railway":"station","usage":"tourism"}},
{"type":"Feature","geometry":{"type":"Point","coordinates":[-1.3813791,53.274714]},"properties":{"name":"Roundhouse Halt","usage":"tourism","railway":"station"}},
{"type":"Feature","geometry":{"type":"Point","coordinates":[-1.4808654,53.0604187]},"properties":{"name":"Ambergate","network":"National Rail","railway":"station","ref:crs":"AMB","wikidata":"Q2100978","wikipedia":"en:Ambergate railway station","addr:street":"Midland Terrace","addr:postcode":"DE56 2EN","naptan:AtcoCode":"9100AMBERGT"}},
{"type":"Feature","geometry":{"type":"Point","coordinates":[-1.4108169,52.9120948]},"properties":{"name":"Spondon","source":"NPE","network":"National Rail","railway":"station","ref:crs":"SPO","wikidata":"Q7578950","wikipedia":"en:Spondon railway station","naptan:AtcoCode":"9100SPDN"}},
{"type":"Feature","geometry":{"type":"Point","coordinates":[-1.57288,53.0901924]},"properties":{"name":"Ravenstor","usage":"tourism","railway":"station","wikidata":"Q7296554","wikipedia":"en:Ravenstor railway station"}},
{"type":"Feature","geometry":{"type":"Point","coordinates":[-1.2164106,53.263919]},"properties":{"name":"Creswell","train":"yes","source":"NPE","network":"National Rail","railway":"station","ref:crs":"CWD","wikidata":"Q1967041","wikipedia":"en:Creswell railway station","naptan:AtcoCode":"9100CRWLL","public_transport":"station"}},
{"type":"Feature","geometry":{"type":"Point","coordinates":[-1.2092803,53.2327375]},"properties":{"name":"Langwith-Whaley Thorns","train":"yes","network":"National Rail","railway":"station","ref:crs":"LAG","wikidata":"Q2400406","wikipedia":"en:Langwith-Whaley Thorns railway station","naptan:AtcoCode":"9100LGWITH","public_transport":"station"}},
{"type":"Feature","geometry":{"type":"Point","coordinates":[-1.2026041,53.2041591]},"properties":{"name":"Shirebrook","train":"yes","network":"National Rail","railway":"station","ref:crs":"SHB","wikidata":"Q2412758","wikipedia":"en:Shirebrook railway station","naptan:AtcoCode":"9100SHRBROK","public_transport":"station"}},
{"type":"Feature","geometry":{"type":"Point","coordinates":[-1.3311974,53.018474]},"properties":{"name":"Langley Mill","source":"NPE","network":"National Rail","railway":"station","ref:crs":"LGM","wikidata":"Q2145892","wikipedia":"en:Langley Mill railway station","naptan:AtcoCode":"9100LGML"}},
{"type":"Feature","geometry":{"type":"Point","coordinates":[-1.9402265,53.4472118]},"properties":{"name":"Manor Station","train":"yes","usage":"tourism","railway":"station","public_transport":"station"}},
{"type":"Feature","geometry":{"type":"Point","coordinates":[-1.4090029,53.0629839]},"properties":{"name":"Hammersmith","train":"yes","usage":"tourism","railway":"station","wikidata":"Q5645767","wikipedia":"en:Hammersmith railway station","public_transport":"station"}},
{"type":"Feature","geometry":{"type":"Point","coordinates":[-1.9445158,53.3401158]},"properties":{"name":"Chinley","network":"National Rail","railway":"station","ref:crs":"CLY","wikidata":"Q2343783","addr:city":"Chinley","wikipedia":"en:Chinley railway station","addr:street":"Station Road","addr:postcode":"SK23 6AR","naptan:AtcoCode":"9100CHNLY","public_transport":"station"}},
{"type":"Feature","geometry":{"type":"Point","coordinates":[-1.9131016,53.2607853]},"properties":{"name":"Buxton","network":"National Rail","railway":"station","ref:crs":"BUX","operator":"Northern","wikidata":"Q2932479","wikipedia":"en:Buxton railway station","wheelchair":"yes","naptan:AtcoCode":"9100BUXTON"}},
{"type":"Feature","geometry":{"type":"Point","coordinates":[-1.5668186,53.1411575]},"properties":{"name":"Matlock Riverside","usage":"tourism","railway":"station","wikidata":"Q6787688","wikipedia":"en:Matlock Riverside railway station"}},
{"type":"Feature","geometry":{"type":"Point","coordinates":[-1.6102071,53.1757559]},"properties":{"name":"Derbyshire Dales Narrow Gauge Railway","usage":"tourism","railway":"station"}},
{"type":"Feature","geometry":{"type":"Point","coordinates":[-1.7296279,53.3459832]},"properties":{"name":"Hope (Derbyshire)","network":"National Rail","railway":"station","ref:crs":"HOP","wikidata":"Q2611272","wikipedia":"en:Hope railway station (England)","naptan:AtcoCode":"9100HOPD"}},
{"type":"Feature","geometry":{"type":"Point","coordinates":[-1.2002034,53.2799331]},"properties":{"name":"Whitwell","train":"yes","source":"NPE","network":"National Rail","railway":"station","ref:crs":"WWL","wikidata":"Q1945536","wikipedia":"en:Whitwell railway station","naptan:AtcoCode":"9100WHWLL","public_transport":"station"}},
{"type":"Feature","geometry":{"type":"Point","coordinates":[-1.6521354,53.3259212]},"properties":{"name":"Hathersage","network":"National Rail","railway":"station","ref:crs":"HSG","wikidata":"Q2375578","wikipedia":"en:Hathersage railway station","naptan:AtcoCode":"9100HATHRSG"}},
{"type":"Feature","geometry":{"type":"Point","coordinates":[-1.4626517,52.9162127]},"properties":{"name":"Derby","naptan:AtcoCode":"9100DRBY","network":"National Rail","operator":"East Midlands Railway","public_transport":"station","railway":"station","ref:crs":"DBY","train":"yes","wheelchair":"yes","wikidata":"Q3398679","wikipedia":"en:Derby railway station"}},
{"type":"Feature","geometry":{"type":"Point","coordinates":[-1.5942104,53.1603271]},"properties":{"name":"Darley Dale","usage":"tourism","railway":"station","wikidata":"Q5223871","wikipedia":"en:Darley Dale railway station"}},
{"type":"Feature","geometry":{"type":"Point","coordinates":[-1.3832592,53.0638525]},"properties":{"name":"Swanwick Junction","usage":"tourism","railway":"station","tourism":"preserved_railway","wikidata":"Q7653771","wikipedia":"en:Swanwick Junction railway station","public_transport":"station"}},
{"type":"Feature","geometry":{"type":"Point","coordinates":[-1.6260289,53.3055623]},"properties":{"name":"Grindleford","source":"NPE","network":"National Rail","railway":"station","ref:crs":"GRN","wikidata":"Q4994209","wikipedia":"en:Grindleford railway station","naptan:AtcoCode":"9100GRNDLFD"}},
{"type":"Feature","geometry":{"type":"Point","coordinates":[-1.6893887,53.3391363]},"properties":{"name":"Bamford","network":"National Rail","railway":"station","ref:crs":"BAM","wikidata":"Q3955872","wikipedia":"en:Bamford railway station","naptan:AtcoCode":"9100BAMFORD","public_transport":"station"}},
{"type":"Feature","geometry":{"type":"Point","coordinates":[-1.8172462,53.3648176]},"properties":{"name":"Edale","source":"npe","network":"National Rail","railway":"station","ref:crs":"EDL","wikidata":"Q2859134","wikipedia":"en:Edale railway station","naptan:AtcoCode":"9100EDALE"}},
{"type":"Feature","geometry":{"type":"Point","coordinates":[-2.0055668,53.364866]},"properties":{"name":"New Mills Central","train":"yes","source":"NPE","network":"National Rail","railway":"station","ref:crs":"NMC","wikidata":"Q2022018","wikipedia":"en:New Mills Central railway station","naptan:AtcoCode":"9100NWMILSC","public_transport":"station"}},
{"type":"Feature","geometry":{"type":"Point","coordinates":[-2.0332814,53.3745716]},"properties":{"name":"Strines","source":"NPE","network":"National Rail","railway":"station","ref:crs":"SRN","wikidata":"Q2551282","wikipedia":"en:Strines railway station","naptan:AtcoCode":"9100STRINES"}},
{"type":"Feature","geometry":{"type":"Point","coordinates":[-1.4858584,52.9882284]},"properties":{"name":"Duffield","source":"NPE","network":"National Rail","railway":"station","ref:crs":"DFI","wikidata":"Q4027193","wikipedia":"en:Duffield railway station","naptan:AtcoCode":"9100DUFIELD"}},
{"type":"Feature","geometry":{"type":"Point","coordinates":[-1.4825448,53.0242179]},"properties":{"name":"Belper","train":"yes","source":"NPE","network":"National Rail","railway":"station","ref:crs":"BLP","wikidata":"Q3148981","wikipedia":"en:Belper railway station","naptan:AtcoCode":"9100BELPER","public_transport":"station"}},
{"type":"Feature","geometry":{"type":"Point","coordinates":[-1.5042939,53.0834695]},"properties":{"name":"Whatstandwell","source":"NPE","network":"National Rail","railway":"station","ref:crs":"WTS","wikidata":"Q2313025","wikipedia":"en:Whatstandwell railway station","naptan:AtcoCode":"9100WATSTND"}},
{"type":"Feature","geometry":{"type":"Point","coordinates":[-1.5490661,53.1129115]},"properties":{"name":"Cromford","source":"NPE","network":"National Rail","railway":"station","ref:crs":"CMF","wikidata":"Q2079568","wikipedia":"en:Cromford railway station","naptan:AtcoCode":"9100CROMFD"}},
{"type":"Feature","geometry":{"type":"Point","coordinates":[-1.5585511,53.1381136]},"properties":{"name":"Matlock","train":"yes","network":"National Rail","railway":"station","ref:crs":"MAT","operator":"East Midlands Railway","wikidata":"Q4591297","wikipedia":"en:Matlock railway station","wheelchair":"yes","naptan:AtcoCode":"9100MATLOCK","public_transport":"station","toilets:wheelchair":"yes"}},
{"type":"Feature","geometry":{"type":"Point","coordinates":[-1.5568716,53.1225529]},"properties":{"name":"Matlock Bath","source":"NPE","network":"National Rail","railway":"station","ref:crs":"MTB","wikidata":"Q2537583","wikipedia":"en:Matlock Bath railway station","naptan:AtcoCode":"9100MATLCKB"}},
{"type":"Feature","geometry":{"type":"Point","coordinates":[-2.0082028,53.3594665]},"properties":{"name":"New Mills Newtown","train":"yes","network":"National Rail","railway":"station","ref:crs":"NMN","wikidata":"Q2144777","wikipedia":"en:New Mills Newtown railway station","naptan:AtcoCode":"9100NWMILSN","public_transport":"station"}},
{"type":"Feature","geometry":{"type":"Point","coordinates":[-1.9888665,53.348808]},"properties":{"name":"Furness Vale","network":"National Rail","railway":"station","ref:crs":"FNV","wikidata":"Q3182275","wikipedia":"en:Furness Vale railway station","naptan:AtcoCode":"9100FURNESV"}},
{"type":"Feature","geometry":{"type":"Point","coordinates":[-1.9183726,53.3120572]},"properties":{"name":"Chapel-en-le-Frith","network":"National Rail","railway":"station","ref:crs":"CEF","wikidata":"Q1839026","wikipedia":"en:Chapel-en-le-Frith railway station","naptan:AtcoCode":"9100CHEF"}},
{"type":"Feature","geometry":{"type":"Point","coordinates":[-1.8897206,53.3001401]},"properties":{"name":"Dove Holes","network":"National Rail","railway":"station","ref:crs":"DVH","wikidata":"Q2280131","wikipedia":"en:Dove Holes railway station","naptan:AtcoCode":"9100DVHL"}},
{"type":"Feature","geometry":{"type":"Point","coordinates":[-1.5640738,52.8533829]},"properties":{"layer":"1","name":"Willington","naptan:AtcoCode":"9100WLNTNON","network":"National Rail","railway":"station","ref:crs":"WIL","source":"memory","wikidata":"Q746608","wikipedia":"en:Willington railway station"}},
{"type":"Feature","geometry":{"type":"Point","coordinates":[-1.3698401,53.1010582]},"properties":{"name":"Alfreton","train":"yes","network":"National Rail","railway":"station","ref:crs":"ALF","wikidata":"Q1872948","wikipedia":"en:Alfreton railway station","naptan:AtcoCode":"9100ALFRETN","public_transport":"station"}},
{"type":"Feature","geometry":{"type":"Point","coordinates":[-1.4197283,53.2382236]},"properties":{"name":"Chesterfield","network":"National Rail","railway":"station","ref:crs":"CHD","wikidata":"Q2645921","wikipedia":"en:Chesterfield railway station","naptan:AtcoCode":"9100CHFD"}},
{"type":"Feature","geometry":{"type":"Point","coordinates":[-1.9847378,53.3302649]},"properties":{"name":"Whaley Bridge","train":"yes","network":"National Rail","railway":"station","ref:crs":"WBR","wikidata":"Q2111822","wikipedia":"en:Whaley Bridge railway station","start_date":"1857","addr:street":"Market Street","addr:postcode":"SK23 7AA","naptan:AtcoCode":"9100WHALYBG","public_transport":"station"}},
{"type":"Feature","geometry":{"type":"Point","coordinates":[-1.2950397,52.9790983]},"properties":{"name":"Ilkeston","network":"National Rail","railway":"station","ref:crs":"ILN","wikidata":"Q15228309","wikipedia":"en:Ilkeston railway station","naptan:AtcoCode":"9100ILKES","public_transport":"station"}},
{"type":"Feature","geometry":{"type":"Point","coordinates":[-1.401268,53.0633087]},"properties":{"name":"Butterley","train":"yes","usage":"tourism","railway":"station","website":"https://www.midlandrailway-butterley.co.uk/","wikidata":"Q5002997","addr:city":"Ripley","wikipedia":"en:Butterley railway station","addr:street":"Butterley Hill","addr:postcode":"DE5 3QZ","public_transport":"station"}},
{"type":"Feature","geometry":{"type":"Point","coordinates":[-1.6096489,53.1745377]},"properties":{"name":"Rowsley South","usage":"tourism","network":"Peak Rail","railway":"station","wikidata":"Q7372289","wikipedia":"en:Rowsley South railway station"}}
]}
