{"type":"FeatureCollection","features":[
{"type":"Feature","geometry":{"type":"Point","coordinates":[-3.5009604,50.7310108]},"properties":{"name":"Polsloe Bridge","train":"yes","network":"National Rail","railway":"station","ref:crs":"POL","wikidata":"Q2782711","wikipedia":"en:Polsloe Bridge railway station","wheelchair":"no","naptan:AtcoCode":"9100POLSBDG","public_transport":"station"}},
{"type":"Feature","geometry":{"type":"Point","coordinates":[-3.4637875,50.685645]},"properties":{"name":"Topsham","source":"NPE + GPX","name:be":"Топшам","name:en":"Topsham","name:ru":"Топшем","network":"National Rail","railway":"station","ref:crs":"TOP","operator":"First Great Western","wikidata":"Q1990205","wikipedia":"en:Topsham railway station","wheelchair":"yes","naptan:AtcoCode":"9100TOPSHAM"}},
{"type":"Feature","geometry":{"type":"Point","coordinates":[-3.4441901,50.6681286]},"properties":{"name":"Exton","network":"National Rail","railway":"station","ref:crs":"EXN","wikidata":"Q4553827","wikipedia":"en:Exton railway station","request_stop":"yes","naptan:AtcoCode":"9100EXTON"}},
{"type":"Feature","geometry":{"type":"Point","coordinates":[-3.4410809,50.662630299999999]},"properties":{"name":"Lympstone Commando","train":"yes","network":"National Rail","railway":"station","ref:crs":"LYC","wikidata":"Q1977209","wikipedia":"en:Lympstone Commando railway station","request_stop":"yes","naptan:AtcoCode":"9100LYMPSTC","public_transport":"station"}},
{"type":"Feature","geometry":{"type":"Point","coordinates":[-3.4148453,50.6216592]},"properties":{"name":"Exmouth","train":"yes","name:en":"Exmouth","name:lt":"Eksmutas","network":"National Rail","railway":"station","ref:crs":"EXM","wikidata":"Q2681544","wikipedia":"en:Exmouth railway station","naptan:AtcoCode":"9100EXMOUTH","public_transport":"station"}},
{"type":"Feature","geometry":{"type":"Point","coordinates":[-3.4947321,50.5482036]},"properties":{"name":"Teignmouth","network":"National Rail","railway":"station","ref:crs":"TGM","wikipedia":"en:Teignmouth railway station","wheelchair":"no","electrified":"no","source:name":"local knowledge","naptan:AtcoCode":"9100TEINMTH"}},
{"type":"Feature","geometry":{"type":"Point","coordinates":[-3.5389661,50.7171556]},"properties":{"name":"Exeter St Thomas","network":"National Rail","railway":"station","ref:crs":"EXT","wikidata":"Q1928272","wikipedia":"en:Exeter St Thomas railway station","wheelchair":"no","electrified":"no","naptan:AtcoCode":"9100EXETRST"}},
{"type":"Feature","geometry":{"type":"Point","coordinates":[-3.9050319,50.393467]},"properties":{"name":"Ivybridge","network":"National Rail","railway":"station","ref:crs":"IVY","wikipedia":"en:Ivybridge railway station","wheelchair":"yes","naptan:AtcoCode":"9100IVYBDGE"}},
{"type":"Feature","geometry":{"type":"Point","coordinates":[-3.5431764,50.4609092]},"properties":{"name":"Torquay","network":"National Rail","railway":"station","ref:crs":"TQY","wikipedia":"en:Torquay railway station","electrified":"no","naptan:AtcoCode":"9100TORQUAY"}},
{"type":"Feature","geometry":{"type":"Point","coordinates":[-3.5465907,50.47311]},"properties":{"name":"Torre","network":"National Rail","railway":"station","ref:crs":"TRR","wikidata":"Q2985310","wikipedia":"en:Torre railway station","electrified":"no","naptan:AtcoCode":"9100TORRE"}},
{"type":"Feature","geometry":{"type":"Point","coordinates":[-4.1798923,50.3899651]},"properties":{"name":"Keyham","naptan:AtcoCode":"9100KEYHAM","network":"National Rail","public_transport":"station","railway":"station","ref:crs":"KEY","source":"Yahoo imagery","wikidata":"Q2296539","wikipedia":"en:Keyham railway station"}},
{"type":"Feature","geometry":{"type":"Point","coordinates":[-3.5890083,50.7787397]},"properties":{"name":"Newton St Cyres","source":"NPE","network":"National Rail","railway":"station","ref:crs":"NTC","wikipedia":"en:Newton St Cyres railway station","request_stop":"yes","naptan:AtcoCode":"9100NSTCYRE"}},
{"type":"Feature","geometry":{"type":"Point","coordinates":[-3.6467498,50.783269]},"properties":{"name":"Crediton","naptan:AtcoCode":"9100CREDITN","network":"National Rail","platforms":"2","railway":"station","ref:crs":"CDI","source":"NPE","wikidata":"Q5183802","wikipedia":"en:Crediton railway station"}},
{"type":"Feature","geometry":{"type":"Point","coordinates":[-3.7267107,50.7767481]},"properties":{"name":"Yeoford","source":"NPE","network":"National Rail","railway":"station","ref:crs":"YEO","wikidata":"Q2754205","wikipedia":"en:Yeoford railway station","request_stop":"yes","naptan:AtcoCode":"9100YEOFORD"}},
{"type":"Feature","geometry":{"type":"Point","coordinates":[-3.7513163,50.8143464]},"properties":{"name":"Copplestone","source":"NPE","network":"National Rail","railway":"station","ref:crs":"COP","operator":"GWR","platforms":"1","wikipedia":"en:Copplestone railway station","request_stop":"yes","naptan:AtcoCode":"9100COPLSTN"}},
{"type":"Feature","geometry":{"type":"Point","coordinates":[-3.7761159,50.8317005]},"properties":{"name":"Morchard Road","source":"NPE","network":"National Rail","railway":"station","ref:crs":"MRD","operator":"GWR","wikipedia":"en:Morchard Road railway station","request_stop":"yes","naptan:AtcoCode":"9100MOCHARD"}},
{"type":"Feature","geometry":{"type":"Point","coordinates":[-3.8107134,50.8570052]},"properties":{"name":"Lapford","source":"NPE","network":"National Rail","railway":"station","ref:crs":"LAP","operator":"GWR","wikipedia":"en:Lapford railway station","request_stop":"yes","naptan:AtcoCode":"9100LAPFORD"}},
{"type":"Feature","geometry":{"type":"Point","coordinates":[-3.8747359,50.8876037]},"properties":{"name":"Eggesford","source":"NPE","network":"National Rail","railway":"station","ref:crs":"EGG","operator":"GWR","wikipedia":"en:Eggesford railway station","naptan:AtcoCode":"9100EGGESFD"}},
{"type":"Feature","geometry":{"type":"Point","coordinates":[-3.9054023,50.9359781]},"properties":{"name":"Kings Nympton","naptan:AtcoCode":"9100KNYMPTN","network":"National Rail","railway":"station","ref:crs":"KGN","request_stop":"yes","source":"NPE","wikipedia":"en:Kings Nympton railway station"}},
{"type":"Feature","geometry":{"type":"Point","coordinates":[-3.9827596,50.9966433]},"properties":{"name":"Umberleigh","network":"National Rail","railway":"station","ref:crs":"UMB","wikidata":"Q2207387","wikipedia":"en:Umberleigh railway station","request_stop":"yes","naptan:AtcoCode":"9100UMBRLGH"}},
{"type":"Feature","geometry":{"type":"Point","coordinates":[-4.024454,51.0161716]},"properties":{"name":"Chapelton","network":"National Rail","railway":"station","ref:crs":"CPN","wikipedia":"en:Chapelton railway station","request_stop":"yes","naptan:AtcoCode":"9100CHAPLTN"}},
{"type":"Feature","geometry":{"type":"Point","coordinates":[-3.9488169,50.7702023]},"properties":{"name":"Sampford Courtenay","note":"Explictly named in NPE","source":"npe;survey","network":"National Rail","railway":"station","ref:crs":"SMC","website":"https://www.dartmoorrailway.com/","wikidata":"Q9333302","wikipedia":"en:Sampford Courtenay railway station","naptan:AtcoCode":"9100SAMPCRT"}},
{"type":"Feature","geometry":{"type":"Point","coordinates":[-3.9963997,50.7323295]},"properties":{"name":"Okehampton","source":"NPE","network":"National Rail","railway":"station","ref:crs":"OKE","wikidata":"Q7081920","addr:city":"Okehampton","wikipedia":"en:Okehampton railway station","addr:county":"Devon","addr:country":"GB","addr:postcode":"EX20 1EJ","addr:housename":"Okehampton Station","naptan:AtcoCode":"9100OKHMPTN","public_transport":"station"}},
{"type":"Feature","geometry":{"type":"Point","coordinates":[-4.1814548,50.4510874]},"properties":{"name":"Bere Ferrers","source":"NPE","network":"National Rail","railway":"station","ref:crs":"BFE","wikidata":"Q2550845","wikipedia":"en:Bere Ferrers railway station","naptan:AtcoCode":"9100BEREFRS"}},
{"type":"Feature","geometry":{"type":"Point","coordinates":[-4.2004694,50.4855896]},"properties":{"name":"Bere Alston","network":"National Rail","railway":"station","ref:crs":"BAS","wikidata":"Q1967233","wikipedia":"en:Bere Alston railway station","naptan:AtcoCode":"9100BEREALS"}},
{"type":"Feature","geometry":{"type":"Point","coordinates":[-4.208583,50.497994]},"properties":{"name":"Calstock","source":"NPE","network":"National Rail","railway":"station","ref:crs":"CSK","wikidata":"Q2615167","wikipedia":"en:Calstock railway station","wheelchair":"yes","naptan:AtcoCode":"9100CALSTCK"}},
{"type":"Feature","geometry":{"type":"Point","coordinates":[-4.1705805,50.3784953]},"properties":{"name":"Devonport","network":"National Rail","railway":"station","ref:crs":"DPT","wikidata":"Q1970495","wikipedia":"en:Devonport railway station","naptan:AtcoCode":"9100DEVNPRT"}},
{"type":"Feature","geometry":{"type":"Point","coordinates":[-4.1760432,50.3823684]},"properties":{"name":"Dockyard","naptan:AtcoCode":"9100DOCKYDP","network":"National Rail","public_transport":"station","railway":"station","ref:crs":"DOC","request_stop":"yes","wikidata":"Q2705589","wikipedia":"en:Dockyard railway station"}},
{"type":"Feature","geometry":{"type":"Point","coordinates":[-3.5226011,50.7309796]},"properties":{"name":"St James' Park","source":"NPE","network":"National Rail","railway":"station","ref:crs":"SJP","operator":"First Great Western","wikidata":"Q1102571","platforms":"2","wikipedia":"en:St James Park railway station","wheelchair":"no","naptan:AtcoCode":"9100STJAMSP"}},
{"type":"Feature","geometry":{"type":"Point","coordinates":[-3.4310966,50.6484198]},"properties":{"name":"Lympstone Village","source":"npe","network":"National Rail","railway":"station","ref:crs":"LYM","old_name":"Lympstone","wikidata":"Q3090642","wikipedia":"en:Lympstone Village railway station","naptan:AtcoCode":"9100LYMPSTN"}},
{"type":"Feature","geometry":{"type":"Point","coordinates":[-3.8323694,51.2316264]},"properties":{"addr:country":"GB","name":"Lynmouth Bay Railway Station","public_transport":"station","railway":"station","usage":"tourism","wheelchair":"yes","wikidata":"Q18619254","wikipedia":"en:Lynmouth Bay railway station"}},
{"type":"Feature","geometry":{"type":"Point","coordinates":[-4.1877512,50.402196000000007]},"properties":{"name":"St Budeaux Victoria Road","naptan:AtcoCode":"9100STBDXVR","network":"National Rail","public_transport":"station","railway":"station","ref:crs":"SBV","source":"NPE and Yahoo imagery","wikidata":"Q2524155","wikipedia":"en:St Budeaux Victoria Road railway station"}},
{"type":"Feature","geometry":{"type":"Point","coordinates":[-4.1871385,50.4015641]},"properties":{"name":"St Budeaux Ferry Road","naptan:AtcoCode":"9100STBDXFR","network":"National Rail","public_transport":"station","railway":"station","ref:crs":"SBF","source":"NPE and Yahoo imagery","wikidata":"Q960725","wikipedia":"en:St Budeaux Ferry Road railway station"}},
{"type":"Feature","geometry":{"type":"Point","coordinates":[-3.7686403,50.4828098]},"properties":{"name":"Buckfastleigh","usage":"tourism","railway":"station"}},
{"type":"Feature","geometry":{"type":"Point","coordinates":[-3.6856839,50.4394733]},"properties":{"name":"Totnes Riverside","note":"Renamed from 1 January 2017","public_transport":"station","railway":"station","usage":"tourism"}},
{"type":"Feature","geometry":{"type":"Point","coordinates":[-3.7149082,50.4609185]},"properties":{"name":"Staverton","operator":"South Devon Railway","public_transport":"station","railway":"station","usage":"tourism"}},
{"type":"Feature","geometry":{"type":"Point","coordinates":[-3.5649536,50.4345556]},"properties":{"name":"Paignton","network":"National Rail","railway":"station","ref:crs":"PGN","wikidata":"Q2049642","platforms":"2","wikipedia":"en:Paignton railway station","wheelchair":"yes","electrified":"no","naptan:AtcoCode":"9100PAIGNTN"}},
{"type":"Feature","geometry":{"type":"Point","coordinates":[-3.5620133,50.4253685]},"properties":{"addr:postcode":"TQ4 6LN","name":"Goodrington Sands Halt","public_transport":"station","railway":"station","request_stop":"yes","usage":"tourism","website":"https://www.dartmouthrailriver.co.uk/","wikidata":"Q5583591"}},
{"type":"Feature","geometry":{"type":"Point","coordinates":[-3.5569399,50.3961534]},"properties":{"name":"Churston","usage":"tourism","railway":"station","wikidata":"Q5118324"}},
{"type":"Feature","geometry":{"type":"Point","coordinates":[-3.5730892,50.3863638]},"properties":{"name":"Greenway Halt","railway":"station","request_stop":"yes","usage":"tourism","website":"https://www.dartmouthrailriver.co.uk/","wikidata":"Q5604779","wikipedia":"en:Greenway Halt railway station (Devon)"}},
{"type":"Feature","geometry":{"type":"Point","coordinates":[-4.0318574,50.7148874]},"properties":{"name":"Meldon Viaduct","usage":"tourism","railway":"station","operator":"Dartmoor Railway","wikidata":"Q6812102"}},
{"type":"Feature","geometry":{"type":"Point","coordinates":[-4.0824638,50.3949795]},"properties":{"name":"Marsh Mills","network":"Plym Valley Railway","operator":"Plym Valley Railway","railway":"station","usage":"tourism","wikipedia":"en:South Devon and Tavistock Railway#Marsh Mills"}},
{"type":"Feature","geometry":{"type":"Point","coordinates":[-3.4736326,50.7143072]},"properties":{"name":"Digby and Sowton","network":"National Rail","railway":"station","ref:crs":"DIG","operator":"First Great Western","wikidata":"Q735385","wikipedia":"en:Digby and Sowton railway station","wheelchair":"yes","naptan:AtcoCode":"9100DIGBY"}},
{"type":"Feature","geometry":{"type":"Point","coordinates":[-3.4434764,50.5984815]},"properties":{"name":"Dawlish Warren","train":"yes","source":"survey","network":"National Rail","railway":"station","ref:crs":"DWW","wikipedia":"en:Dawlish Warren railway station","electrified":"no","naptan:AtcoCode":"9100DAWLSHW","public_transport":"station"}},
{"type":"Feature","geometry":{"type":"Point","coordinates":[-3.8354682,51.2312882]},"properties":{"addr:city":"Lynmouth","addr:country":"GB","addr:postcode":"EX35 6EQ","name":"Lynton Village Railway Station","public_transport":"station","railway":"station","usage":"tourism","website":"https://www.cliffrailwaylynton.co.uk","wheelchair":"yes","wikidata":"Q18619256","wikipedia":"en:Lynton Village railway station"}},
{"type":"Feature","geometry":{"type":"Point","coordinates":[-3.4475583,50.6275859]},"properties":{"name":"Starcross","train":"yes","network":"National Rail","railway":"station","ref:crs":"SCS","wikipedia":"en:Starcross railway station","naptan:AtcoCode":"9100STRCROS","public_transport":"station"}},
{"type":"Feature","geometry":{"type":"Point","coordinates":[-3.951232,50.9570164]},"properties":{"name":"Portsmouth Arms","network":"National Rail","railway":"station","ref:crs":"PMA","wikidata":"Q2659294","wikipedia":"en:Portsmouth Arms railway station","request_stop":"yes","naptan:AtcoCode":"9100PRTSMTA"}},
{"type":"Feature","geometry":{"type":"Point","coordinates":[-3.7025233,50.4612092]},"properties":{"name":"Nappers Halt","note":"Very limited services: special events only","usage":"tourism","railway":"station"}},
{"type":"Feature","geometry":{"type":"Point","coordinates":[-4.0793475,50.408758]},"properties":{"historic":"station_site","name":"Plym Bridge","old_name":"Plym Bridge (Halt)","public_transport":"station","railway":"station","start_date":"30 December 2012","usage":"tourism","wikipedia":"en:Plym Valley Railway"}},
{"type":"Feature","geometry":{"type":"Point","coordinates":[-3.5647477,50.4343005]},"properties":{"name":"Paignton Queens Park","usage":"tourism","railway":"station","operator":"Dartmouth Steam Railway","addr:city":"Paignton","addr:postcode":"TQ4 6AF"}},
{"type":"Feature","geometry":{"type":"Point","coordinates":[-3.4725586,50.7027216]},"properties":{"name":"Newcourt","note":"Opened 4 June 2015","train":"yes","network":"National Rail","railway":"station","ref:crs":"NCO","operator":"Great Western Railways","wikidata":"Q15262145","addr:city":"Exeter","wikipedia":"en:Newcourt railway station (England)","addr:postcode":"EX2 7FR","addr:housename":"Newcourt Station","internet_access":"no","naptan:AtcoCode":"9100NWCOURT","public_transport":"station"}},
{"type":"Feature","geometry":{"type":"Point","coordinates":[-4.1433202,50.3780005]},"properties":{"name":"Plymouth","naptan:AtcoCode":"9100PLYMTH","network":"National Rail","public_transport":"station","railway":"station","ref:crs":"PLY","wikidata":"Q956813","wikipedia":"en:Plymouth railway station"}},
{"type":"Feature","geometry":{"type":"Point","coordinates":[-3.6624367,50.5556975]},"properties":{"name":"Goose Glen Halt","usage":"tourism","network":"Bickington Steam Railway","railway":"station","operator":"Bickington Steam Railway","public_transport":"station"}},
{"type":"Feature","geometry":{"type":"Point","coordinates":[-3.5435703,50.7292155]},"properties":{"name":"Exeter St Davids","train":"yes","source":"NPE + GPX","network":"National Rail","railway":"station","ref:crs":"EXD","wikidata":"Q3244559","addr:city":"Exeter","platforms":"6","wikipedia":"en:Exeter St David's railway station","addr:street":"Bonhay Road","electrified":"no","addr:postcode":"EX4 4NT","opening_hours":"This railway station is not open 24 hours and closes for part of the night.","naptan:AtcoCode":"9100EXETRSD","public_transport":"station"}},
{"type":"Feature","geometry":{"type":"Point","coordinates":[-3.5330277,50.7266251]},"properties":{"name":"Exeter Central","network":"National Rail","railway":"station","ref:crs":"EXC","operator":"First Great Western","wikidata":"Q3189858","addr:city":"Exeter","platforms":"3","served_by":"South West Trains, First Great Western","wikipedia":"en:Exeter Central railway station","wheelchair":"yes","addr:street":"Queen Street","electrified":"no","addr:postcode":"EX4 3SB","naptan:AtcoCode":"9100EXETERC"}},
{"type":"Feature","geometry":{"type":"Point","coordinates":[-3.4700849,50.7377934]},"properties":{"name":"Pinhoe","naptan:AtcoCode":"9100PINHOE","network":"National Rail","public_transport":"station","railway":"station","ref:crs":"PIN","source":"NPE","wikidata":"Q7195885","wikipedia":"en:Pinhoe railway station"}},
{"type":"Feature","geometry":{"type":"Point","coordinates":[-3.4209803,50.7500196]},"properties":{"name":"Cranbrook","network":"National Rail","railway":"station","ref:crs":"CBK","website":"https://www.southwesternrailway.com/","operator":"South Western Railway","wikidata":"Q16988214","wikipedia":"en:Cranbrook railway station (Devon)","start_date":"2015-12-13","naptan:AtcoCode":"9100CBRK"}},
{"type":"Feature","geometry":{"type":"Point","coordinates":[-3.3543766,50.7678356]},"properties":{"name":"Whimple","network":"National Rail","railway":"station","ref:crs":"WHM","wikidata":"Q666548","wikipedia":"en:Whimple railway station","naptan:AtcoCode":"9100WHIMPLE"}},
{"type":"Feature","geometry":{"type":"Point","coordinates":[-3.285205,50.7865525]},"properties":{"name":"Feniton","network":"National Rail","railway":"station","ref:crs":"FNT","wikidata":"Q2596435","wikipedia":"en:Feniton railway station","naptan:AtcoCode":"9100FENITON"}},
{"type":"Feature","geometry":{"type":"Point","coordinates":[-3.1868994,50.7967239]},"properties":{"name":"Honiton","network":"National Rail","railway":"station","ref:crs":"HON","wikidata":"Q924899","wikipedia":"en:Honiton railway station","wheelchair":"limited","naptan:AtcoCode":"9100HONITON"}},
{"type":"Feature","geometry":{"type":"Point","coordinates":[-3.0049453,50.7790074]},"properties":{"name":"Axminster","network":"National Rail","railway":"station","ref:crs":"AXM","wikidata":"Q3431382","wikipedia":"en:Axminster railway station","naptan:AtcoCode":"9100AXMNSTR"}},
{"type":"Feature","geometry":{"type":"Point","coordinates":[-3.4644482,50.5806101]},"properties":{"name":"Dawlish","network":"National Rail","railway":"station","ref:crs":"DWL","wikipedia":"en:Dawlish railway station","naptan:AtcoCode":"9100DAWLISH"}},
{"type":"Feature","geometry":{"type":"Point","coordinates":[-3.6887478,50.4359143]},"properties":{"name":"Totnes","naptan:AtcoCode":"9100TOTNES","network":"National Rail","public_transport":"station","railway":"station","ref:crs":"TOT","wikipedia":"en:Totnes railway station"}},
{"type":"Feature","geometry":{"type":"Point","coordinates":[-3.5992265,50.5301513]},"properties":{"name":"Newton Abbot","network":"National Rail","railway":"station","ref:crs":"NTA","wikipedia":"en:Newton Abbot railway station","wheelchair":"yes","electrified":"no","naptan:AtcoCode":"9100NABT"}},
{"type":"Feature","geometry":{"type":"Point","coordinates":[-3.3597427,50.9170751]},"properties":{"name":"Tiverton Parkway","network":"National Rail","railway":"station","ref:crs":"TVP","wikidata":"Q2463093","wikipedia":"en:Tiverton Parkway railway station","naptan:AtcoCode":"9100TIVIPW"}},
{"type":"Feature","geometry":{"type":"Point","coordinates":[-4.0632419,51.0737291]},"properties":{"name":"Barnstaple","name:lt":"Barnstaplas","network":"National Rail","railway":"station","ref:crs":"BNP","old_name":"Barnstaple Junction","operator":"Great Western Railway","addr:city":"Barnstaple","wikipedia":"en:Barnstaple railway station","wheelchair":"yes","addr:street":"Station Road","addr:postcode":"EX31 2AU","internet_access":"yes","naptan:AtcoCode":"9100BRNSTPL","internet_access:fee":"yes"}},
{"type":"Feature","geometry":{"type":"Point","coordinates":[-3.5723937,50.34888]},"properties":{"name":"Kingswear","usage":"tourism","source":"OS_OpenData_StreetView","railway":"station","addr:postcode":"TQ6 0AE","source:postcode":"ons_opendata_postcodes"}},
{"type":"Feature","geometry":{"type":"Point","coordinates":[-3.6645247,50.5579041]},"properties":{"name":"Riverside Station","phone":"+44 1626 82 11 11","usage":"tourism","network":"Bickington Steam Railway","railway":"station","website":"https://www.trago.co.uk/","operator":"Bickington Steam Railway","platforms":"2","wikipedia":"en:Bickington Steam Railway"}},
{"type":"Feature","geometry":{"type":"Point","coordinates":[-3.6660642,50.5555299]},"properties":{"name":"Trago Central","usage":"tourism","network":"Bickington Steam Railway","railway":"station","operator":"Bickington Steam Railway","platforms":"2"}},
{"type":"Feature","geometry":{"type":"Point","coordinates":[-3.5817621,50.4270397]},"properties":{"name":"Paignton Zoo Railway","usage":"tourism","railway":"station","operator":"Paignton Zoo"}},
{"type":"Feature","geometry":{"type":"Point","coordinates":[-3.1007729,50.6976224]},"properties":{"name":"Much Natter","usage":"tourism","railway":"station"}},
{"type":"Feature","geometry":{"type":"Point","coordinates":[-3.7745489,50.2804378]},"properties":{"name":"Parkside Station","operator":"Kingsbridge and District Light Railway","public_transport":"station","railway":"station","train":"yes","usage":"tourism"}},
{"type":"Feature","geometry":{"type":"Point","coordinates":[-3.7755403,50.2822448]},"properties":{"name":"Kingsbridge Ria End","operator":"Kingsbridge and District Light Railway","public_transport":"station","railway":"station","train":"yes","usage":"tourism"}},
{"type":"Feature","geometry":{"type":"Point","coordinates":[-3.9036851,51.1967627]},"properties":{"name":"Killington Lane","public_transport":"station","railway":"station","train":"yes","usage":"tourism"}},
{"type":"Feature","geometry":{"type":"Point","coordinates":[-3.8874256,51.2017482]},"properties":{"name":"Woody Bay","public_transport":"station","railway":"station","usage":"tourism"}}
]}
