{"type":"FeatureCollection","features":[
{"type":"Feature","geometry":{"type":"Point","coordinates":[-2.0549484,50.6382716]},"properties":{"name":"Corfe Castle","network":"National Rail","public_transport":"station","railway":"station","ref:crs":"CFC","usage":"tourism","wikidata":"Q5170476","wikipedia":"en:Corfe Castle railway station"}},
{"type":"Feature","geometry":{"type":"Point","coordinates":[-2.0266209,50.619793]},"properties":{"name":"Harman's Cross","railway":"station","usage":"tourism","wikidata":"Q5659026"}},
{"type":"Feature","geometry":{"type":"Point","coordinates":[-1.9805576,50.6130813]},"properties":{"name":"Herston Halt","railway":"station","request_stop":"yes","usage":"tourism","wikidata":"Q15223746"}},
{"type":"Feature","geometry":{"type":"Point","coordinates":[-1.7136258,50.752603]},"properties":{"name":"Hinton Admiral","naptan:AtcoCode":"9100HINTONA","network":"National Rail","public_transport":"station","railway":"station","ref:crs":"HNA","source":"NPE","wikidata":"Q1968589","wikipedia":"en:Hinton Admiral railway station"}},
{"type":"Feature","geometry":{"type":"Point","coordinates":[-1.8262081,50.7312347]},"properties":{"name":"Pokesdown","source":"NPE","network":"National Rail","railway":"station","ref:crs":"POK","wikidata":"Q12066077","wikipedia":"en:Pokesdown railway station","naptan:AtcoCode":"9100POKSDWN"}},
{"type":"Feature","geometry":{"type":"Point","coordinates":[-1.9479055,50.7229373]},"properties":{"name":"Parkstone","source":"NPE","network":"National Rail","railway":"station","ref:crs":"PKS","wikidata":"Q7138723","wikipedia":"en:Parkstone railway station","addr:postcode":"BH14 8UD","naptan:AtcoCode":"9100PSTONE"}},
{"type":"Feature","geometry":{"type":"Point","coordinates":[-1.9196847,50.7269847]},"properties":{"name":"Branksome","source":"NPE","network":"National Rail","railway":"station","ref:crs":"BSM","wikidata":"Q4957509","wikipedia":"en:Branksome railway station","addr:postcode":"BH12 1DF","naptan:AtcoCode":"9100BRANKSM"}},
{"type":"Feature","geometry":{"type":"Point","coordinates":[-1.9836745,50.7189814]},"properties":{"name":"Poole","train":"yes","source":"NPE","network":"National Rail","railway":"station","ref:crs":"POO","wikidata":"Q7228632","wikipedia":"en:Poole railway station","wheelchair":"yes","surveillance":"outdoor","addr:postcode":"BH15 2BQ","naptan:AtcoCode":"9100POOLE","public_transport":"station"}},
{"type":"Feature","geometry":{"type":"Point","coordinates":[-2.077724,50.7114998]},"properties":{"name":"Holton Heath","source":"NPE","network":"National Rail","railway":"station","ref:crs":"HOL","wikidata":"Q2271679","wikipedia":"en:Holton Heath railway station","surveillance":"public","naptan:AtcoCode":"9100HOLTONH"}},
{"type":"Feature","geometry":{"type":"Point","coordinates":[-2.3138473,50.701118]},"properties":{"name":"Moreton","network":"National Rail","railway":"station","ref:crs":"MTN","wikidata":"Q2165170","wikipedia":"en:Moreton railway station (Dorset)","source:name":"local knowledge","naptan:AtcoCode":"9100MORETON"}},
{"type":"Feature","geometry":{"type":"Point","coordinates":[-2.2212157,50.6816539]},"properties":{"name":"Wool","network":"National Rail","railway":"station","ref:crs":"WOO","wikidata":"Q2547367","wikipedia":"en:Wool railway station","source:name":"local knowledge","naptan:AtcoCode":"9100WOOL"}},
{"type":"Feature","geometry":{"type":"Point","coordinates":[-1.9602545,50.6099662]},"properties":{"addr:postcode":"BH19 1HB","name":"Swanage","public_transport":"station","railway":"station","train":"yes","usage":"tourism","wikidata":"Q7653554"}},
{"type":"Feature","geometry":{"type":"Point","coordinates":[-2.466093,50.6485094]},"properties":{"name":"Upwey","source":"NPE","network":"National Rail","railway":"station","ref:crs":"UPW","old_name":"Upwey Junction","wikidata":"Q2522736","wikipedia":"en:Upwey railway station (England)","naptan:AtcoCode":"9100UPWEY"}},
{"type":"Feature","geometry":{"type":"Point","coordinates":[-2.5694296,50.7800299]},"properties":{"name":"Maiden Newton","train":"yes","network":"National Rail","railway":"station","ref:crs":"MDN","wikidata":"Q2466692","wikipedia":"en:Maiden Newton railway station","naptan:AtcoCode":"9100MDNNWTN","public_transport":"station"}},
{"type":"Feature","geometry":{"type":"Point","coordinates":[-2.5729547,50.8664916]},"properties":{"name":"Chetnole","source":"NPE","network":"National Rail","railway":"station","ref:crs":"CNO","wikidata":"Q2793642","wikipedia":"en:Chetnole railway station","request_stop":"yes","naptan:AtcoCode":"9100CHETNOL"}},
{"type":"Feature","geometry":{"type":"Point","coordinates":[-2.5738017,50.8957019]},"properties":{"name":"Yetminster","source":"NPE","network":"National Rail","railway":"station","ref:crs":"YET","wikidata":"Q1870455","wikipedia":"en:Yetminster railway station","request_stop":"yes","naptan:AtcoCode":"9100YTMNSTR"}},
{"type":"Feature","geometry":{"type":"Point","coordinates":[-2.5791476,50.9106897]},"properties":{"name":"Thornford","source":"NPE","network":"National Rail","railway":"station","ref:crs":"THO","wikidata":"Q2365529","wikipedia":"en:Thornford railway station","request_stop":"yes","naptan:AtcoCode":"9100THFORD"}},
{"type":"Feature","geometry":{"type":"Point","coordinates":[-2.6129836,50.9446464]},"properties":{"name":"Yeovil Pen Mill","source":"NPE","network":"National Rail","railway":"station","ref:crs":"YVP","wikidata":"Q2213897","wikipedia":"en:Yeovil Pen Mill railway station","naptan:AtcoCode":"9100YOVILPM"}},
{"type":"Feature","geometry":{"type":"Point","coordinates":[-1.7847306,50.7383709]},"properties":{"name":"Christchurch","source":"NPE","network":"National Rail","railway":"station","ref:crs":"CHR","wikidata":"Q5109112","wikipedia":"en:Christchurch railway station (England)","naptan:AtcoCode":"9100CHRISTC"}},
{"type":"Feature","geometry":{"type":"Point","coordinates":[-2.1149086,50.6930546]},"properties":{"name":"Wareham","network":"National Rail","railway":"station","ref:crs":"WRM","wikidata":"Q2754705","wikipedia":"en:Wareham railway station","naptan:AtcoCode":"9100WARHAM"}},
{"type":"Feature","geometry":{"type":"Point","coordinates":[-2.0190513,50.7253686]},"properties":{"name":"Hamworthy","source":"NPE","network":"National Rail","railway":"station","ref:crs":"HAM","wikidata":"Q5646482","addr:city":"Poole","platforms":"2","wikipedia":"en:Hamworthy railway station","addr:street":"Junction Road","addr:postcode":"BH16 5AA","naptan:AtcoCode":"9100HMWTHY"}},
{"type":"Feature","geometry":{"type":"Point","coordinates":[-2.0625676,50.6448236]},"properties":{"addr:city":"Norden","addr:housename":"Swanage Railway","addr:postcode":"BH20 5DW","alt_name":"Norden Park & Ride","alt_name_1":"Norden P&R","email":"Info@swanage-railway.co.uk","name":"Norden","operator":"Swanage Railway","phone":"+44 1929 425800","public_transport":"station","railway":"station","usage":"tourism","website":"https://www.swanagerailway.co.uk/","wikidata":"Q7050598"}},
{"type":"Feature","geometry":{"type":"Point","coordinates":[-2.4548801,50.6159215]},"properties":{"name":"Weymouth","network":"National Rail","railway":"station","ref:crs":"WEY","wikidata":"Q2573733","wikipedia":"en:Weymouth railway station","wheelchair":"yes","naptan:AtcoCode":"9100WEYMTH","public_transport":"station"}},
{"type":"Feature","geometry":{"type":"Point","coordinates":[-2.2720765,51.0340876]},"properties":{"name":"Gillingham","network":"National Rail","railway":"station","ref:crs":"GIL","wikidata":"Q2731470","wikipedia":"en:Gillingham railway station (Dorset)","naptan:AtcoCode":"9100GLHM"}},
{"type":"Feature","geometry":{"type":"Point","coordinates":[-2.5129696,50.943979]},"properties":{"name":"Sherborne","source":"gps_survey","network":"National Rail","railway":"station","ref:crs":"SHE","wikidata":"Q2407888","wikipedia":"en:Sherborne railway station","naptan:AtcoCode":"9100SHERBRN"}},
{"type":"Feature","geometry":{"type":"Point","coordinates":[-2.6122447,50.9248143]},"properties":{"name":"Yeovil Junction","network":"National Rail","railway":"station","ref:crs":"YVJ","wikidata":"Q801650","wikipedia":"en:Yeovil Junction railway station","naptan:AtcoCode":"9100YOVILJN"}},
{"type":"Feature","geometry":{"type":"Point","coordinates":[-1.8641943,50.7272094]},"properties":{"name":"Bournemouth","name:en":"Bournemouth","name:lt":"Bornmutas","network":"National Rail","railway":"station","ref:crs":"BMH","wikidata":"Q4950306","wikipedia":"en:Bournemouth railway station","naptan:AtcoCode":"9100BOMO","public_transport":"station"}},
{"type":"Feature","geometry":{"type":"Point","coordinates":[-2.4426484,50.7109324]},"properties":{"name":"Dorchester West","train":"yes","network":"National Rail","railway":"station","ref:crs":"DCW","operator":"Great Western Railway","wikidata":"Q5297625","wikipedia":"en:Dorchester West railway station","wheelchair":"yes","naptan:AtcoCode":"9100DRCHW","public_transport":"station"}},
{"type":"Feature","geometry":{"type":"Point","coordinates":[-2.4374501,50.7091366]},"properties":{"name":"Dorchester South","train":"yes","source":"NPE tracing","network":"National Rail","railway":"station","ref:crs":"DCH","operator":"South West Trains","wikidata":"Q5297623","wikipedia":"en:Dorchester South railway station","postal_code":"DT1 1QX","naptan:AtcoCode":"9100DRCHS","public_transport":"station"}},
{"type":"Feature","geometry":{"type":"Point","coordinates":[-1.9647209,50.7203394]},"properties":{"name":"Poole Park","usage":"tourism","railway":"station"}},
{"type":"Feature","geometry":{"type":"Point","coordinates":[-2.4455866,50.6258855]},"properties":{"name":"Weymouth Bay Miniature Railway","type":"miniature station","phone":"+44 7971 450108","usage":"tourism","railway":"station","website":"http://www.vizzitdorset.co.uk/directory/attractions/miniature-railway.html","wheelchair":"no","addr:postcode":"DT4 7SX"}}
]}
