{"type":"FeatureCollection","features":[
{"type":"Feature","geometry":{"type":"Point","coordinates":[-2.0030416,54.7431657]},"properties":{"name":"Stanhope","train":"yes","usage":"tourism","railway":"station","public_transport":"station"}},
{"type":"Feature","geometry":{"type":"Point","coordinates":[-1.6777593,54.6572039]},"properties":{"name":"Bishop Auckland","train":"yes","network":"National Rail","railway":"station","ref:crs":"BIA","wikidata":"Q2347286","wikipedia":"en:Bishop Auckland railway station","naptan:AtcoCode":"9100BSAUKLD","public_transport":"station"}},
{"type":"Feature","geometry":{"type":"Point","coordinates":[-1.6367101,54.6261932]},"properties":{"name":"Shildon","source":"NPE","network":"National Rail","railway":"station","ref:crs":"SHD","operator":"Northern","wikidata":"Q2203193","wikipedia":"en:Shildon railway station","naptan:AtcoCode":"9100SHDN","public_transport":"station"}},
{"type":"Feature","geometry":{"type":"Point","coordinates":[-1.467126,54.5149831]},"properties":{"name":"Dinsdale","source":"NPE","network":"National Rail","railway":"station","ref:crs":"DND","operator":"Northern","wikidata":"Q1868098","wikipedia":"en:Dinsdale railway station","naptan:AtcoCode":"9100DINSDAL","public_transport":"station"}},
{"type":"Feature","geometry":{"type":"Point","coordinates":[-1.31817,54.569874]},"properties":{"name":"Stockton","source":"Bing","network":"National Rail","railway":"station","ref:crs":"STK","operator":"Northern Rail","wikidata":"Q2749128","wikipedia":"en:Stockton railway station (County Durham)","naptan:AtcoCode":"9100STOCTON","public_transport":"station"}},
{"type":"Feature","geometry":{"type":"Point","coordinates":[-1.8843934,54.7262139]},"properties":{"name":"Wolsingham","train":"yes","usage":"tourism","railway":"station","public_transport":"station"}},
{"type":"Feature","geometry":{"type":"Point","coordinates":[-1.9640653,54.7269097]},"properties":{"name":"Frosterley","train":"yes","usage":"tourism","railway":"station","public_transport":"station"}},
{"type":"Feature","geometry":{"type":"Point","coordinates":[-1.686687,54.8973288]},"properties":{"name":"Causey Arch","usage":"tourism","railway":"station"}},
{"type":"Feature","geometry":{"type":"Point","coordinates":[-1.6757238,54.9084456]},"properties":{"name":"Andrews House","railway":"station","usage":"tourism","wheelchair":"yes"}},
{"type":"Feature","geometry":{"type":"Point","coordinates":[-1.6993591,54.8884621]},"properties":{"name":"East Tanfield","usage":"tourism","railway":"station"}},
{"type":"Feature","geometry":{"type":"Point","coordinates":[-1.5897097,54.613739]},"properties":{"name":"Newton Aycliffe","source":"NPE","network":"National Rail","railway":"station","ref:crs":"NAY","wikidata":"Q2609531","wikipedia":"en:Newton Aycliffe railway station","naptan:AtcoCode":"9100NWTA","public_transport":"station"}},
{"type":"Feature","geometry":{"type":"Point","coordinates":[-1.3497203,54.5300894]},"properties":{"name":"Eaglescliffe","naptan:AtcoCode":"9100EGLSCLF","network":"National Rail","operator":"Northern Rail","public_transport":"station","railway":"station","ref:crs":"EAG","source":"npe","wikidata":"Q2239157","wikipedia":"en:Eaglescliffe railway station"}},
{"type":"Feature","geometry":{"type":"Point","coordinates":[-1.3383249,54.5379185]},"properties":{"name":"Tees Small Gauge Railway","usage":"tourism","railway":"station"}},
{"type":"Feature","geometry":{"type":"Point","coordinates":[-1.6814853,54.6571182]},"properties":{"name":"Bishop Auckland West (Weardale Railway)","train":"yes","usage":"tourism","railway":"station","public_transport":"station"}},
{"type":"Feature","geometry":{"type":"Point","coordinates":[-1.2795366,54.6057149]},"properties":{"name":"Billingham","train":"yes","name:en":"Billingham","name:lt":"Bilinghamas","network":"National Rail","railway":"station","ref:crs":"BIL","operator":"Northern Rail","wikidata":"Q3488349","wikipedia":"en:Billingham railway station","addr:postcode":"TS23 3TG","naptan:AtcoCode":"9100BLNGHM","public_transport":"station"}},
{"type":"Feature","geometry":{"type":"Point","coordinates":[-1.6645975,54.8862872]},"properties":{"name":"Dipwood Halt","usage":"tourism","railway":"station"}},
{"type":"Feature","geometry":{"type":"Point","coordinates":[-1.581751,54.5971091]},"properties":{"name":"Heighington","source":"NPE","network":"National Rail","railway":"station","ref:crs":"HEI","operator":"Northern","wikidata":"Q934808","wikipedia":"en:Heighington railway station","naptan:AtcoCode":"9100HGHNGTN","public_transport":"station"}},
{"type":"Feature","geometry":{"type":"Point","coordinates":[-1.346378,54.839091]},"properties":{"name":"Seaham","network":"National Rail","railway":"station","ref:crs":"SEA","operator":"Northern Rail","wikipedia":"en:Seaham railway station","naptan:AtcoCode":"9100SEAHAM","public_transport":"station"}},
{"type":"Feature","geometry":{"type":"Point","coordinates":[-1.2005633,54.6580139]},"properties":{"name":"Seaton Carew","source":"Bing","network":"National Rail","railway":"station","ref:crs":"SEC","operator":"Northern Rail","wikipedia":"en:Seaton Carew railway station","naptan:AtcoCode":"9100SETNCRW","public_transport":"station"}},
{"type":"Feature","geometry":{"type":"Point","coordinates":[-1.3616516,54.524557]},"properties":{"name":"Allens West","network":"National Rail","railway":"station","ref:crs":"ALW","wikidata":"Q2184547","wikipedia":"en:Allens West railway station","naptan:AtcoCode":"9100ALLENSW","public_transport":"station"}},
{"type":"Feature","geometry":{"type":"Point","coordinates":[-1.5537227,54.5356878]},"properties":{"name":"North Road","naptan:AtcoCode":"9100NTRD","network":"National Rail","public_transport":"station","railway":"station","ref:crs":"NRD","source":"OS_OpenData_StreetView","train":"yes","wikidata":"Q2432748","wikipedia":"en:North Road railway station"}},
{"type":"Feature","geometry":{"type":"Point","coordinates":[-1.7673115,54.6761296]},"properties":{"name":"Witton-le-Wear","train":"yes","usage":"tourism","network":"Weardale Railway","railway":"station","operator":"Weardale Railway","public_transport":"station"}},
{"type":"Feature","geometry":{"type":"Point","coordinates":[-1.4253339,54.5185307]},"properties":{"name":"Teesside Airport","train":"yes","network":"National Rail","railway":"station","ref:crs":"TEA","old_name":"Tees-side Airport","operator":"Northern","wikidata":"Q2054892","wikipedia":"en:Teesside Airport railway station","naptan:AtcoCode":"9100TSDARPR","public_transport":"station"}},
{"type":"Feature","geometry":{"type":"Point","coordinates":[-1.207832,54.6868261]},"properties":{"name":"Hartlepool","phone":"+44 333 222 0125","source":"http://www.nationalrail.co.uk/stations_destinations/HPL.aspx","network":"National Rail","railway":"station","ref:crs":"HPL","website":"http://www.nationalrail.co.uk/stations_destinations/HPL.aspx","operator":"Northern Rail","wikidata":"Q4046880","addr:city":"Hartlepool","wikipedia":"en:Hartlepool railway station","wheelchair":"yes","addr:street":"Station Road","addr:postcode":"TS24 7ED","addr:housename":"Station Approach","naptan:AtcoCode":"9100HRTLEPL","public_transport":"station"}},
{"type":"Feature","geometry":{"type":"Point","coordinates":[-1.5466938,54.5207294]},"properties":{"name":"Darlington","source":"OS_OpenData_SteetView","name:lt":"Darlingtonas","network":"National Rail","railway":"station","ref:crs":"DAR","wikidata":"Q2286393","wikipedia":"en:Darlington railway station","naptan:AtcoCode":"9100DLTN","public_transport":"station"}},
{"type":"Feature","geometry":{"type":"Point","coordinates":[-1.5782541,54.8545355]},"properties":{"name":"Chester-le-Street","train":"yes","network":"National Rail","railway":"station","ref:crs":"CLS","wikidata":"Q2642125","platforms":"2","wikipedia":"en:Chester-le-Street railway station","naptan:AtcoCode":"9100CLST","public_transport":"station"}},
{"type":"Feature","geometry":{"type":"Point","coordinates":[-1.5815122,54.7797488]},"properties":{"name":"Durham","train":"yes","network":"National Rail","railway":"station","ref:crs":"DHM","wikidata":"Q2407800","platforms":"2","wikipedia":"en:Durham railway station","naptan:AtcoCode":"9100DRHM","public_transport":"station"}},
{"type":"Feature","geometry":{"type":"Point","coordinates":[-1.3073466,54.7638786]},"properties":{"name":"Horden","train":"yes","network":"National Rail","railway":"station","ref:crs":"HRE","alt_name":"Horden Peterlee","wikidata":"Q38250965","wikipedia":"en:Horden railway station","ref:tiploc":"HORD","public_transport":"station"}}
]}
