{"type":"FeatureCollection","features":[
{"type":"Feature","geometry":{"type":"Point","coordinates":[0.1526024,51.1284231]},"properties":{"addr:postcode":"TN3 9TL","name":"Ashurst","naptan:AtcoCode":"9100ASHURST","network":"National Rail","public_transport":"station","railway":"station","ref:crs":"AHS","source":"gps","wikidata":"Q2393085","wikipedia":"en:Ashurst railway station"}},
{"type":"Feature","geometry":{"type":"Point","coordinates":[0.6100875,50.9186526]},"properties":{"name":"Doleham","source":"NPE","network":"National Rail","railway":"station","ref:crs":"DLH","wikidata":"Q2174016","wikipedia":"en:Doleham railway station","naptan:AtcoCode":"9100DOLEHAM"}},
{"type":"Feature","geometry":{"type":"Point","coordinates":[0.576804,50.8582685]},"properties":{"name":"Hastings","network":"National Rail","railway":"station","ref:crs":"HGS","wikidata":"Q2556633","addr:city":"Hastings","wikipedia":"en:Hastings railway station","naptan:AtcoCode":"9100HASTING","public_transport":"station","wikimedia_commons":"Category:Hastings railway station"}},
{"type":"Feature","geometry":{"type":"Point","coordinates":[-0.0012346,50.9955844]},"properties":{"name":"Sheffield Park","operator":"Bluebell Railway","railway":"station","railway:preserved":"yes","source":"npe","toilets:wheelchair":"yes","usage":"tourism","website":"http://www.bluebell-railway.co.uk","wheelchair":"yes","wikidata":"Q7492725"}},
{"type":"Feature","geometry":{"type":"Point","coordinates":[0.1881269,51.1122902]},"properties":{"name":"Groombridge","public_transport":"station","railway":"station","tourism":"preserved_railway","usage":"tourism","wikidata":"Q5610271"}},
{"type":"Feature","geometry":{"type":"Point","coordinates":[0.6138687,51.0094167]},"properties":{"name":"Northiam","note":"Explicitly named on NPE","usage":"tourism","source":"survey","railway":"station","tourism":"preserved_railway","wikidata":"Q7059479"}},
{"type":"Feature","geometry":{"type":"Point","coordinates":[0.5389926,50.9966492]},"properties":{"name":"Bodiam","usage":"tourism","railway":"station","tourism":"preserved_railway","wikidata":"Q4936557"}},
{"type":"Feature","geometry":{"type":"Point","coordinates":[0.3633763,51.0201831]},"properties":{"name":"Stonegate","source":"NPE","network":"National Rail","railway":"station","ref:crs":"SOG","wikidata":"Q2192587","wikipedia":"en:Stonegate railway station","naptan:AtcoCode":"9100SNGT"}},
{"type":"Feature","geometry":{"type":"Point","coordinates":[0.0652609,50.9351956]},"properties":{"name":"Isfield","usage":"tourism","railway":"station","website":"https://www.lavender-line.co.uk","operator":"The Lavender Line","wikidata":"Q6079829","railway:preserved":"yes"}},
{"type":"Feature","geometry":{"type":"Point","coordinates":[0.0113494,50.8705975]},"properties":{"name":"Lewes","network":"National Rail","railway":"station","ref:crs":"LWS","website":"https://www.nationalrail.co.uk/stations_destinations/LWS.aspx","wikidata":"Q933911","addr:city":"Lewes","wikipedia":"en:Lewes railway station","wheelchair":"yes","naptan:AtcoCode":"9100LEWES","public_transport":"station"}},
{"type":"Feature","geometry":{"type":"Point","coordinates":[0.5870103,50.8570022]},"properties":{"usage":"tourism","source":"OS_OpenData_StreetView","railway":"station"}},
{"type":"Feature","geometry":{"type":"Point","coordinates":[0.5947674,50.8563763]},"properties":{"usage":"tourism","railway":"station"}},
{"type":"Feature","geometry":{"type":"Point","coordinates":[0.5887109,50.855119]},"properties":{"usage":"tourism","source":"OS OpenData StreetView","railway":"station"}},
{"type":"Feature","geometry":{"type":"Point","coordinates":[0.595146,50.8558522]},"properties":{"railway":"station","source":"OS OpenData StreetView","usage":"tourism"}},
{"type":"Feature","geometry":{"type":"Point","coordinates":[0.2245277,51.1225275]},"properties":{"name":"High Rocks","train":"yes","usage":"tourism","railway":"station","tourism":"preserved_railway","wikidata":"Q15223909","public_transport":"station"}},
{"type":"Feature","geometry":{"type":"Point","coordinates":[0.2874059,50.7882891]},"properties":{"name":"Eastbourne Miniature Steam Railway","usage":"tourism","railway":"station"}},
{"type":"Feature","geometry":{"type":"Point","coordinates":[0.0735252,50.9470024]},"properties":{"name":"Worth Halt","usage":"tourism","railway":"station","website":"https://www.lavender-line.co.uk","operator":"The Lavender Line","railway:preserved":"yes"}},
{"type":"Feature","geometry":{"type":"Point","coordinates":[0.595396,50.8567794]},"properties":{"usage":"tourism","railway":"station"}},
{"type":"Feature","geometry":{"type":"Point","coordinates":[0.1635615,50.8231964]},"properties":{"name":"Mungo's Central Station","railway":"station","usage":"tourism"}},
{"type":"Feature","geometry":{"type":"Point","coordinates":[0.4694494,50.9855847]},"properties":{"name":"Robertsbridge Junction","public_transport":"station","railway":"station","usage":"tourism"}},
{"type":"Feature","geometry":{"type":"Point","coordinates":[0.4949488,50.9129442]},"properties":{"name":"Battle","naptan:AtcoCode":"9100BATTLE","network":"National Rail","public_transport":"station","railway":"station","ref:crs":"BAT","source":"NPE","wikidata":"Q4873077","wikipedia":"en:Battle railway station"}},
{"type":"Feature","geometry":{"type":"Point","coordinates":[0.5011273,50.8887481]},"properties":{"name":"Crowhurst","source":"NPE","network":"National Rail","railway":"station","ref:crs":"CWU","wikidata":"Q2323354","wikipedia":"en:Crowhurst railway station","naptan:AtcoCode":"9100CRWHRST"}},
{"type":"Feature","geometry":{"type":"Point","coordinates":[0.5400543,50.8531678]},"properties":{"name":"West St Leonards","network":"National Rail","railway":"station","ref:crs":"WLD","wikidata":"Q2335526","wikipedia":"en:West St Leonards railway station","naptan:AtcoCode":"9100WSLE"}},
{"type":"Feature","geometry":{"type":"Point","coordinates":[0.4424408,51.0106213]},"properties":{"name":"Etchingham","train":"yes","source":"NPE","network":"National Rail","railway":"station","ref:crs":"ETC","wikidata":"Q2498415","wikipedia":"en:Etchingham railway station","naptan:AtcoCode":"9100ETCHNGM","public_transport":"station"}},
{"type":"Feature","geometry":{"type":"Point","coordinates":[0.4686815,50.9855542]},"properties":{"addr:city":"Robertsbridge","addr:postcode":"TN32 5DJ","addr:street":"Station Road","name":"Robertsbridge","naptan:AtcoCode":"9100RBRTSBD","network":"National Rail","public_transport":"station","railway":"station","ref:crs":"RBR","wikidata":"Q2012525","wikipedia":"en:Robertsbridge railway station"}},
{"type":"Feature","geometry":{"type":"Point","coordinates":[0.0998587,50.7728158]},"properties":{"name":"Seaford","network":"National Rail","railway":"station","ref:crs":"SEF","operator":"Southern","wikidata":"Q1877282","wikipedia":"en:Seaford railway station (England)","naptan:AtcoCode":"9100SEAFORD","public_transport":"station"}},
{"type":"Feature","geometry":{"type":"Point","coordinates":[0.3130406,51.0733883]},"properties":{"name":"Wadhurst","network":"National Rail","railway":"station","ref:crs":"WAD","website":"http://www.nationalrail.co.uk/stations/wad/details.html","postcode":"TN5 6RZ","wikidata":"Q2235931","wikipedia":"en:Wadhurst railway station","wheelchair":"no","addr:street":"Station Road","naptan:AtcoCode":"9100WADHRST"}},
{"type":"Feature","geometry":{"type":"Point","coordinates":[0.2943374,51.1040897]},"properties":{"name":"Frant","source":"NPE","network":"National Rail","railway":"station","ref:crs":"FRT","wikidata":"Q1913083","wikipedia":"en:Frant railway station","naptan:AtcoCode":"9100FRANT"}},
{"type":"Feature","geometry":{"type":"Point","coordinates":[0.0966299,50.9687382]},"properties":{"name":"Uckfield","source":"Landsat photo","network":"National Rail","railway":"station","ref:crs":"UCK","wikidata":"Q2209876","wikipedia":"en:Uckfield railway station","addr:postcode":"TN22 1HS","naptan:AtcoCode":"9100UCKFILD"}},
{"type":"Feature","geometry":{"type":"Point","coordinates":[0.2009551,51.0892419]},"properties":{"name":"Eridge","train":"yes","source":"bing","network":"National Rail","railway":"station","ref:crs":"ERI","wikidata":"Q2564605","wikipedia":"en:Eridge railway station","addr:postcode":"TN3 9LE","naptan:AtcoCode":"9100ERIDGE","public_transport":"station"}},
{"type":"Feature","geometry":{"type":"Point","coordinates":[0.1880389,51.0462372]},"properties":{"name":"Crowborough","network":"National Rail","railway":"station","ref:crs":"COH","wikidata":"Q2537407","wikipedia":"en:Crowborough railway station","addr:street":"Farningham Road","addr:postcode":"TN6 2JR","naptan:AtcoCode":"9100CBGH"}},
{"type":"Feature","geometry":{"type":"Point","coordinates":[0.1314195,50.9900553]},"properties":{"name":"Buxted","source":"Landsat photo","network":"National Rail","railway":"station","ref:crs":"BXD","wikidata":"Q1997262","wikipedia":"en:Buxted railway station","addr:postcode":"TN22 4LA","naptan:AtcoCode":"9100BXTD"}},
{"type":"Feature","geometry":{"type":"Point","coordinates":[0.7025193,50.9339128]},"properties":{"name":"Winchelsea","train":"yes","network":"National Rail","railway":"station","ref:crs":"WSE","wikidata":"Q2692300","wikipedia":"en:Winchelsea railway station","naptan:AtcoCode":"9100WINCHLS","public_transport":"station"}},
{"type":"Feature","geometry":{"type":"Point","coordinates":[0.6133315,50.9009344]},"properties":{"name":"Three Oaks","train":"yes","network":"National Rail","railway":"station","ref:crs":"TOK","wikidata":"Q2798366","wikipedia":"en:Three Oaks railway station","naptan:AtcoCode":"9100THOK","public_transport":"station","wikimedia_commons":"Category:Three Oaks railway station"}},
{"type":"Feature","geometry":{"type":"Point","coordinates":[0.5919722,50.8669622]},"properties":{"name":"Ore","source":"NPE","network":"National Rail","railway":"station","ref:crs":"ORE","wikidata":"Q1818015","wikipedia":"en:Ore railway station","naptan:AtcoCode":"9100OREE","public_transport":"station","wikimedia_commons":"Category:Ore railway station"}},
{"type":"Feature","geometry":{"type":"Point","coordinates":[0.5605979,50.8557579]},"properties":{"name":"St Leonards Warrior Square","naptan:AtcoCode":"9100STLNRWS","network":"National Rail","public_transport":"station","railway":"station","ref:crs":"SLQ","wikidata":"Q3047264","wikipedia":"en:St Leonards Warrior Square railway station"}},
{"type":"Feature","geometry":{"type":"Point","coordinates":[0.4757302,50.840942]},"properties":{"name":"Bexhill","source":"NPE","name:en":"Bexhill","name:lt":"Bekshilis","network":"National Rail","railway":"station","ref:crs":"BEX","old_name":"Bexhill Central","operator":"Southern","platforms":"2","wikipedia":"en:Bexhill railway station","start_date":"1902","naptan:AtcoCode":"9100BEXHILL","public_transport":"station","wikimedia_commons":"File:'When Shall We Two Meet Again', Bexhill-on-Sea - geograph.org.uk - 703323.jpg"}},
{"type":"Feature","geometry":{"type":"Point","coordinates":[0.4571842,50.8392876]},"properties":{"name":"Collington","naptan:AtcoCode":"9100CTNG","network":"National Rail","old_name":"West Bexhill Halt","operator":"Southern","platforms":"2","public_transport":"station","railway":"station","ref:crs":"CLL","source":"NPE","start_date":"1905-09-11","wikidata":"Q5147285","wikimedia_commons":"File:Collington Railway Station.jpg","wikipedia":"en:Collington railway station"}},
{"type":"Feature","geometry":{"type":"Point","coordinates":[0.4267026,50.8333713]},"properties":{"name":"Cooden Beach","naptan:AtcoCode":"9100CODNBCH","network":"National Rail","old_name":"Cooden Golf Halt","operator":"Southern","platforms":"2","public_transport":"station","railway":"station","ref:crs":"COB","source":"NPE","start_date":"1905-09-11","wikidata":"Q5166835","wikimedia_commons":"File:Cooden Beach station geograph-3317832-by-Ben-Brooksbank.jpg","wikipedia":"en:Cooden Beach railway station"}},
{"type":"Feature","geometry":{"type":"Point","coordinates":[0.3895764,50.8260497]},"properties":{"name":"Normans Bay","naptan:AtcoCode":"9100NRMNSBY","network":"National Rail","old_name":"Normans Bay Halt","railway":"station","ref:crs":"NSB","source":"NPE","start_date":"1905-09-11","wikidata":"Q2324161","wikimedia_commons":"File:Norman's Bay, Railway Station - geograph.org.uk - 1174747.jpg","wikipedia":"en:Normans Bay railway station"}},
{"type":"Feature","geometry":{"type":"Point","coordinates":[0.3431985,50.8176698]},"properties":{"name":"Pevensey Bay","network":"National Rail","railway":"station","ref:crs":"PEB","wikidata":"Q2721185","wikipedia":"en:Pevensey Bay railway station","naptan:AtcoCode":"9100PVNSYBY","public_transport":"station"}},
{"type":"Feature","geometry":{"type":"Point","coordinates":[0.3253781,50.8157704]},"properties":{"name":"Pevensey and Westham","naptan:AtcoCode":"9100PVNSYAW","network":"National Rail","public_transport":"station","railway":"station","ref:crs":"PEV","wikidata":"Q2280818","wikipedia":"en:Pevensey & Westham railway station"}},
{"type":"Feature","geometry":{"type":"Point","coordinates":[0.0306729,50.83111]},"properties":{"name":"Southease","network":"National Rail","railway":"station","ref:crs":"SEE","old_name":"Southease and Rodmell Halt","wikidata":"Q5830819","wikipedia":"en:Southease railway station","naptan:AtcoCode":"9100SESARDM","public_transport":"station"}},
{"type":"Feature","geometry":{"type":"Point","coordinates":[0.0826201,50.7799859]},"properties":{"name":"Bishopstone","note":"approximate position","network":"National Rail","railway":"station","ref:crs":"BIP","wikidata":"Q2330749","wikipedia":"en:Bishopstone railway station","naptan:AtcoCode":"9100BSSN","public_transport":"station"}},
{"type":"Feature","geometry":{"type":"Point","coordinates":[0.0551622,50.7898002]},"properties":{"name":"Newhaven Harbour","network":"National Rail","railway":"station","ref:crs":"NVH","wikidata":"Q2413496","wikipedia":"en:Newhaven Harbour railway station","naptan:AtcoCode":"9100NEWHVNH","public_transport":"station"}},
{"type":"Feature","geometry":{"type":"Point","coordinates":[0.0551243,50.7949162]},"properties":{"name":"Newhaven Town","source":"NPE","network":"National Rail","railway":"station","ref:crs":"NVN","wikidata":"Q2293851","wikipedia":"en:Newhaven Town railway station","wheelchair":"yes","naptan:AtcoCode":"9100NEWHVNT","public_transport":"station"}},
{"type":"Feature","geometry":{"type":"Point","coordinates":[0.0703481,50.8591176]},"properties":{"name":"Glynde","naptan:AtcoCode":"9100GLYNDE","network":"National Rail","public_transport":"station","railway":"station","ref:crs":"GLY","wikidata":"Q2540646","wikipedia":"en:Glynde railway station"}},
{"type":"Feature","geometry":{"type":"Point","coordinates":[0.1657244,50.8404862]},"properties":{"name":"Berwick","source":"NPE","network":"National Rail","railway":"station","ref:crs":"BRK","wikidata":"Q4895976","wikipedia":"en:Berwick railway station (East Sussex)","naptan:AtcoCode":"9100BERWICK"}},
{"type":"Feature","geometry":{"type":"Point","coordinates":[0.2467483,50.8211277]},"properties":{"name":"Polegate","naptan:AtcoCode":"9100POLGATE","network":"National Rail","public_transport":"station","railway":"station","ref:crs":"PLG","wikidata":"Q1928088","wikipedia":"en:Polegate railway station"}},
{"type":"Feature","geometry":{"type":"Point","coordinates":[0.2815355,50.7696435]},"properties":{"name":"Eastbourne","network":"National Rail","railway":"station","ref:crs":"EBN","wikidata":"Q800700","wikipedia":"en:Eastbourne railway station","naptan:AtcoCode":"9100EBOURNE","public_transport":"station"}},
{"type":"Feature","geometry":{"type":"Point","coordinates":[0.2794114,50.796647]},"properties":{"name":"Hampden Park","naptan:AtcoCode":"9100HMPDNPK","network":"National Rail","public_transport":"station","railway":"station","ref:crs":"HMD","source":"NPE","wikidata":"Q2163730","wikipedia":"en:Hampden Park railway station"}},
{"type":"Feature","geometry":{"type":"Point","coordinates":[-0.0598099,50.9284626]},"properties":{"name":"Plumpton","naptan:AtcoCode":"9100PLMPTON","network":"National Rail","public_transport":"station","railway":"station","ref:crs":"PMP","source":"NPE","wikidata":"Q7205476","wikipedia":"en:Plumpton railway station"}},
{"type":"Feature","geometry":{"type":"Point","coordinates":[-0.0093086,50.9037132]},"properties":{"name":"Cooksbridge","naptan:AtcoCode":"9100COKSBDG","network":"National Rail","public_transport":"station","railway":"station","ref:crs":"CBR","wikidata":"Q3341575","wikipedia":"en:Cooksbridge railway station"}},
{"type":"Feature","geometry":{"type":"Point","coordinates":[0.7310208,50.952632]},"properties":{"name":"Rye","train":"yes","network":"National Rail","railway":"station","ref:crs":"RYE","wikidata":"Q7384993","wikipedia":"en:Rye railway station (East Sussex)","naptan:AtcoCode":"9100RYEE","public_transport":"station"}},
{"type":"Feature","geometry":{"type":"Point","coordinates":[0.1922341,50.9959245]},"properties":{"name":"Hadlow Down","train":"yes","usage":"tourism","railway":"station","public_transport":"station"}},
{"type":"Feature","geometry":{"type":"Point","coordinates":[0.587712,50.8556888]},"properties":{"public_transport":"station","railway":"station","usage":"tourism"}}
]}
