{"type":"FeatureCollection","features":[
{"type":"Feature","geometry":{"type":"Point","coordinates":[0.9054279,51.8865086]},"properties":{"name":"Colchester Town","naptan:AtcoCode":"9100CLCHRTN","network":"National Rail","old_name":"St Botolph's","operator":"Abellio Greater Anglia","platforms":"1","public_transport":"station","railway":"station","ref:crs":"CET","wikidata":"Q4489756","wikipedia":"en:Colchester Town railway station"}},
{"type":"Feature","geometry":{"type":"Point","coordinates":[0.6591207,51.6036209]},"properties":{"name":"Hockley","source":"NPE","network":"National Rail","railway":"station","ref:crs":"HOC","wikidata":"Q2288120","wikipedia":"en:Hockley railway station (Essex)","wheelchair":"yes","naptan:AtcoCode":"9100HOCKLEY"}},
{"type":"Feature","geometry":{"type":"Point","coordinates":[0.6817622,51.6486316]},"properties":{"name":"North Fambridge","network":"National Rail","railway":"station","ref:crs":"NFA","wikidata":"Q2611356","wikipedia":"en:North Fambridge railway station","naptan:AtcoCode":"9100FAMBDGE","public_transport":"station"}},
{"type":"Feature","geometry":{"type":"Point","coordinates":[0.5956683,51.8390134]},"properties":{"name":"White Notley","network":"National Rail","railway":"station","ref:crs":"WNY","wikidata":"Q1817277","wikipedia":"en:White Notley railway station","naptan:AtcoCode":"9100WNOTLEY"}},
{"type":"Feature","geometry":{"type":"Point","coordinates":[0.5779203,51.852306]},"properties":{"name":"Cressing","train":"yes","network":"National Rail","railway":"station","ref:crs":"CES","wikidata":"Q1886114","wikipedia":"en:Cressing railway station","naptan:AtcoCode":"9100CRESING","public_transport":"station"}},
{"type":"Feature","geometry":{"type":"Point","coordinates":[0.5681965,51.8692939]},"properties":{"name":"Braintree Freeport","note":"FIXME location approximate, judged from landsat","train":"yes","network":"National Rail","railway":"station","ref:crs":"BTP","wikidata":"Q2540597","wikipedia":"en:Braintree Freeport railway station","addr:street":"Chapel Hill Retail Park","addr:postcode":"CM77 8YH","naptan:AtcoCode":"9100BRAINFP","public_transport":"station"}},
{"type":"Feature","geometry":{"type":"Point","coordinates":[0.6002479,51.5894866]},"properties":{"name":"Rayleigh","source":"NPE","network":"National Rail","railway":"station","ref:crs":"RLG","wikidata":"Q2290604","wikipedia":"en:Rayleigh railway station","wheelchair":"yes","naptan:AtcoCode":"9100RAYLEGH","wheelchair:description":"Book in advance. Access to train via ramp. Use entrance from Station Road for trains to London and booking hall. Use entrance from The Approach for trains to Southend."}},
{"type":"Feature","geometry":{"type":"Point","coordinates":[0.7021425,51.5816749]},"properties":{"name":"Rochford","source":"NPE","network":"National Rail","railway":"station","ref:crs":"RFD","wikidata":"Q2859251","wikipedia":"en:Rochford railway station","naptan:AtcoCode":"9100ROCHFD"}},
{"type":"Feature","geometry":{"type":"Point","coordinates":[1.2804944,51.9388367]},"properties":{"name":"Dovercourt","train":"yes","network":"National Rail","railway":"station","ref:crs":"DVC","operator":"Abellio East Anglia","wikidata":"Q2135790","wikipedia":"en:Dovercourt railway station","naptan:AtcoCode":"9100DOVRCRT","public_transport":"station"}},
{"type":"Feature","geometry":{"type":"Point","coordinates":[0.7586045,51.9258987]},"properties":{"name":"Chappel and Wakes Colne","naptan:AtcoCode":"9100CHPWKSC","network":"National Rail","railway":"station","ref:crs":"CWC","source":"NPE","wikidata":"Q2666580","wikipedia":"en:Chappel & Wakes Colne railway station"}},
{"type":"Feature","geometry":{"type":"Point","coordinates":[0.7691382,51.9712069]},"properties":{"name":"Bures","source":"NPE","network":"National Rail","railway":"station","ref:crs":"BUE","wikidata":"Q2069489","wikipedia":"en:Bures railway station","naptan:AtcoCode":"9100BURES"}},
{"type":"Feature","geometry":{"type":"Point","coordinates":[0.5918178,51.7798721]},"properties":{"name":"Hatfield Peverel","network":"National Rail","railway":"station","ref:crs":"HAP","wikidata":"Q5576323","wikipedia":"en:Hatfield Peverel railway station","naptan:AtcoCode":"9100HFLPEVL","public_transport":"station"}},
{"type":"Feature","geometry":{"type":"Point","coordinates":[1.081649,51.9435862]},"properties":{"name":"Mistley","source":"NPE","network":"National Rail","railway":"station","ref:crs":"MIS","wikidata":"Q2053659","wikipedia":"en:Mistley railway station","wheelchair":"yes","naptan:AtcoCode":"9100MISTLEY"}},
{"type":"Feature","geometry":{"type":"Point","coordinates":[0.217517,52.0192173]},"properties":{"name":"Audley End Miniature Railway","public_transport":"station","railway":"station","usage":"tourism"}},
{"type":"Feature","geometry":{"type":"Point","coordinates":[1.1609726,51.8477944]},"properties":{"name":"Thorpe-le-Soken","network":"National Rail","railway":"station","ref:crs":"TLS","wikidata":"Q2802841","wikipedia":"en:Thorpe-le-Soken railway station","naptan:AtcoCode":"9100THPLESK"}},
{"type":"Feature","geometry":{"type":"Point","coordinates":[1.2137971,51.8415069]},"properties":{"name":"Kirby Cross","network":"National Rail","railway":"station","ref:crs":"KBX","wikidata":"Q2205087","wikipedia":"en:Kirby Cross railway station","naptan:AtcoCode":"9100KIRBYX"}},
{"type":"Feature","geometry":{"type":"Point","coordinates":[1.2433218,51.8377612]},"properties":{"name":"Frinton-on-Sea","network":"National Rail","railway":"station","ref:crs":"FRI","wikidata":"Q5504626","wikipedia":"en:Frinton-on-Sea railway station","naptan:AtcoCode":"9100FRINTON"}},
{"type":"Feature","geometry":{"type":"Point","coordinates":[1.2678629,51.8462158]},"properties":{"name":"Walton-on-the-Naze","network":"National Rail","railway":"station","ref:crs":"WON","wikidata":"Q2359051","wikipedia":"en:Walton-on-the-Naze railway station","naptan:AtcoCode":"9100WONNAZE"}},
{"type":"Feature","geometry":{"type":"Point","coordinates":[0.5052124,51.5516536]},"properties":{"name":"Grand Central Station","usage":"tourism","railway":"station"}},
{"type":"Feature","geometry":{"type":"Point","coordinates":[0.5817777,51.9957405]},"properties":{"name":"Colne Valley Railway","usage":"tourism","railway":"station","tourism":"attraction","alt_name":"Castle Hedingham"}},
{"type":"Feature","geometry":{"type":"Point","coordinates":[0.7106494,51.5505931]},"properties":{"name":"Prittlewell","network":"National Rail","railway":"station","ref:crs":"PRL","wikidata":"Q1880808","wikipedia":"en:Prittlewell railway station","naptan:AtcoCode":"9100PRITLWL"}},
{"type":"Feature","geometry":{"type":"Point","coordinates":[0.7158518,51.5326972]},"properties":{"layer":"1","name":"Shore","public_transport":"station","railway":"station","tourism":"light_railway","train":"yes","usage":"tourism","wheelchair":"yes","wikidata":"Q23018785","wikipedia":"en:Shore railway station"}},
{"type":"Feature","geometry":{"type":"Point","coordinates":[1.1543273,51.7945324]},"properties":{"name":"Clacton-on-Sea","network":"National Rail","railway":"station","ref:crs":"CLT","wikidata":"Q5124903","wikipedia":"en:Clacton-on-Sea railway station","naptan:AtcoCode":"9100CLACTON"}},
{"type":"Feature","geometry":{"type":"Point","coordinates":[0.9275278,51.8858134]},"properties":{"name":"Hythe (Colchester)","train":"yes","network":"National Rail","railway":"station","ref:crs":"HYH","wikidata":"Q2552020","wikipedia":"en:Hythe railway station (Essex)","naptan:AtcoCode":"9100CLCHHYT","public_transport":"station"}},
{"type":"Feature","geometry":{"type":"Point","coordinates":[0.1139888,51.6936318]},"properties":{"fare_zone":"6","line":"Central","name":"Epping","network":"London Underground","operator":"Transport for London","platforms":"2","public_transport":"station","railway":"station","source":"Survey","station":"subway","subway":"yes","wikipedia":"en:Epping tube station"}},
{"type":"Feature","geometry":{"type":"Point","coordinates":[0.3297538,51.6307466]},"properties":{"name":"Shenfield","train":"yes","network":"National Rail;TfL Rail","railway":"station","ref:crs":"SNF","old_name":"Shenfield and Hutton Junction","operator":"Greater Anglia","wikidata":"Q3461338","wikipedia":"en:Shenfield railway station","naptan:AtcoCode":"9100SHENFLD","public_transport":"station"}},
{"type":"Feature","geometry":{"type":"Point","coordinates":[0.5567303,51.8753105]},"properties":{"name":"Braintree","train":"yes","name:lt":"Breintris","network":"National Rail","railway":"station","ref:crs":"BTR","old_name":"Braintree and Bocking","wikidata":"Q2716690","wikipedia":"en:Braintree railway station (England)","naptan:AtcoCode":"9100BRAINTR","public_transport":"station"}},
{"type":"Feature","geometry":{"type":"Point","coordinates":[1.0449277,51.9491435]},"properties":{"name":"Manningtree","network":"National Rail","railway":"station","ref:crs":"MNG","wikidata":"Q1938819","wikipedia":"en:Manningtree railway station","start_date":"1846","naptan:AtcoCode":"9100MANNGTR","public_transport":"station"}},
{"type":"Feature","geometry":{"type":"Point","coordinates":[0.4567961,51.5681417]},"properties":{"name":"Basildon","name:lt":"Bazildonas","network":"National Rail","railway":"station","ref:crs":"BSO","wikidata":"Q2752701","wikipedia":"en:Basildon railway station","wheelchair":"yes","naptan:AtcoCode":"9100BASILDN","public_transport":"station"}},
{"type":"Feature","geometry":{"type":"Point","coordinates":[0.3406801,51.5678537]},"properties":{"name":"West Horndon","network":"National Rail","railway":"station","ref:crs":"WHR","wikidata":"Q1808174","wikipedia":"en:West Horndon railway station","naptan:AtcoCode":"9100WHORNDN","public_transport":"station"}},
{"type":"Feature","geometry":{"type":"Point","coordinates":[0.782551,51.8808094]},"properties":{"name":"Marks Tey","naptan:AtcoCode":"9100MRKSTEY","network":"National Rail","public_transport":"station","railway":"station","ref:crs":"MKT","ref:tiploc":"MRKSTEY","source":"NPE","start_date":"1844","tiploc":"MRKSTEY","wikidata":"Q2025932","wikipedia":"en:Marks Tey railway station"}},
{"type":"Feature","geometry":{"type":"Point","coordinates":[0.2436202,51.7087463]},"properties":{"name":"Ongar","usage":"tourism","railway":"station","station":"preserved_railway","wikidata":"Q450533","public_transport":"station"}},
{"type":"Feature","geometry":{"type":"Point","coordinates":[0.1641554,51.7114262]},"properties":{"name":"North Weald","public_transport":"station","railway":"station","tourism":"preserved_railway","usage":"tourism","wikidata":"Q450510"}},
{"type":"Feature","geometry":{"type":"Point","coordinates":[1.1716892,51.9395281]},"properties":{"name":"Wrabness","naptan:AtcoCode":"9100WRABNES","network":"National Rail","public_transport":"station","railway":"station","ref:crs":"WRB","wikidata":"Q3284262","wikipedia":"en:Wrabness railway station"}},
{"type":"Feature","geometry":{"type":"Point","coordinates":[1.2560388,51.9472249]},"properties":{"name":"Harwich International","naptan:AtcoCode":"9100PRKSTON","network":"National Rail","old_name":"Parkeston","platforms":"3","public_transport":"station","railway":"station","ref:crs":"HPQ","wikidata":"Q2058152","wikipedia":"en:Harwich International railway station"}},
{"type":"Feature","geometry":{"type":"Point","coordinates":[0.4181268,51.6288429]},"properties":{"layer":"1","name":"Billericay","name:lt":"Bilerikis","naptan:AtcoCode":"9100BILERCY","network":"National Rail","public_transport":"station","railway":"station","ref:crs":"BIC","wikidata":"Q1971153","wikipedia":"en:Billericay railway station"}},
{"type":"Feature","geometry":{"type":"Point","coordinates":[0.519396,51.6148039]},"properties":{"name":"Wickford","source":"NPE","network":"National Rail","railway":"station","ref:crs":"WIC","wikidata":"Q1857839","wikipedia":"en:Wickford railway station","naptan:AtcoCode":"9100WIKFORD","public_transport":"station"}},
{"type":"Feature","geometry":{"type":"Point","coordinates":[0.7026932,51.8409896]},"properties":{"name":"Kelvedon","source":"NPE","network":"National Rail","railway":"station","ref:crs":"KEL","wikidata":"Q2540528","wikipedia":"en:Kelvedon railway station","start_date":"1843 - 03 - 29","naptan:AtcoCode":"9100KELVEDN","public_transport":"station"}},
{"type":"Feature","geometry":{"type":"Point","coordinates":[0.0468161,51.6259439]},"properties":{"fare_zone":"5","line":"Central","name":"Buckhurst Hill","network":"London Underground","operator":"London Underground","platforms":"2","public_transport":"station","railway":"station","start_date":"1856-08-22","station":"subway","subway":"yes","wheelchair":"no","wikidata":"Q999705","wikimedia_commons":"Category:Buckhurst Hill tube station","wikipedia":"en:Buckhurst Hill tube station"}},
{"type":"Feature","geometry":{"type":"Point","coordinates":[0.0757204,51.6176444]},"properties":{"fare_zone":"4","line":"Central","name":"Chigwell","network":"London Underground","operator":"London Underground","platforms":"2","public_transport":"station","railway":"station","source_ref":"http://en.wikipedia.org/wiki/List_of_London_Underground_stations","start_date":"1948-11-24","station":"subway","subway":"yes","wikidata":"Q597571","wikimedia_commons":"Category:Chigwell tube station","wikipedia":"en:Chigwell tube station"}},
{"type":"Feature","geometry":{"type":"Point","coordinates":[0.083583,51.6452814]},"properties":{"fare_zone":"6","line":"Central","name":"Debden","network":"London Underground","operator":"London Underground","platforms":"2","public_transport":"station","railway":"station","source_ref":"http://en.wikipedia.org/wiki/List_of_London_Underground_stations","start_date":"1865-04-24","station":"subway","subway":"yes","wikidata":"Q1181455","wikimedia_commons":"Category:Debden tube station","wikipedia":"en:Debden tube station"}},
{"type":"Feature","geometry":{"type":"Point","coordinates":[0.0925025,51.613134]},"properties":{"fare_zone":"4","line":"Central","name":"Grange Hill","network":"London Underground","operator":"London Underground","platforms":"2","public_transport":"station","railway":"station","source_ref":"http://en.wikipedia.org/wiki/List_of_London_Underground_stations","start_date":"1948-11-24","station":"subway","subway":"yes","wheelchair":"no","wikidata":"Q646052","wikimedia_commons":"Category:Grange Hil tube station","wikipedia":"en:Grange Hill tube station"}},
{"type":"Feature","geometry":{"type":"Point","coordinates":[0.0437553,51.6170812]},"properties":{"fare_zone":"4","line":"Central","name":"Roding Valley","network":"London Underground","operator":"London Underground","platforms":"2","public_transport":"station","railway":"station","source_ref":"http://en.wikipedia.org/wiki/List_of_London_Underground_stations","start_date":"1948-11-24","station":"subway","subway":"yes","wheelchair":"no","wikidata":"Q2161169","wikimedia_commons":"Category:Roding Valley tube station","wikipedia":"en:Roding Valley tube station"}},
{"type":"Feature","geometry":{"type":"Point","coordinates":[0.9562415,51.8565976]},"properties":{"name":"Wivenhoe","network":"National Rail","railway":"station","ref:crs":"WIV","wikidata":"Q2873893","wikipedia":"en:Wivenhoe railway station","naptan:AtcoCode":"9100WIVENHO"}},
{"type":"Feature","geometry":{"type":"Point","coordinates":[0.9970365,51.8539985]},"properties":{"name":"Alresford","network":"National Rail","railway":"station","ref:crs":"ALR","wikidata":"Q2063973","wikipedia":"en:Alresford railway station (Essex)","naptan:AtcoCode":"9100ALRESFD"}},
{"type":"Feature","geometry":{"type":"Point","coordinates":[1.0654611,51.8517991]},"properties":{"name":"Great Bentley","network":"National Rail","railway":"station","ref:crs":"GRB","wikidata":"Q2557949","wikipedia":"en:Great Bentley railway station","naptan:AtcoCode":"9100GTBNTLY"}},
{"type":"Feature","geometry":{"type":"Point","coordinates":[1.1151948,51.8529678]},"properties":{"name":"Weeley","network":"National Rail","railway":"station","ref:crs":"WEE","wikidata":"Q2157638","wikipedia":"en:Weeley railway station","naptan:AtcoCode":"9100WEELEY"}},
{"type":"Feature","geometry":{"type":"Point","coordinates":[0.1931746,52.0599083]},"properties":{"name":"Great Chesterford","source":"GPS survey","network":"National Rail","railway":"station","ref:crs":"GRC","wikidata":"Q2765395","wikipedia":"en:Great Chesterford railway station","naptan:AtcoCode":"9100GTCHSFD"}},
{"type":"Feature","geometry":{"type":"Point","coordinates":[0.4686273,51.7365054]},"properties":{"name":"Chelmsford","train":"yes","network":"National Rail","railway":"station","ref:crs":"CHM","operator":"Abellio Greater Anglia","wikidata":"Q2668271","platforms":"2","wikipedia":"en:Chelmsford railway station","internet_access":"yes","naptan:AtcoCode":"9100CHLMSFD","public_transport":"station"}},
{"type":"Feature","geometry":{"type":"Point","coordinates":[0.3538289,51.4624598]},"properties":{"name":"Tilbury Town","train":"yes","network":"National Rail","railway":"station","ref:crs":"TIL","old_name":"Tilbury Dock","operator":"c2c","wikidata":"Q3295563","wikipedia":"en:Tilbury Town railway station","naptan:AtcoCode":"9100TLBYTWN","public_transport":"station"}},
{"type":"Feature","geometry":{"type":"Point","coordinates":[0.2601274,51.8902434]},"properties":{"name":"Main Terminal Building (Departures)","level":"1","network":"Stansted Airport Terminal Link","railway":"station","station":"light_rail","public_transport":"station"}},
{"type":"Feature","geometry":{"type":"Point","coordinates":[0.2541483,51.8892206]},"properties":{"name":"Terminal C","network":"Stansted Airport Terminal Link","railway":"station","station":"light_rail","public_transport":"station"}},
{"type":"Feature","geometry":{"type":"Point","coordinates":[0.2569959,51.8911228]},"properties":{"name":"Terminal B","network":"Stansted Airport Terminal Link","railway":"station","station":"light_rail","public_transport":"station"}},
{"type":"Feature","geometry":{"type":"Point","coordinates":[0.7052992,51.569686]},"properties":{"name":"Southend Airport","network":"National Rail","railway":"station","ref:crs":"SIA","wikidata":"Q7569535","wikipedia":"en:Southend Airport railway station","naptan:AtcoCode":"9100STHEAIR"}},
{"type":"Feature","geometry":{"type":"Point","coordinates":[0.0355326,51.775456]},"properties":{"name":"Roydon","network":"National Rail","railway":"station","ref:crs":"RYN","wikidata":"Q2039157","platforms":"2","wikipedia":"en:Roydon railway station","source_ref":"GPS survey","naptan:AtcoCode":"9100ROYDON","public_transport":"station"}},
{"type":"Feature","geometry":{"type":"Point","coordinates":[0.0950305,51.781287]},"properties":{"name":"Harlow Town","network":"National Rail","railway":"station","ref:crs":"HWN","wikidata":"Q1988068","wikipedia":"en:Harlow Town railway station","naptan:AtcoCode":"9100HRLWTWN","public_transport":"station"}},
{"type":"Feature","geometry":{"type":"Point","coordinates":[0.1321036,51.7904439]},"properties":{"name":"Harlow Mill","image":"https://upload.wikimedia.org/wikipedia/commons/thumb/9/9b/Harlow_Mill_Station.jpg/330px-Harlow_Mill_Station.jpg","network":"National Rail","railway":"station","ref:crs":"HWM","wikidata":"Q2738839","wikipedia":"en:Harlow Mill railway station","source_ref":"GPS survey","naptan:AtcoCode":"9100HRLWMIL","public_transport":"station"}},
{"type":"Feature","geometry":{"type":"Point","coordinates":[0.1992411,51.9012727]},"properties":{"name":"Stansted Mountfitchet","network":"National Rail","railway":"station","ref:crs":"SST","operator":"National Express East Anglia","wikidata":"Q2078357","wikipedia":"en:Stansted Mountfitchet railway station","naptan:AtcoCode":"9100STANMFC","public_transport":"station"}},
{"type":"Feature","geometry":{"type":"Point","coordinates":[0.227718,51.9207191]},"properties":{"name":"Elsenham","network":"National Rail","railway":"station","ref:crs":"ESM","wikidata":"Q2805863","wikipedia":"en:Elsenham railway station","naptan:AtcoCode":"9100ELSENHM","public_transport":"station"}},
{"type":"Feature","geometry":{"type":"Point","coordinates":[0.2153128,51.9796918]},"properties":{"name":"Newport","network":"National Rail","railway":"station","ref:crs":"NWE","wikidata":"Q2342586","wikipedia":"en:Newport railway station (Essex)","naptan:AtcoCode":"9100NEWPRTE","public_transport":"station"}},
{"type":"Feature","geometry":{"type":"Point","coordinates":[0.2070947,52.0044805]},"properties":{"name":"Audley End","network":"National Rail","railway":"station","ref:crs":"AUD","wikidata":"Q2574881","wikipedia":"en:Audley End railway station","ref:stanox":"47321","ref:tiploc":"AUDLEYE","naptan:AtcoCode":"9100AUDLEYE","public_transport":"station"}},
{"type":"Feature","geometry":{"type":"Point","coordinates":[0.2621537,51.8892596]},"properties":{"name":"Stansted Airport","network":"National Rail","railway":"station","ref:crs":"SSD","wikidata":"Q2652717","wikipedia":"en:Stansted Airport railway station","naptan:AtcoCode":"9100STANAIR"}},
{"type":"Feature","geometry":{"type":"Point","coordinates":[0.1033213,51.6717759]},"properties":{"fare_zone":"6","line":"Central","name":"Theydon Bois","network":"London Underground","public_transport":"station","railway":"station","station":"subway","subway":"yes","wikipedia":"en:Theydon Bois tube station"}},
{"type":"Feature","geometry":{"type":"Point","coordinates":[0.0553002,51.6412212]},"properties":{"fare_zone":"6","line":"Central","name":"Loughton","network":"London Underground","public_transport":"station","railway":"station","station":"subway","subway":"yes","wikipedia":"en:Loughton tube station"}},
{"type":"Feature","geometry":{"type":"Point","coordinates":[0.2615497,51.8911955]},"properties":{"name":"Main Terminal Building (Arrivals)","level":"1","levels":"1","network":"Stansted Airport Terminal Link","railway":"station","station":"light_rail","public_transport":"station"}},
{"type":"Feature","geometry":{"type":"Point","coordinates":[0.6394272,51.8059244]},"properties":{"name":"Witham","network":"National Rail","railway":"station","ref:crs":"WTM","wikidata":"Q2369354","wikipedia":"en:Witham railway station","start_date":"1843 - 03 - 29","naptan:AtcoCode":"9100WITHAME","public_transport":"station"}},
{"type":"Feature","geometry":{"type":"Point","coordinates":[0.7945675,51.531446]},"properties":{"name":"Shoeburyness","naptan:AtcoCode":"9100SHBRYNS","network":"National Rail","operator":"c2c","public_transport":"station","railway":"station","ref:crs":"SRY","train":"yes","wikidata":"Q2267686","wikipedia":"en:Shoeburyness railway station"}},
{"type":"Feature","geometry":{"type":"Point","coordinates":[0.4237157,51.5675954]},"properties":{"name":"Laindon","source":"NPE","network":"National Rail","railway":"station","ref:crs":"LAI","wikidata":"Q2801845","wikipedia":"en:Laindon railway station","wheelchair":"yes","naptan:AtcoCode":"9100LAINDON","public_transport":"station"}},
{"type":"Feature","geometry":{"type":"Point","coordinates":[0.5616239,51.5441005]},"properties":{"name":"Benfleet","source":"NPE","name:lt":"Benflitas","network":"National Rail","railway":"station","ref:crs":"BEF","wikidata":"Q2561112","wikipedia":"en:Benfleet railway station","naptan:AtcoCode":"9100BENFLET","public_transport":"station"}},
{"type":"Feature","geometry":{"type":"Point","coordinates":[0.73149,51.5389057]},"properties":{"name":"Southend East","naptan:AtcoCode":"9100STHNDE","network":"National Rail","public_transport":"station","railway":"station","ref:crs":"SOE","train":"yes","wikidata":"Q2311959","wikipedia":"en:Southend East railway station"}},
{"type":"Feature","geometry":{"type":"Point","coordinates":[0.7619363,51.5376596]},"properties":{"name":"Thorpe Bay","naptan:AtcoCode":"9100THOPBAY","network":"National Rail","operator":"C2C","public_transport":"station","railway":"station","ref:crs":"TPB","wikidata":"Q7796686","wikipedia":"en:Thorpe Bay railway station"}},
{"type":"Feature","geometry":{"type":"Point","coordinates":[0.7116503,51.5373587]},"properties":{"name":"Southend Central","network":"National Rail","railway":"station","ref:crs":"SOC","wikidata":"Q593051","wikipedia":"en:Southend Central railway station","naptan:AtcoCode":"9100STHCENT","public_transport":"station"}},
{"type":"Feature","geometry":{"type":"Point","coordinates":[0.6698419,51.5386117]},"properties":{"name":"Chalkwell","naptan:AtcoCode":"9100CHLKWEL","network":"National Rail","railway":"station","ref:crs":"CHW","source":"NPE","wikidata":"Q744484","wikipedia":"en:Chalkwell railway station"}},
{"type":"Feature","geometry":{"type":"Point","coordinates":[0.6394573,51.5412111]},"properties":{"name":"Leigh-on-Sea","source":"NPE","network":"National Rail","railway":"station","ref:crs":"LES","wikidata":"Q2396445","wikipedia":"en:Leigh-on-Sea railway station","naptan:AtcoCode":"9100LHONSEA"}},
{"type":"Feature","geometry":{"type":"Point","coordinates":[0.5077292,51.5602436]},"properties":{"name":"Pitsea","source":"NPE","network":"National Rail","railway":"station","ref:crs":"PSE","operator":"c2c","wikidata":"Q2982936","platforms":"4","wikipedia":"en:Pitsea railway station","naptan:AtcoCode":"9100PITSEA","public_transport":"station"}},
{"type":"Feature","geometry":{"type":"Point","coordinates":[0.3219051,51.4763786]},"properties":{"name":"Grays","train":"yes","network":"National Rail","railway":"station","ref:crs":"GRY","operator":"c2c","wikidata":"Q4844809","wikipedia":"en:Grays railway station","source_ref":"http://en.wikipedia.org/wiki/List_of_London_railway_stations","naptan:AtcoCode":"9100GRAYS","public_transport":"station"}},
{"type":"Feature","geometry":{"type":"Point","coordinates":[0.4229093,51.5141935]},"properties":{"name":"Stanford-le-Hope","network":"National Rail","railway":"station","ref:crs":"SFO","operator":"c2c","wikidata":"Q2062756","wikipedia":"en:Stanford-le-Hope railway station","naptan:AtcoCode":"9100SLEHOPE","public_transport":"station"}},
{"type":"Feature","geometry":{"type":"Point","coordinates":[0.4127175,51.4845202]},"properties":{"name":"East Tilbury","network":"National Rail","railway":"station","ref:crs":"ETL","operator":"c2c","wikidata":"Q2487544","wikipedia":"en:East Tilbury railway station","naptan:AtcoCode":"9100ETILBRY","public_transport":"station"}},
{"type":"Feature","geometry":{"type":"Point","coordinates":[0.2874684,51.4855963]},"properties":{"name":"Chafford Hundred","train":"yes","network":"National Rail","railway":"station","ref:crs":"CFH","alt_name":"Chafford Hundred","operator":"c2c","wikidata":"Q2385653","wikipedia":"en:Chafford Hundred Lakeside railway station","source_ref":"http://en.wikipedia.org/wiki/List_of_London_railway_stations","naptan:AtcoCode":"9100CHADHDD","public_transport":"station"}},
{"type":"Feature","geometry":{"type":"Point","coordinates":[0.2902103,51.5216626]},"properties":{"name":"Ockendon","network":"National Rail","railway":"station","ref:crs":"OCK","operator":"C2C","wikidata":"Q2099828","wikipedia":"en:Ockendon railway station","source_ref":"http://en.wikipedia.org/wiki/List_of_London_railway_stations","naptan:AtcoCode":"9100OCKENDN","public_transport":"station"}},
{"type":"Feature","geometry":{"type":"Point","coordinates":[0.2369945,51.4810858]},"properties":{"name":"Purfleet","train":"yes","source":"NPE","network":"National Rail","railway":"station","ref:crs":"PFL","operator":"c2c","wikidata":"Q2506816","wikipedia":"en:Purfleet railway station","source_ref":"http://en.wikipedia.org/wiki/List_of_London_railway_stations","naptan:AtcoCode":"9100PURFLET","public_transport":"station"}},
{"type":"Feature","geometry":{"type":"Point","coordinates":[0.3006105,51.6135231]},"properties":{"name":"Brentwood","train":"yes","name:lt":"Brentvudas","network":"TfL Rail","railway":"station","ref:crs":"BRE","old_name":"Brentwood and Warley","operator":"TfL Rail","wikidata":"Q2322282","wikipedia":"en:Brentwood railway station","addr:street":"Kings Road","addr:postcode":"CM14 4EW","naptan:AtcoCode":"9100BRTWOOD","public_transport":"station"}},
{"type":"Feature","geometry":{"type":"Point","coordinates":[0.7114814,51.5429361]},"properties":{"name":"Southend Victoria","network":"National Rail","railway":"station","ref:crs":"SOV","website":"http://www.nationalrail.co.uk/stations/sov/details.html","wikidata":"Q3254036","wikipedia":"en:Southend Victoria railway station","addr:postcode":"SS2 6AZ","naptan:AtcoCode":"9100STHVIC","public_transport":"station"}},
{"type":"Feature","geometry":{"type":"Point","coordinates":[0.6915156,51.5374449]},"properties":{"name":"Westcliff","network":"National Rail","railway":"station","ref:crs":"WCF","wikidata":"Q2319277","wikipedia":"en:Westcliff railway station","naptan:AtcoCode":"9100WCLIFF"}},
{"type":"Feature","geometry":{"type":"Point","coordinates":[0.3842646,51.6670001]},"properties":{"name":"Ingatestone","network":"National Rail","railway":"station","ref:crs":"INT","operator":"National Express East Anglia","wikidata":"Q2651495","platforms":"2","wikipedia":"en:Ingatestone railway station","start_date":"1844","addr:street":"Station Lane","addr:postcode":"CM4 0BW","addr:housename":"Ingatestone Railway Station","naptan:AtcoCode":"9100INGTSTN","public_transport":"station"}},
{"type":"Feature","geometry":{"type":"Point","coordinates":[1.2866273,51.9441577]},"properties":{"name":"Harwich Town","network":"National Rail","railway":"station","ref:crs":"HWC","wikidata":"Q4654950","wikipedia":"en:Harwich Town railway station","start_date":"1865","naptan:AtcoCode":"9100HARWICH"}},
{"type":"Feature","geometry":{"type":"Point","coordinates":[0.8136583,51.6336033]},"properties":{"name":"Burnham-on-Crouch","source":"NPE","network":"National Rail","railway":"station","ref:crs":"BUU","wikidata":"Q2376429","wikipedia":"en:Burnham-on-Crouch railway station","naptan:AtcoCode":"9100BRNMONC"}},
{"type":"Feature","geometry":{"type":"Point","coordinates":[0.8354552,51.6607168]},"properties":{"name":"Southminster","source":"NPE","network":"National Rail","railway":"station","ref:crs":"SMN","wikidata":"Q2501276","wikipedia":"en:Southminster railway station","naptan:AtcoCode":"9100SMINSTR"}},
{"type":"Feature","geometry":{"type":"Point","coordinates":[0.5656286,51.6249307]},"properties":{"name":"Battlesbridge","source":"NPE","network":"National Rail","railway":"station","ref:crs":"BLB","wikidata":"Q4873219","wikipedia":"en:Battlesbridge railway station","addr:street":"Hawk Hill","addr:postcode":"SS11 7RG","naptan:AtcoCode":"9100BTLSBDG"}},
{"type":"Feature","geometry":{"type":"Point","coordinates":[0.7518235,51.6477371]},"properties":{"name":"Althorne","source":"NPE","network":"National Rail","railway":"station","ref:crs":"ALN","wikidata":"Q3384051","wikipedia":"en:Althorne railway station","naptan:AtcoCode":"9100ALTHORN"}},
{"type":"Feature","geometry":{"type":"Point","coordinates":[0.6060545,51.6494076]},"properties":{"name":"South Woodham Ferrers","naptan:AtcoCode":"9100WDHAMFR","network":"National Rail","old_name":"Woodham Ferrers","public_transport":"station","railway":"station","ref:crs":"SOF","source":"NPE","wikidata":"Q7568963","wikipedia":"en:South Woodham Ferrers railway station"}},
{"type":"Feature","geometry":{"type":"Point","coordinates":[0.7243279,51.5693654]},"properties":{"name":"Sutton Hall Railway Station","train":"yes","usage":"tourism","railway":"station","public_transport":"station"}},
{"type":"Feature","geometry":{"type":"Point","coordinates":[0.8924554,51.9005793]},"properties":{"name":"Colchester","naptan:AtcoCode":"9100CLCHSTR","network":"National Rail","public_transport":"station","railway":"station","ref:crs":"COL","start_date":"1843-03-29","train":"yes","wikidata":"Q2750618","wikipedia":"en:Colchester railway station"}},
{"type":"Feature","geometry":{"type":"Point","coordinates":[0.7610516,51.9250775]},"properties":{"name":"Thompson Green station (MR2)","public_transport":"station","railway":"station","train":"yes","usage":"tourism"}}
]}
