{"type":"FeatureCollection","features":[
{"type":"Feature","geometry":{"type":"Point","coordinates":[-2.5308703,51.7141619]},"properties":{"name":"Lydney","source":"NPE","network":"National Rail","railway":"station","ref:crs":"LYD","operator":"Trafnidiaeth Cymru","wikipedia":"en:Lydney railway station","wheelchair":"yes","operator:cy":"Trafnidiaeth Cymru","operator:en":"Transport for Wales","naptan:AtcoCode":"9100LYDNEY"}},
{"type":"Feature","geometry":{"type":"Point","coordinates":[-2.0678139,51.9243306]},"properties":{"name":"Cheltenham Racecourse","railway":"station","source":"npe","usage":"tourism","wikipedia":"en:Cheltenham Racecourse railway station"}},
{"type":"Feature","geometry":{"type":"Point","coordinates":[-2.5623732,51.5257913]},"properties":{"name":"Patchway","network":"National Rail","railway":"station","ref:crs":"PWY","wikidata":"Q2385086","wikipedia":"en:Patchway railway station","postal_code":"BS34 6LP","naptan:AtcoCode":"9100PATCHWY"}},
{"type":"Feature","geometry":{"type":"Point","coordinates":[-2.4321734,51.5413993]},"properties":{"name":"Yate","naptan:AtcoCode":"9100YATE","network":"National Rail","postal_code":"BS37 5JF","public_transport":"station","railway":"station","ref:crs":"YAE","wikidata":"Q3900748","wikipedia":"en:Yate railway station"}},
{"type":"Feature","geometry":{"type":"Point","coordinates":[-2.0231454,51.6769153]},"properties":{"name":"Kemble","source":"survey","network":"National Rail","railway":"station","ref:crs":"KEM","wikidata":"Q1877761","wikipedia":"en:Kemble railway station","naptan:AtcoCode":"9100KEMBLE"}},
{"type":"Feature","geometry":{"type":"Point","coordinates":[-2.2193861,51.744576]},"properties":{"name":"Stroud","source":"NPE","network":"National Rail","railway":"station","ref:crs":"STD","wikidata":"Q3079073","wikipedia":"en:Stroud railway station","postal_code":"GL5 3AP","naptan:AtcoCode":"9100STRUD"}},
{"type":"Feature","geometry":{"type":"Point","coordinates":[-2.2795292,51.7459688]},"properties":{"name":"Stonehouse","source":"NPE","network":"National Rail","railway":"station","ref:crs":"SHU","wikidata":"Q1992485","wikipedia":"en:Stonehouse railway station","postal_code":"GL10 2JW","naptan:AtcoCode":"9100STNHSE"}},
{"type":"Feature","geometry":{"type":"Point","coordinates":[-2.4668807,51.4439411]},"properties":{"name":"Oldland Common","usage":"tourism","railway":"station","wikidata":"Q7085686"}},
{"type":"Feature","geometry":{"type":"Point","coordinates":[-2.4958996,51.4180534]},"properties":{"name":"Keynsham","network":"National Rail","railway":"station","ref:crs":"KYN","wikidata":"Q2658052","wikipedia":"en:Keynsham railway station","naptan:AtcoCode":"9100KEYNSHM"}},
{"type":"Feature","geometry":{"type":"Point","coordinates":[-2.6645557,51.5596805]},"properties":{"name":"Severn Beach","train":"yes","network":"National Rail","railway":"station","ref:crs":"SVB","wikidata":"Q2224831","wikipedia":"en:Severn Beach railway station","naptan:AtcoCode":"9100SVRNBCH","public_transport":"station"}},
{"type":"Feature","geometry":{"type":"Point","coordinates":[-2.696373,51.5126195]},"properties":{"name":"St Andrews Road","source":"NPE","network":"National Rail","railway":"station","ref:crs":"SAR","wikidata":"Q1922079","wikipedia":"en:St Andrews Road railway station","naptan:AtcoCode":"9100SADWRD"}},
{"type":"Feature","geometry":{"type":"Point","coordinates":[-2.6266963,51.5563474]},"properties":{"name":"Pilning","train":"yes","source":"NPE","network":"National Rail","railway":"station","ref:crs":"PIL","website":"http://www.nationalrail.co.uk/stations/pil/details.aspx","operator":"Great Western Railway","wikidata":"Q7194244","addr:city":"Pilning","wikipedia":"en:Pilning railway station","wheelchair":"limited","addr:street":"Station Road","addr:postcode":"BS35 4JT","addr:housename":"Pilning Station","internet_access":"no","naptan:AtcoCode":"9100PILNING","public_transport":"station"}},
{"type":"Feature","geometry":{"type":"Point","coordinates":[-2.4764729,51.4308406]},"properties":{"name":"Bitton","usage":"tourism","railway":"station","wikidata":"Q4919146"}},
{"type":"Feature","geometry":{"type":"Point","coordinates":[-2.3593185,51.7176425]},"properties":{"name":"Cam and Dursley","network":"National Rail","railway":"station","ref:crs":"CDU","wikidata":"Q2359933","wikipedia":"en:Cam and Dursley railway station","postal_code":"GL11 5DJ","naptan:AtcoCode":"9100DURSLEY"}},
{"type":"Feature","geometry":{"type":"Point","coordinates":[-2.5395674,51.7357697]},"properties":{"name":"Norchard","usage":"tourism","railway":"station","wikidata":"Q7050477","public_transport":"station"}},
{"type":"Feature","geometry":{"type":"Point","coordinates":[-2.5319837,51.725442]},"properties":{"name":"Lydney Town","usage":"tourism","railway":"station","operator":"Dean Forest Railway","wikidata":"Q6707734","wheelchair":"no","public_transport":"station"}},
{"type":"Feature","geometry":{"type":"Point","coordinates":[-2.5307606,51.7155121]},"properties":{"name":"Lydney Junction","usage":"tourism","railway":"station","wheelchair":"no","public_transport":"station"}},
{"type":"Feature","geometry":{"type":"Point","coordinates":[-2.5637948,51.5032565]},"properties":{"name":"Filton Abbey Wood","train":"yes","network":"National Rail","railway":"station","ref:crs":"FIT","wikidata":"Q2311503","wikipedia":"en:Filton Abbey Wood railway station","postal_code":"BS34 7JW","naptan:AtcoCode":"9100FILTNEW","public_transport":"station"}},
{"type":"Feature","geometry":{"type":"Point","coordinates":[-2.457762,51.4155427]},"properties":{"name":"Avon Riverside","usage":"tourism","railway":"station","wikidata":"Q4829234","wikipedia":"en:Avon Riverside railway station"}},
{"type":"Feature","geometry":{"type":"Point","coordinates":[-2.5521555,51.7531142]},"properties":{"name":"Whitecroft","usage":"tourism","railway":"station","wikidata":"Q7995820"}},
{"type":"Feature","geometry":{"type":"Point","coordinates":[-1.9630872,51.9663467]},"properties":{"name":"Winchcombe","usage":"tourism","railway":"station","wikidata":"Q8023754"}},
{"type":"Feature","geometry":{"type":"Point","coordinates":[-1.9284569,51.989334]},"properties":{"name":"Toddington","railway":"station","usage":"tourism","wikidata":"Q7812739","wikipedia":"en:Toddington railway station"}},
{"type":"Feature","geometry":{"type":"Point","coordinates":[-2.0380294,51.9672114]},"properties":{"name":"Gotherington","usage":"tourism","source":"Bing;local_knowledge","railway":"station","wikidata":"Q5587849"}},
{"type":"Feature","geometry":{"type":"Point","coordinates":[-2.555937,51.7677329]},"properties":{"name":"Parkend","usage":"tourism","railway":"station","wikidata":"Q7138247"}},
{"type":"Feature","geometry":{"type":"Point","coordinates":[-1.9297207,51.9887603]},"properties":{"name":"Toddington","public_transport":"station","railway":"station","train":"yes","usage":"tourism"}},
{"type":"Feature","geometry":{"type":"Point","coordinates":[-1.9330953,51.9753255]},"properties":{"name":"Hayles Abbey Halt","railway":"station","request_stop":"yes","usage":"tourism","website":"https://www.gwsr.com/planning_your_visit/finding_us/Hayles_Abbey_Halt.html","wikidata":"Q5686801"}},
{"type":"Feature","geometry":{"type":"Point","coordinates":[-2.1087299,51.9990255]},"properties":{"name":"Ashchurch","source":"NPE","network":"National Rail","railway":"station","ref:crs":"ASC","wikipedia":"en:Ashchurch for Tewkesbury railway station","naptan:AtcoCode":"9100ASHCHRC","public_transport":"station"}},
{"type":"Feature","geometry":{"type":"Point","coordinates":[-2.5427982,51.5138745]},"properties":{"name":"Bristol Parkway","network":"National Rail","railway":"station","ref:crs":"BPW","wikidata":"Q800574","wikipedia":"en:Bristol Parkway railway station","postal_code":"BS34 8PU","naptan:AtcoCode":"9100BRSTPWY"}},
{"type":"Feature","geometry":{"type":"Point","coordinates":[-1.7002657,51.9921819]},"properties":{"name":"Moreton-in-Marsh","network":"National Rail","railway":"station","ref:crs":"MIM","operator":"First Great Western","wikidata":"Q2369749","wikipedia":"en:Moreton-in-Marsh railway station","naptan:AtcoCode":"9100MINMARS"}},
{"type":"Feature","geometry":{"type":"Point","coordinates":[-2.2382438,51.8655109]},"properties":{"name":"Gloucester","network":"National Rail","railway":"station","ref:crs":"GCR","wikipedia":"en:Gloucester railway station","postal_code":"GL1 1DE","naptan:AtcoCode":"9100GLOSTER"}},
{"type":"Feature","geometry":{"type":"Point","coordinates":[-2.1001222,51.8969882]},"properties":{"name":"Cheltenham Spa","source":"Bing","network":"National Rail","railway":"station","ref:crs":"CNM","old_name":"Cheltenham Spa (Lansdown)","operator":"First Great Western","wikipedia":"en:Cheltenham Spa railway station","addr:street":"Queens Road","addr:postcode":"GL51 8NP","naptan:AtcoCode":"9100CHLTNHM"}},
{"type":"Feature","geometry":{"type":"Point","coordinates":[-2.6111685,51.7825235]},"properties":{"name":"Perrygrove","train":"yes","usage":"tourism","railway":"station","public_transport":"station"}},
{"type":"Feature","geometry":{"type":"Point","coordinates":[-2.6102566,51.7824969]},"properties":{"name":"Oakiron","train":"yes","usage":"tourism","railway":"station","public_transport":"station"}},
{"type":"Feature","geometry":{"type":"Point","coordinates":[-1.9292816,51.985948]},"properties":{"name":"California Crossing","train":"yes","usage":"tourism","railway":"station","public_transport":"station"}}
]}
