{"type":"FeatureCollection","features":[
{"type":"Feature","geometry":{"type":"Point","coordinates":[-2.2130325,53.4711176]},"properties":{"name":"Ardwick","network":"National Rail","railway":"station","ref:crs":"ADK","wikidata":"Q4788330","wikipedia":"en:Ardwick railway station","description":"Ardwick Station has a very limited service. Two trains a day run towards the city on Monday to Friday mornings, and two trains away from the city in the evening. No service at weekends.","naptan:AtcoCode":"9100ARDWICK"}},
{"type":"Feature","geometry":{"type":"Point","coordinates":[-2.2367035,53.3693993]},"properties":{"name":"Heald Green","network":"National Rail","railway":"station","ref:crs":"HDG","wikipedia":"en:Heald Green railway station","naptan:AtcoCode":"9100HLDG","public_transport":"station"}},
{"type":"Feature","geometry":{"type":"Point","coordinates":[-2.2220345,53.4092962]},"properties":{"name":"East Didsbury","network":"National Rail","railway":"station","ref:crs":"EDY","wikipedia":"en:East Didsbury railway station","naptan:AtcoCode":"9100EDIDBRY"}},
{"type":"Feature","geometry":{"type":"Point","coordinates":[-2.2089687,53.4336646]},"properties":{"name":"Mauldeth Road","network":"National Rail","railway":"station","ref:crs":"MAU","wikipedia":"en:Mauldeth Road railway station","naptan:AtcoCode":"9100MLDTHRD","public_transport":"station"}},
{"type":"Feature","geometry":{"type":"Point","coordinates":[-2.375213,53.544369]},"properties":{"name":"Kearsley","source":"npe","network":"National Rail","railway":"station","ref:crs":"KSL","wikipedia":"en:Kearsley railway station","ref:tiploc":"KEARSLY","naptan:AtcoCode":"9100KEARSLY"}},
{"type":"Feature","geometry":{"type":"Point","coordinates":[-2.3140752,53.5223306]},"properties":{"name":"Clifton","train":"yes","network":"National Rail","railway":"station","ref:crs":"CLI","operator":"Northern","wikipedia":"en:Clifton railway station (Greater Manchester)","ref:tiploc":"CLTN","naptan:AtcoCode":"9100CLTN","public_transport":"station"}},
{"type":"Feature","geometry":{"type":"Point","coordinates":[-2.5698672,53.5912146]},"properties":{"air_conditioning":"no","internet_access":"no","name":"Blackrod","naptan:AtcoCode":"9100BLRD","network":"National Rail","operator":"Northern Rail","public_transport":"station","railway":"station","ref:crs":"BLK","ref:tiploc":"BLRD","train":"yes","wheelchair":"yes","wikipedia":"en:Blackrod railway station"}},
{"type":"Feature","geometry":{"type":"Point","coordinates":[-2.6127695,53.5390143]},"properties":{"name":"Ince","source":"npe","network":"National Rail","railway":"station","ref:crs":"INC","wikipedia":"en:Ince railway station","naptan:AtcoCode":"9100INCE"}},
{"type":"Feature","geometry":{"type":"Point","coordinates":[-2.6476163,53.4997249]},"properties":{"name":"Bryn","source":"NPE","network":"National Rail","railway":"station","ref:crs":"BYN","wikipedia":"en:Bryn railway station","naptan:AtcoCode":"9100BRYN"}},
{"type":"Feature","geometry":{"type":"Point","coordinates":[-2.3573362,53.4848043]},"properties":{"name":"Patricroft","source":"npe","network":"National Rail","railway":"station","ref:crs":"PAT","wikipedia":"en:Patricroft railway station","ref:tiploc":"PTRCRFT","addr:street":"Green Lane","addr:postcode":"M30 0GX","naptan:AtcoCode":"9100PTRCRFT"}},
{"type":"Feature","geometry":{"type":"Point","coordinates":[-2.2308187,53.3929866]},"properties":{"name":"Gatley","network":"National Rail","railway":"station","ref:crs":"GTY","wikipedia":"en:Gatley railway station","naptan:AtcoCode":"9100GATLEY"}},
{"type":"Feature","geometry":{"type":"Point","coordinates":[-2.3340515,53.4855266]},"properties":{"name":"Eccles","train":"yes","name:lt":"Eklsas","network":"National Rail","railway":"station","ref:crs":"ECC","wikidata":"Q2890052","wikipedia":"en:Eccles railway station","ref:tiploc":"ECCLES","addr:street":"St Mary's Road","addr:postcode":"M30 0DN","naptan:AtcoCode":"9100ECCLES","public_transport":"station"}},
{"type":"Feature","geometry":{"type":"Point","coordinates":[-2.3134126,53.6279534]},"properties":{"name":"Summerseat","usage":"tourism","railway":"station"}},
{"type":"Feature","geometry":{"type":"Point","coordinates":[-2.3032556,53.6113055]},"properties":{"name":"Burrs Country Park Halt","note":"Opened to the public on Jan 1st 2017","train":"yes","usage":"tourism","network":"East Lancashire Railway","railway":"station","operator":"East Lancashire Railway","public_transport":"station"}},
{"type":"Feature","geometry":{"type":"Point","coordinates":[-2.3003018,53.5929094]},"properties":{"name":"Bury, Bolton Street","train":"yes","usage":"tourism","railway":"station","public_transport":"station"}},
{"type":"Feature","geometry":{"type":"Point","coordinates":[-2.3146606,53.6473535]},"properties":{"name":"Ramsbottom","train":"yes","usage":"tourism","railway":"station","operator":"East Lancashire Railway Preservatoion Society","public_transport":"station"}},
{"type":"Feature","geometry":{"type":"Point","coordinates":[-2.1619033,53.3595214]},"properties":{"name":"Bramhall","naptan:AtcoCode":"9100BMHL","network":"National Rail","railway":"station","ref:crs":"BML","wikipedia":"en:Bramhall railway station"}},
{"type":"Feature","geometry":{"type":"Point","coordinates":[-2.1309424,53.4574018]},"properties":{"name":"Denton","note":"One train per week: Fridays at 09:31","train":"yes","network":"National Rail","railway":"station","ref:crs":"DTN","wikidata":"Q5259635","wikipedia":"en:Denton railway station","ref:stanox":"32520","ref:tiploc":"DNTON","naptan:AtcoCode":"9100DNTON","public_transport":"station"}},
{"type":"Feature","geometry":{"type":"Point","coordinates":[-2.1586843,53.4359636]},"properties":{"name":"Reddish South","train":"yes","source":"NPE","network":"National Rail","railway":"station","ref:crs":"RDS","wikipedia":"en:Reddish South railway station","naptan:AtcoCode":"9100REDISHS","public_transport":"station"}},
{"type":"Feature","geometry":{"type":"Point","coordinates":[-2.0835284,53.3600557]},"properties":{"name":"Middlewood","network":"National Rail","railway":"station","ref:crs":"MDL","alt_name":"Middlewood (Lower)","wikidata":"Q1922273","wikipedia":"en:Middlewood railway station","wikipedia:en":"Middlewood railway station","naptan:AtcoCode":"9100MDWD","wikimedia_commons":"Category:Help Category:Middlewood railway station"}},
{"type":"Feature","geometry":{"type":"Point","coordinates":[-2.5748781,53.5423753]},"properties":{"name":"Hindley","source":"npe","network":"National Rail","railway":"station","ref:crs":"HIN","wikipedia":"en:Hindley railway station","naptan:AtcoCode":"9100HINDLEY"}},
{"type":"Feature","geometry":{"type":"Point","coordinates":[-2.6695354,53.5305359]},"properties":{"name":"Pemberton","source":"npe","network":"National Rail","railway":"station","ref:crs":"PEM","wikipedia":"en:Pemberton railway station","naptan:AtcoCode":"9100PBRT"}},
{"type":"Feature","geometry":{"type":"Point","coordinates":[-2.6342351,53.5450582]},"properties":{"name":"Wigan Wallgate","train":"yes","network":"National Rail","railway":"station","ref:crs":"WGW","wikidata":"Q7999554","wikipedia":"en:Wigan Wallgate railway station","source:name":"local knowledge","naptan:AtcoCode":"9100WIGANWL","public_transport":"station"}},
{"type":"Feature","geometry":{"type":"Point","coordinates":[-2.7090587,53.5301787]},"properties":{"name":"Orrell","source":"npe","network":"National Rail","railway":"station","ref:crs":"ORR","wikipedia":"en:Orrell railway station","naptan:AtcoCode":"9100ORRELL","public_transport":"station"}},
{"type":"Feature","geometry":{"type":"Point","coordinates":[-2.0163275,53.4408091]},"properties":{"name":"Broadbottom","network":"National Rail","railway":"station","ref:crs":"BDB","operator":"Northern Rail","wikidata":"Q2634328","wikipedia":"en:Broadbottom railway station","naptan:AtcoCode":"9100BRBM"}},
{"type":"Feature","geometry":{"type":"Point","coordinates":[-2.0399051,53.445183]},"properties":{"name":"Hattersley","network":"National Rail","railway":"station","ref:crs":"HTY","wikidata":"Q2196766","wikipedia":"en:Hattersley railway station","naptan:AtcoCode":"9100HATRSLY"}},
{"type":"Feature","geometry":{"type":"Point","coordinates":[-2.0558149,53.4523506]},"properties":{"name":"Godley","network":"National Rail","railway":"station","ref:crs":"GDL","wikidata":"Q2288400","wikipedia":"en:Godley railway station","naptan:AtcoCode":"9100GODLY"}},
{"type":"Feature","geometry":{"type":"Point","coordinates":[-2.0928676,53.4291998]},"properties":{"name":"Woodley","naptan:AtcoCode":"9100WOODLEY","network":"National Rail","public_transport":"station","railway":"station","ref:crs":"WLY","source":"NPE","wikipedia":"en:Woodley railway station"}},
{"type":"Feature","geometry":{"type":"Point","coordinates":[-2.0765086,53.3960432]},"properties":{"name":"Rose Hill Marple","train":"yes","source":"NPE","network":"National Rail","railway":"station","ref:crs":"RSH","wikipedia":"en:Rose Hill Marple railway station","naptan:AtcoCode":"9100ROHL","public_transport":"station"}},
{"type":"Feature","geometry":{"type":"Point","coordinates":[-2.0850769,53.4513383]},"properties":{"name":"Hyde Central","source":"NPE","network":"National Rail","railway":"station","ref:crs":"HYC","old_name":"Hyde","wikidata":"Q2623426","wikipedia":"en:Hyde Central railway station","naptan:AtcoCode":"9100HYDEC"}},
{"type":"Feature","geometry":{"type":"Point","coordinates":[-2.2152763,53.4219303]},"properties":{"name":"Burnage","network":"National Rail","railway":"station","ref:crs":"BNA","wikipedia":"en:Burnage railway station","naptan:AtcoCode":"9100BAGE"}},
{"type":"Feature","geometry":{"type":"Point","coordinates":[-2.0851419,53.4645839]},"properties":{"name":"Hyde North","source":"NPE","network":"National Rail","railway":"station","ref:crs":"HYT","old_name":"Hyde Junction","operator":"Northern Rail","wikidata":"Q13528479","wikipedia":"en:Hyde North railway station","naptan:AtcoCode":"9100HYDEN"}},
{"type":"Feature","geometry":{"type":"Point","coordinates":[-2.4108352,53.6139542]},"properties":{"name":"Bromley Cross","train":"yes","source":"NPE","network":"National Rail","railway":"station","ref:crs":"BMC","wikipedia":"en:Bromley Cross railway station","naptan:AtcoCode":"9100BRMCRSS","public_transport":"station"}},
{"type":"Feature","geometry":{"type":"Point","coordinates":[-2.4130759,53.5974456]},"properties":{"name":"Hall i' th' Wood","source":"knowledge","network":"National Rail","railway":"station","ref:crs":"HID","wikipedia":"en:Hall i' th' Wood railway station","naptan:AtcoCode":"9100HITW"}},
{"type":"Feature","geometry":{"type":"Point","coordinates":[-2.3432475,53.3955861]},"properties":{"name":"Navigation Road","network":"National Rail","railway":"station","ref:crs":"NVR","wikipedia":"en:Navigation Road station","naptan:AtcoCode":"9100NAVGTNR"}},
{"type":"Feature","geometry":{"type":"Point","coordinates":[-2.1883499,53.3760261]},"properties":{"name":"Cheadle Hulme","network":"National Rail","railway":"station","ref:crs":"CHU","wikipedia":"en:Cheadle Hulme railway station","naptan:AtcoCode":"9100CHDH"}},
{"type":"Feature","geometry":{"type":"Point","coordinates":[-2.336998,53.5148082]},"properties":{"name":"Swinton (Manchester)","train":"yes","network":"National Rail","railway":"station","ref:crs":"SNN","wikipedia":"en:Swinton railway station (Greater Manchester)","naptan:AtcoCode":"9100SWNT","public_transport":"station"}},
{"type":"Feature","geometry":{"type":"Point","coordinates":[-2.0937689,53.4911289]},"properties":{"name":"Ashton-under-Lyne","source":"OS OpenData StreetView","network":"National Rail","railway":"station","ref:crs":"AHN","loc_name":"Ashton","operator":"Northern Rail","wikipedia":"en:Ashton-under-Lyne railway station","source:ref":"Assoc. of TOCs","naptan:AtcoCode":"9100ASHONUL"}},
{"type":"Feature","geometry":{"type":"Point","coordinates":[-2.3307985,53.4139093]},"properties":{"name":"Walton Park","usage":"tourism","railway":"station"}},
{"type":"Feature","geometry":{"type":"Point","coordinates":[-2.632996,53.5433996]},"properties":{"name":"Wigan North Western","train":"yes","network":"National Rail","railway":"station","ref:crs":"WGN","wikidata":"Q2186551","wikipedia":"en:Wigan North Western railway station","naptan:AtcoCode":"9100WIGANNW","public_transport":"station"}},
{"type":"Feature","geometry":{"type":"Point","coordinates":[-2.2070104,53.589009]},"properties":{"name":"Heywood","owner":"East Lancashire Railway","train":"yes","usage":"tourism","source":"npe","railway":"station","operator":"East Lancashire Railway Preservation Society","wikidata":"Q12060004","public_transport":"station"}},
{"type":"Feature","geometry":{"type":"Point","coordinates":[-2.1714727,53.5508557]},"properties":{"name":"Mills Hill","train":"yes","network":"National Rail","railway":"station","ref:crs":"MIH","wikidata":"Q2085063","platforms":"2","wikipedia":"en:Mills Hill railway station","ref:stanox":"31049","ref:tiploc":"MLSHILL","naptan:AtcoCode":"9100MLSHILL","public_transport":"station"}},
{"type":"Feature","geometry":{"type":"Point","coordinates":[-2.4251259,53.5735158]},"properties":{"addr:city":"Bolton","addr:street":"Trinity Street","name":"Bolton","naptan:AtcoCode":"9100BOLTON","network":"National Rail","public_transport":"station","railway":"station","ref:crs":"BON","toilets:wheelchair":"yes","wheelchair":"yes","wheelchair:description":"Lifts to all platforms, helpful staff will fetch a ramp to your train.","wikipedia":"en:Bolton Interchange"}},
{"type":"Feature","geometry":{"type":"Point","coordinates":[-2.0415205,53.5150415]},"properties":{"name":"Mossley","network":"National Rail","railway":"station","ref:crs":"MSL","wikidata":"Q1986726","wikipedia":"en:Mossley railway station","naptan:AtcoCode":"9100MOSSLEY"}},
{"type":"Feature","geometry":{"type":"Point","coordinates":[-2.0803672,53.4615184]},"properties":{"name":"Flowery Field","network":"National Rail","railway":"station","ref:crs":"FLF","operator":"Northern Rail","wikidata":"Q2858764","wikipedia":"en:Flowery Field railway station","naptan:AtcoCode":"9100FLWRYFD"}},
{"type":"Feature","geometry":{"type":"Point","coordinates":[-2.0950109,53.6427541]},"properties":{"name":"Littleborough","train":"yes","source":"npe","network":"National Rail","railway":"station","ref:crs":"LTL","wikidata":"Q2111684","wikipedia":"en:Littleborough railway station","wheelchair":"yes","naptan:AtcoCode":"9100LITLBRO","public_transport":"station"}},
{"type":"Feature","geometry":{"type":"Point","coordinates":[-2.1710273,53.5232522]},"properties":{"name":"Moston","source":"NPE","network":"National Rail","railway":"station","ref:crs":"MSO","wikipedia":"en:Moston railway station","naptan:AtcoCode":"9100MSTN"}},
{"type":"Feature","geometry":{"type":"Point","coordinates":[-2.1140606,53.6328465]},"properties":{"name":"Smithy Bridge","train":"yes","source":"npe","network":"National Rail","railway":"station","ref:crs":"SMB","wikidata":"Q2490973","wikipedia":"en:Smithy Bridge railway station","naptan:AtcoCode":"9100SMBG","public_transport":"station"}},
{"type":"Feature","geometry":{"type":"Point","coordinates":[-2.6938724,53.5593883]},"properties":{"name":"Gathurst","source":"npe","network":"National Rail","railway":"station","ref:crs":"GST","wikipedia":"en:Gathurst railway station","naptan:AtcoCode":"9100GATHRST","public_transport":"station"}},
{"type":"Feature","geometry":{"type":"Point","coordinates":[-2.1341235,53.4319627]},"properties":{"name":"Brinnington","network":"National Rail","railway":"station","ref:crs":"BNT","wikipedia":"en:Brinnington railway station","naptan:AtcoCode":"9100BRNGTN"}},
{"type":"Feature","geometry":{"type":"Point","coordinates":[-2.1566096,53.4496862]},"properties":{"name":"Reddish North","network":"National Rail","railway":"station","ref:crs":"RDN","wikipedia":"en:Reddish North railway station","naptan:AtcoCode":"9100REDISHN"}},
{"type":"Feature","geometry":{"type":"Point","coordinates":[-2.1739555,53.4569538]},"properties":{"name":"Ryder Brow","network":"National Rail","railway":"station","ref:crs":"RRB","wikipedia":"en:Ryder Brow railway station","naptan:AtcoCode":"9100RYDRBRW"}},
{"type":"Feature","geometry":{"type":"Point","coordinates":[-2.1777231,53.5927444]},"properties":{"name":"Castleton","train":"yes","source":"NPE","network":"National Rail","railway":"station","ref:crs":"CAS","wikidata":"Q3341196","wikipedia":"en:Castleton railway station","naptan:AtcoCode":"9100CSTL","public_transport":"station"}},
{"type":"Feature","geometry":{"type":"Point","coordinates":[-2.2301402,53.4772197]},"properties":{"name":"Manchester Piccadilly","name:cy":"Piccadilly Manceinion","naptan:AtcoCode":"9100MNCRPIC","network":"National Rail","operator":"Network Rail","public_transport":"station","railway":"station","ref:crs":"MAN","smoking":"no","wikidata":"Q600367","wikipedia":"en:Manchester Piccadilly station"}},
{"type":"Feature","geometry":{"type":"Point","coordinates":[-2.2422762,53.4737777]},"properties":{"name":"Manchester Oxford Road","naptan:AtcoCode":"9100MNCROXR","network":"National Rail","operator":"Northern","public_transport":"station","railway":"station","ref:crs":"MCO","ref:tiploc":"MNCROXR","wikidata":"Q1859538","wikipedia":"en:Manchester Oxford Road railway station"}},
{"type":"Feature","geometry":{"type":"Point","coordinates":[-2.251063,53.4740961]},"properties":{"name":"Deansgate","network":"National Rail","railway":"station","ref:crs":"DGT","old_name":"Knott Mill Station","operator":"Northern","wikidata":"Q1620954","wikipedia":"en:Deansgate railway station","ref:tiploc":"MNCRDGT","naptan:AtcoCode":"9100MNCRDGT","public_transport":"station"}},
{"type":"Feature","geometry":{"type":"Point","coordinates":[-2.2555159,53.4828774]},"properties":{"name":"Salford Central","naptan:AtcoCode":"9100SLFDORD","network":"National Rail","operator":"Northern","public_transport":"station","railway":"station","ref:crs":"SFD","wikidata":"Q2194900","wikipedia":"en:Salford Central railway station"}},
{"type":"Feature","geometry":{"type":"Point","coordinates":[-2.2424846,53.4879748]},"properties":{"name":"Manchester Victoria","naptan:AtcoCode":"9100MNCRVIC","network":"National Rail","operator":"Northern","public_transport":"station","railway":"station","ref:crs":"MCV","ref:tiploc":"MNCRVIC","wikidata":"Q1859573","wikipedia":"en:Manchester Victoria station"}},
{"type":"Feature","geometry":{"type":"Point","coordinates":[-2.1528351,53.6105726]},"properties":{"name":"Rochdale","train":"yes","source":"npe","network":"National Rail","railway":"station","ref:crs":"RCD","wikidata":"Q6746193","wikipedia":"en:Rochdale railway station","naptan:AtcoCode":"9100RCHDALE","public_transport":"station"}},
{"type":"Feature","geometry":{"type":"Point","coordinates":[-2.1630435,53.4054501]},"properties":{"name":"Stockport","naptan:AtcoCode":"9100STKP","network":"National Rail","operator":"Virgin Trains","public_transport":"station","railway":"station","ref:crs":"SPT","train":"yes","wikipedia":"en:Stockport railway station"}},
{"type":"Feature","geometry":{"type":"Point","coordinates":[-2.1135802,53.4745495]},"properties":{"name":"Guide Bridge","train":"yes","source":"npe","network":"National Rail","railway":"station","ref:crs":"GUI","wikidata":"Q1854597","wikipedia":"en:Guide Bridge railway station","naptan:AtcoCode":"9100GIDB","public_transport":"station"}},
{"type":"Feature","geometry":{"type":"Point","coordinates":[-2.067531,53.4567001]},"properties":{"name":"Newton for Hyde","network":"National Rail","railway":"station","ref:crs":"NWN","operator":"Northern Rail","wikidata":"Q2138827","wikipedia":"en:Newton for Hyde railway station","wheelchair":"yes","naptan:AtcoCode":"9100NWTH"}},
{"type":"Feature","geometry":{"type":"Point","coordinates":[-2.494764,53.5727921]},"properties":{"name":"Lostock","train":"yes","network":"National Rail","railway":"station","ref:crs":"LOT","operator":"Northern Rail","wikipedia":"en:Lostock railway station","naptan:AtcoCode":"9100LOSTCKP","public_transport":"station"}},
{"type":"Feature","geometry":{"type":"Point","coordinates":[-2.0642227,53.4841386]},"properties":{"name":"Stalybridge","source":"NPE","network":"National Rail","railway":"station","ref:crs":"SYB","wikidata":"Q2078930","wikipedia":"en:Stalybridge railway station","naptan:AtcoCode":"9100SBYD"}},
{"type":"Feature","geometry":{"type":"Point","coordinates":[-2.523221,53.5558849]},"properties":{"name":"Westhoughton","source":"npe","network":"National Rail","railway":"station","ref:crs":"WHG","wikipedia":"en:Westhoughton railway station","naptan:AtcoCode":"9100WSTHOTN"}},
{"type":"Feature","geometry":{"type":"Point","coordinates":[-2.5397317,53.5779831]},"properties":{"name":"Horwich Parkway","network":"National Rail","railway":"station","ref:crs":"HWI","wikipedia":"en:Horwich Parkway railway station","ref:tiploc":"HORWICH","naptan:AtcoCode":"9100HORWICH"}},
{"type":"Feature","geometry":{"type":"Point","coordinates":[-2.4015572,53.5562667]},"properties":{"name":"Moses Gate","network":"National Rail","railway":"station","ref:crs":"MSS","wikipedia":"en:Moses Gate railway station","ref:tiploc":"MSGT","naptan:AtcoCode":"9100MSGT"}},
{"type":"Feature","geometry":{"type":"Point","coordinates":[-2.3883526,53.5503976]},"properties":{"name":"Farnworth","source":"NPE","network":"National Rail","railway":"station","ref:crs":"FNW","wikipedia":"en:Farnworth railway station","ref:tiploc":"FRNW","naptan:AtcoCode":"9100FRNW"}},
{"type":"Feature","geometry":{"type":"Point","coordinates":[-2.0893199,53.4140086]},"properties":{"name":"Romiley","source":"NPE","network":"National Rail","railway":"station","ref:crs":"RML","wikipedia":"en:Romiley railway station","naptan:AtcoCode":"9100ROMILEY"}},
{"type":"Feature","geometry":{"type":"Point","coordinates":[-2.1104918,53.4230377]},"properties":{"name":"Bredbury","source":"NPE","network":"National Rail","railway":"station","ref:crs":"BDY","operator":"Northern","wikipedia":"en:Bredbury railway station","naptan:AtcoCode":"9100BREDBRY"}},
{"type":"Feature","geometry":{"type":"Point","coordinates":[-2.1952305,53.4718438]},"properties":{"name":"Ashburys","source":"NPE","network":"National Rail","railway":"station","ref:crs":"ABY","wikipedia":"en:Ashburys railway station","wheelchair":"no","naptan:AtcoCode":"9100ASHBRYS"}},
{"type":"Feature","geometry":{"type":"Point","coordinates":[-2.1800733,53.4614732]},"properties":{"name":"Belle Vue","source":"Bing+OSSV","network":"National Rail","railway":"station","ref:crs":"BLV","wikipedia":"en:Belle Vue railway station","naptan:AtcoCode":"9100BLLVUE"}},
{"type":"Feature","geometry":{"type":"Point","coordinates":[-2.0332814,53.3745716]},"properties":{"name":"Strines","source":"NPE","network":"National Rail","railway":"station","ref:crs":"SRN","wikidata":"Q2551282","wikipedia":"en:Strines railway station","naptan:AtcoCode":"9100STRINES"}},
{"type":"Feature","geometry":{"type":"Point","coordinates":[-2.0572003,53.4006474]},"properties":{"name":"Marple","train":"yes","source":"NPE","network":"National Rail","railway":"station","ref:crs":"MPL","wikipedia":"en:Marple railway station","naptan:AtcoCode":"9100MARPLE","public_transport":"station"}},
{"type":"Feature","geometry":{"type":"Point","coordinates":[-2.3470824,53.3876561]},"properties":{"name":"Altrincham","naptan:AtcoCode":"9100ALTRNHM","network":"National Rail","old_name":"Altrincham and Bowdon","public_transport":"station","railway":"station","ref:crs":"ALT","ref:tiploc":"ALTRNHM","wikidata":"Q1921455","wikipedia":"en:Altrincham Interchange"}},
{"type":"Feature","geometry":{"type":"Point","coordinates":[-2.3474975,53.3785218]},"properties":{"name":"Hale","naptan:AtcoCode":"9100HALE","network":"National Rail","operator":"Northern Rail","public_transport":"station","railway":"station","ref:crs":"HAL","wheelchair":"yes","wikipedia":"en:Hale railway station"}},
{"type":"Feature","geometry":{"type":"Point","coordinates":[-2.1677485,53.4689321]},"properties":{"name":"Gorton","source":"NPE","network":"National Rail","railway":"station","ref:crs":"GTO","old_name":"Gorton and Openshaw","wikipedia":"en:Gorton railway station","naptan:AtcoCode":"9100GORTON"}},
{"type":"Feature","geometry":{"type":"Point","coordinates":[-2.1449235,53.4713232]},"properties":{"name":"Fairfield","source":"NPE","network":"National Rail","railway":"station","ref:crs":"FRF","wikidata":"Q3190561","wikipedia":"en:Fairfield railway station (England)","naptan:AtcoCode":"9100FRFD"}},
{"type":"Feature","geometry":{"type":"Point","coordinates":[-2.0142657,53.5387454]},"properties":{"name":"Greenfield","source":"NPE","network":"National Rail","railway":"station","ref:crs":"GNF","wikidata":"Q1954239","addr:city":"Greenfield","wikipedia":"en:Greenfield railway station","addr:street":"Chew Valley Road","addr:postcode":"OL3 7JZ","addr:housename":"Greenfield Station","naptan:AtcoCode":"9100GFLD"}},
{"type":"Feature","geometry":{"type":"Point","coordinates":[-2.1792895,53.4259927]},"properties":{"name":"Heaton Chapel","network":"National Rail","railway":"station","ref:crs":"HTC","wikipedia":"en:Heaton Chapel railway station","naptan:AtcoCode":"9100HTCP"}},
{"type":"Feature","geometry":{"type":"Point","coordinates":[-2.2906197,53.462268]},"properties":{"alt_name":"Manchester United F.C. Halt","alt_name_1":"Old Trafford Halt","name":"Manchester United Football Ground","naptan:AtcoCode":"9100MNCRUFG","network":"National Rail","public_transport":"station","railway":"station","ref:crs":"MUF","train":"yes","wikidata":"Q6747545","wikipedia":"en:Manchester United Football Ground railway station"}},
{"type":"Feature","geometry":{"type":"Point","coordinates":[-2.3116958,53.4547767]},"properties":{"name":"Trafford Park","naptan:AtcoCode":"9100TRFDPK","network":"National Rail","public_transport":"station","railway":"station","ref:crs":"TRA","train":"yes","wikidata":"Q3932222","wikipedia":"en:Trafford Park railway station"}},
{"type":"Feature","geometry":{"type":"Point","coordinates":[-2.3272609,53.4523337]},"properties":{"name":"Humphrey Park","network":"National Rail","railway":"station","ref:crs":"HUP","wikipedia":"en:Humphrey Park railway station","naptan:AtcoCode":"9100HMPHRYP"}},
{"type":"Feature","geometry":{"type":"Point","coordinates":[-2.3839554,53.4437085]},"properties":{"name":"Flixton","network":"National Rail","railway":"station","ref:crs":"FLI","operator":"Northern Rail","platforms":"2","wikipedia":"en:Flixton railway station","opening_hours":"mo-fr 06:25-13:45","naptan:AtcoCode":"9100FLIXTON"}},
{"type":"Feature","geometry":{"type":"Point","coordinates":[-2.3678327,53.4461647]},"properties":{"name":"Chassen Road","network":"National Rail","railway":"station","ref:crs":"CSR","wikipedia":"en:Chassen Road railway station","naptan:AtcoCode":"9100CHASNRD"}},
{"type":"Feature","geometry":{"type":"Point","coordinates":[-2.3536565,53.4483208]},"properties":{"name":"Urmston","name:lt":"Ermstonas","network":"National Rail","railway":"station","ref:crs":"URM","wikipedia":"en:Urmston railway station","naptan:AtcoCode":"9100URMSTON"}},
{"type":"Feature","geometry":{"type":"Point","coordinates":[-2.4328454,53.4342044]},"properties":{"name":"Irlam","source":"NPE","network":"National Rail","railway":"station","ref:crs":"IRL","wikipedia":"en:Irlam railway station","wheelchair":"no","naptan:AtcoCode":"9100IRLAM"}},
{"type":"Feature","geometry":{"type":"Point","coordinates":[-2.1929575,53.4449044]},"properties":{"name":"Levenshulme","network":"National Rail","railway":"station","ref:crs":"LVM","wikipedia":"en:Levenshulme railway station","wheelchair":"no","naptan:AtcoCode":"9100LVHM"}},
{"type":"Feature","geometry":{"type":"Point","coordinates":[-2.1521585,53.390734]},"properties":{"name":"Davenport","source":"NPE","network":"National Rail","railway":"station","ref:crs":"DVN","wikipedia":"en:Davenport railway station (England)","naptan:AtcoCode":"9100DAVNPRT"}},
{"type":"Feature","geometry":{"type":"Point","coordinates":[-2.1412433,53.3861409]},"properties":{"name":"Woodsmoor","network":"National Rail","railway":"station","ref:crs":"WSR","wikipedia":"en:Woodsmoor railway station","naptan:AtcoCode":"9100WMOR"}},
{"type":"Feature","geometry":{"type":"Point","coordinates":[-2.1221506,53.3774667]},"properties":{"name":"Hazel Grove","source":"NPE","network":"National Rail","railway":"station","ref:crs":"HAZ","wikipedia":"en:Hazel Grove railway station","naptan:AtcoCode":"9100HAZL"}},
{"type":"Feature","geometry":{"type":"Point","coordinates":[-2.5151778,53.539359]},"properties":{"name":"Daisy Hill","train":"yes","network":"National Rail","railway":"station","ref:crs":"DSY","uic_ref":"7000641","wikipedia":"en:Daisy Hill railway station","naptan:AtcoCode":"9100DAISYH","public_transport":"station"}},
{"type":"Feature","geometry":{"type":"Point","coordinates":[-2.3527491,53.5163626]},"properties":{"name":"Moorside","train":"yes","source":"npe","network":"National Rail","railway":"station","ref:crs":"MSD","wikipedia":"en:Moorside railway station","naptan:AtcoCode":"9100MRSD","public_transport":"station"}},
{"type":"Feature","geometry":{"type":"Point","coordinates":[-2.395748,53.5197861]},"properties":{"name":"Walkden","train":"yes","source":"npe","network":"National Rail","railway":"station","ref:crs":"WKD","operator":"Northern Rail","wikipedia":"en:Walkden railway station","internet_access":"no","naptan:AtcoCode":"9100WALKDEN","public_transport":"station"}},
{"type":"Feature","geometry":{"type":"Point","coordinates":[-2.4778339,53.5290757]},"properties":{"name":"Atherton","train":"yes","source":"NPE","network":"National Rail","railway":"station","ref:crs":"ATN","old_name":"Atherton Central","wikipedia":"en:Atherton railway station","wheelchair":"yes","naptan:AtcoCode":"9100ATHERTN","public_transport":"station"}},
{"type":"Feature","geometry":{"type":"Point","coordinates":[-2.2720385,53.365183]},"properties":{"name":"Manchester Airport","train":"yes","network":"National Rail","railway":"station","ref:crs":"MIA","operator":"First TransPennine Express","wikidata":"Q2453867","wikipedia":"en:Manchester Airport station","wheelchair":"yes","addr:postcode":"M90 3RR","naptan:AtcoCode":"9100MNCRIAP","public_transport":"station"}},
{"type":"Feature","geometry":{"type":"Point","coordinates":[-2.6027763,53.5711837]},"properties":{"public_transport":"station","railway":"station","usage":"tourism"}},
{"type":"Feature","geometry":{"type":"Point","coordinates":[-2.275711,53.4862309]},"properties":{"name":"Salford Crescent","train":"yes","network":"National Rail","railway":"station","ref:crs":"SLD","wikipedia":"en:Salford Crescent railway station","ref:tiploc":"SLFDCT","naptan:AtcoCode":"9100SLFDCT","public_transport":"station"}},
{"type":"Feature","geometry":{"type":"Point","coordinates":[-2.6044018,53.5689019]},"properties":{"public_transport":"station","railway":"station","usage":"tourism"}},
{"type":"Feature","geometry":{"type":"Point","coordinates":[-2.4938302,53.5335276]},"properties":{"name":"Hag Fold","naptan:AtcoCode":"9100HAGFOLD","network":"National Rail","public_transport":"station","railway":"station","ref:crs":"HGF","wikipedia":"en:Hag Fold railway station"}}
]}
