{"type":"FeatureCollection","features":[
{"type":"Feature","geometry":{"type":"Point","coordinates":[-1.5049707,50.8550478]},"properties":{"name":"Beaulieu Road","network":"National Rail","railway":"station","ref:crs":"BEU","wikidata":"Q3095938","wikipedia":"en:Beaulieu Road railway station","postal_code":"SO42 7YQ","naptan:AtcoCode":"9100BLIEURD"}},
{"type":"Feature","geometry":{"type":"Point","coordinates":[-1.610086,50.7846689]},"properties":{"name":"Sway","network":"National Rail","railway":"station","ref:crs":"SWY","wikidata":"Q2441290","wikipedia":"en:Sway railway station","naptan:AtcoCode":"9100SWAY","public_transport":"station"}},
{"type":"Feature","geometry":{"type":"Point","coordinates":[-1.6576697,50.7557623]},"properties":{"name":"New Milton","network":"National Rail","railway":"station","ref:crs":"NWM","wikidata":"Q1913828","wikipedia":"en:New Milton railway station","naptan:AtcoCode":"9100NMILTON"}},
{"type":"Feature","geometry":{"type":"Point","coordinates":[-1.304972,50.8837098]},"properties":{"name":"Bursledon","naptan:AtcoCode":"9100BURSLDN","network":"National Rail","platforms":"1","public_transport":"station","railway":"station","ref:crs":"BUO","wikidata":"Q2219439","wikipedia":"en:Bursledon railway station"}},
{"type":"Feature","geometry":{"type":"Point","coordinates":[-1.4931284,50.9926427]},"properties":{"name":"Romsey","naptan:AtcoCode":"9100ROMSEY","network":"National Rail","public_transport":"station","railway":"station","ref:crs":"ROM","wikidata":"Q1872195","wikipedia":"en:Romsey railway station"}},
{"type":"Feature","geometry":{"type":"Point","coordinates":[-1.5468958,51.033863]},"properties":{"name":"Mottisfont & Dunbridge","naptan:AtcoCode":"9100MOTFONT","network":"National Rail","railway":"station","ref:crs":"DBG","wikidata":"Q6918669","wikipedia":"en:Mottisfont & Dunbridge railway station"}},
{"type":"Feature","geometry":{"type":"Point","coordinates":[-1.2944932,50.9323988]},"properties":{"name":"Hedge End","network":"National Rail","railway":"station","ref:crs":"HDE","wikidata":"Q2686491","wikipedia":"en:Hedge End railway station","naptan:AtcoCode":"9100HEDGEND","public_transport":"station"}},
{"type":"Feature","geometry":{"type":"Point","coordinates":[-1.634563,51.0424158]},"properties":{"name":"Dean","naptan:AtcoCode":"9100DEAN","network":"National Rail","public_transport":"station","railway":"station","ref:crs":"DEN","wikidata":"Q671580","wikipedia":"en:Dean railway station"}},
{"type":"Feature","geometry":{"type":"Point","coordinates":[-1.2590525,50.9163612]},"properties":{"name":"Botley","network":"National Rail","railway":"station","ref:crs":"BOE","wikidata":"Q2041220","addr:city":"Eastleigh","wikipedia":"en:Botley railway station","addr:street":"Station Hill","addr:postcode":"SO30 2DY","addr:housename":"Botley Railway Station","naptan:AtcoCode":"9100BOTLEY","public_transport":"station"}},
{"type":"Feature","geometry":{"type":"Point","coordinates":[-1.328881,50.8712806]},"properties":{"name":"Hamble","network":"National Rail","railway":"station","ref:crs":"HME","wikidata":"Q927502","wikipedia":"en:Hamble railway station","naptan:AtcoCode":"9100HMBLE"}},
{"type":"Feature","geometry":{"type":"Point","coordinates":[-1.125024,50.8488504]},"properties":{"name":"Portchester","naptan:AtcoCode":"9100PCHESTR","network":"National Rail","operator":"South West Trains","public_transport":"station","railway":"station","ref:crs":"PTC","wikidata":"Q1951021","wikipedia":"en:Portchester railway station"}},
{"type":"Feature","geometry":{"type":"Point","coordinates":[-1.1616799,51.0883249]},"properties":{"name":"Alresford","usage":"tourism","railway":"station","wikidata":"Q4735710"}},
{"type":"Feature","geometry":{"type":"Point","coordinates":[-1.0673875,50.8418849]},"properties":{"alt_name":"Cosham Railway Station","name":"Cosham","naptan:AtcoCode":"9100COSHAM","network":"National Rail","operator":"South West Trains","public_transport":"station","railway":"station","ref:crs":"CSA","source":"NPE","wikidata":"Q5172759","wikipedia":"en:Cosham railway station"}},
{"type":"Feature","geometry":{"type":"Point","coordinates":[-0.776776,51.3315657]},"properties":{"name":"Blackwater","naptan:AtcoCode":"9100BCKWATR","network":"National Rail","operator":"First Great Western","public_transport":"station","railway":"station","ref:crs":"BAW","train":"yes","wikidata":"Q2760814","wikipedia":"en:Blackwater railway station"}},
{"type":"Feature","geometry":{"type":"Point","coordinates":[-1.3416249,50.8749]},"properties":{"name":"Netley","naptan:AtcoCode":"9100NETLEY","network":"National Rail","public_transport":"station","railway":"station","ref:crs":"NTL","wikidata":"Q2555327","wikipedia":"en:Netley railway station"}},
{"type":"Feature","geometry":{"type":"Point","coordinates":[-1.7136258,50.752603]},"properties":{"name":"Hinton Admiral","naptan:AtcoCode":"9100HINTONA","network":"National Rail","public_transport":"station","railway":"station","ref:crs":"HNA","source":"NPE","wikidata":"Q1968589","wikipedia":"en:Hinton Admiral railway station"}},
{"type":"Feature","geometry":{"type":"Point","coordinates":[-1.0732559,50.7964461]},"properties":{"name":"Fratton","network":"National Rail","railway":"station","ref:crs":"FTN","operator":"South Westen Railway","wikidata":"Q2618118","wikipedia":"en:Fratton railway station","wheelchair":"yes","naptan:AtcoCode":"9100FRATTON","public_transport":"station"}},
{"type":"Feature","geometry":{"type":"Point","coordinates":[-1.3277225,51.0221625]},"properties":{"name":"Shawford","network":"National Rail","railway":"station","ref:crs":"SHW","wikidata":"Q3295440","wikipedia":"en:Shawford railway station","naptan:AtcoCode":"9100SHAWFD"}},
{"type":"Feature","geometry":{"type":"Point","coordinates":[-1.2659524,50.8757192]},"properties":{"addr:city":"Southampton","addr:country":"GB","addr:postcode":"SO31 1BA","name":"Swanwick","naptan:AtcoCode":"9100SWNWICK","network":"National Rail","public_transport":"station","railway":"station","ref:crs":"SNW","wikidata":"Q2765966","wikipedia":"en:Swanwick railway station"}},
{"type":"Feature","geometry":{"type":"Point","coordinates":[-1.4824602,50.9178407]},"properties":{"name":"Totton","network":"National Rail","railway":"station","ref:crs":"TTN","alt_name":"Totton Rail Station","wikidata":"Q2008136","wikipedia":"en:Totton railway station","postal_code":"SO40 3AB","naptan:AtcoCode":"9100TOTTON"}},
{"type":"Feature","geometry":{"type":"Point","coordinates":[-1.1025399,51.0874683]},"properties":{"name":"Ropley","usage":"tourism","railway":"station","website":"https://www.watercressline.co.uk/","operator":"The Mid Hants Railway 'Watercress Line'","wikidata":"Q7366762"}},
{"type":"Feature","geometry":{"type":"Point","coordinates":[-0.907249,50.8482182]},"properties":{"name":"Southbourne","network":"National Rail","railway":"station","ref:crs":"SOB","wikidata":"Q2075322","wikipedia":"en:Southbourne railway station","naptan:AtcoCode":"9100SBOURNE","public_transport":"station"}},
{"type":"Feature","geometry":{"type":"Point","coordinates":[-0.9385464,50.8516341]},"properties":{"name":"Emsworth","network":"National Rail","railway":"station","ref:crs":"EMS","operator":"Southern","wikidata":"Q1991227","wikipedia":"en:Emsworth railway station","naptan:AtcoCode":"9100EMSWTH","public_transport":"station"}},
{"type":"Feature","geometry":{"type":"Point","coordinates":[-1.058643,50.8283898]},"properties":{"name":"Hilsea","network":"National Rail","railway":"station","ref:crs":"HLS","operator":"South West Trains","wikidata":"Q5391111","wikipedia":"en:Hilsea railway station","naptan:AtcoCode":"9100HILSEA"}},
{"type":"Feature","geometry":{"type":"Point","coordinates":[-0.9671209,50.8535025]},"properties":{"name":"Warblington","network":"National Rail","railway":"station","ref:crs":"WBL","operator":"Southern","wikidata":"Q129721","wikipedia":"en:Warblington railway station","naptan:AtcoCode":"9100WRBLNGT","public_transport":"station"}},
{"type":"Feature","geometry":{"type":"Point","coordinates":[-1.619847,51.1703259]},"properties":{"name":"Grateley","source":"NPE","network":"National Rail","railway":"station","ref:crs":"GRT","wikidata":"Q13590986","wikipedia":"en:Grateley railway station","naptan:AtcoCode":"9100GRATELY"}},
{"type":"Feature","geometry":{"type":"Point","coordinates":[-1.0457783,51.1134034]},"properties":{"name":"Medstead and Four Marks","usage":"tourism","railway":"station","operator":"Watercress Line","wikidata":"Q6807304"}},
{"type":"Feature","geometry":{"type":"Point","coordinates":[-0.8836549,50.8461371]},"properties":{"name":"Nutbourne","source":"NPE","network":"National Rail","railway":"station","ref:crs":"NUT","operator":"Southern","wikidata":"Q4404768","wikipedia":"en:Nutbourne railway station","naptan:AtcoCode":"9100NUTBORN","public_transport":"station"}},
{"type":"Feature","geometry":{"type":"Point","coordinates":[-1.2602813,51.1822528]},"properties":{"name":"Micheldever","source":"NPE","network":"National Rail","railway":"station","ref:crs":"MIC","wikidata":"Q633826","platforms":"2","wikipedia":"en:Micheldever railway station","naptan:AtcoCode":"9100MCHLDVR"}},
{"type":"Feature","geometry":{"type":"Point","coordinates":[-1.2600256,51.2541484]},"properties":{"name":"Overton","source":"NPE","network":"National Rail","railway":"station","ref:crs":"OVR","operator":"South West Trains","wikidata":"Q2197986","wikipedia":"en:Overton railway station","naptan:AtcoCode":"9100OVTN"}},
{"type":"Feature","geometry":{"type":"Point","coordinates":[-1.3690152,50.9587312]},"properties":{"name":"Monks Brook Halt","usage":"tourism","railway":"station","tourism":"yes"}},
{"type":"Feature","geometry":{"type":"Point","coordinates":[-1.3499103,50.9690897]},"properties":{"name":"Eastleigh","network":"National Rail","railway":"station","ref:crs":"ESL","wikidata":"Q2285305","wikipedia":"en:Eastleigh railway station","postal_code":"SO50 4FL","naptan:AtcoCode":"9100ELGH"}},
{"type":"Feature","geometry":{"type":"Point","coordinates":[-1.0885594,51.2684238]},"properties":{"name":"Basingstoke","name:lt":"Beizingstokas","network":"National Rail","railway":"station","ref:crs":"BSK","operator":"South West Trains","wikidata":"Q2421375","platforms":"5","wikipedia":"en:Basingstoke railway station","naptan:AtcoCode":"9100BSNGSTK"}},
{"type":"Feature","geometry":{"type":"Point","coordinates":[-1.399376,50.8035469]},"properties":{"name":"Exbury Central","usage":"tourism","railway":"station"}},
{"type":"Feature","geometry":{"type":"Point","coordinates":[-1.4040902,50.8056806]},"properties":{"name":"Exbury North","usage":"tourism","railway":"station"}},
{"type":"Feature","geometry":{"type":"Point","coordinates":[-1.3409694,50.8672425]},"properties":{"name":"Chapel Road Station","usage":"tourism","railway":"station"}},
{"type":"Feature","geometry":{"type":"Point","coordinates":[-1.3407083,50.8672955]},"properties":{"name":"Piccadilly","usage":"tourism","railway":"station"}},
{"type":"Feature","geometry":{"type":"Point","coordinates":[-1.4142289,50.9074977]},"properties":{"name":"Southampton Central","network":"National Rail","railway":"station","ref:crs":"SOU","wikidata":"Q2396008","addr:city":"Southampton","wikipedia":"en:Southampton Central railway station","wheelchair":"yes","addr:street":"Blechynden Terrace","addr:country":"GB","addr:postcode":"SO15 1AL","naptan:AtcoCode":"9100SOTON","public_transport":"station","toilets:wheelchair":"yes"}},
{"type":"Feature","geometry":{"type":"Point","coordinates":[-1.2825222,50.9912669]},"properties":{"name":"Penguin Station","usage":"tourism","network":"Marwell Railway","railway":"station","operator":"Marwell Railway","internet_access":"no"}},
{"type":"Feature","geometry":{"type":"Point","coordinates":[-1.3387418,51.2376461]},"properties":{"name":"Whitchurch","source":"NPE","network":"National Rail","railway":"station","ref:crs":"WCH","operator":"South West Trains","wikidata":"Q1865326","wikipedia":"en:Whitchurch railway station (Hampshire)","naptan:AtcoCode":"9100WHTCHRH","public_transport":"station"}},
{"type":"Feature","geometry":{"type":"Point","coordinates":[-1.3990848,50.8707819]},"properties":{"name":"Hythe Town","usage":"tourism","source":"Bing","railway":"station","public_transport":"station"}},
{"type":"Feature","geometry":{"type":"Point","coordinates":[-1.3936001,50.8745854]},"properties":{"name":"Hythe Pier","usage":"tourism","source":"Bing","railway":"station","public_transport":"station"}},
{"type":"Feature","geometry":{"type":"Point","coordinates":[-1.5264572,50.8898464]},"properties":{"name":"Ashurst New Forest","note":"Transferred from a nearby node","network":"National Rail","railway":"station","ref:crs":"ANF","wikidata":"Q2909800","addr:city":"Southampton","wikipedia":"en:Ashurst New Forest railway station","addr:country":"GB","addr:postcode":"SO40 7AA","naptan:AtcoCode":"9100LYNDHRD"}},
{"type":"Feature","geometry":{"type":"Point","coordinates":[-1.5504551,50.9493579]},"properties":{"name":"Rio Grande Train Station","usage":"tourism","railway":"station","public_transport":"station"}},
{"type":"Feature","geometry":{"type":"Point","coordinates":[-1.5293235,50.7576921]},"properties":{"name":"Lymington Pier","network":"National Rail","railway":"station","ref:crs":"LYP","wikidata":"Q2165461","wikipedia":"en:Lymington Pier railway station","naptan:AtcoCode":"9100LMTNPIR"}},
{"type":"Feature","geometry":{"type":"Point","coordinates":[-1.5371052,50.7610799]},"properties":{"name":"Lymington Town","network":"National Rail","railway":"station","ref:crs":"LYT","wikidata":"Q1898375","wikipedia":"en:Lymington Town railway station","naptan:AtcoCode":"9100LMTNTWN"}},
{"type":"Feature","geometry":{"type":"Point","coordinates":[-0.7429378,51.3021991]},"properties":{"name":"Farnborough North","naptan:AtcoCode":"9100FRBRNTH","network":"National Rail","operator":"First Great Western","public_transport":"station","railway":"station","ref:crs":"FNN","wikidata":"Q2498080","wikipedia":"en:Farnborough North railway station"}},
{"type":"Feature","geometry":{"type":"Point","coordinates":[-0.8682575,51.1812536]},"properties":{"name":"Bentley","name:lt":"Bentlis","naptan:AtcoCode":"9100BNTEY","network":"National Rail","operator":"South Western Railway","public_transport":"station","railway":"station","ref:crs":"BTY","wikidata":"Q1883564","wikipedia":"en:Bentley railway station (Hampshire)"}},
{"type":"Feature","geometry":{"type":"Point","coordinates":[-0.9671299,51.1518972]},"properties":{"name":"Alton","source":"NPE","network":"National Rail","railway":"station","ref:crs":"AON","operator":"Southwestern Railway","wikidata":"Q2694837","wikipedia":"en:Alton railway station","naptan:AtcoCode":"9100ALTON","public_transport":"station"}},
{"type":"Feature","geometry":{"type":"Point","coordinates":[-0.9669511,50.7815104]},"properties":{"name":"Eastoke Corner","public_transport":"station","railway":"station","usage":"tourism"}},
{"type":"Feature","geometry":{"type":"Point","coordinates":[-0.9786105,50.7839205]},"properties":{"name":"Mengham Road","public_transport":"station","railway":"station","usage":"tourism"}},
{"type":"Feature","geometry":{"type":"Point","coordinates":[-0.9866592,50.7841811]},"properties":{"name":"Beachlands","public_transport":"station","railway":"station","usage":"tourism"}},
{"type":"Feature","geometry":{"type":"Point","coordinates":[-0.7555158,51.2968188]},"properties":{"name":"Farnborough (Main)","network":"National Rail","railway":"station","ref:crs":"FNB","operator":"South West Trains","wikidata":"Q1941502","wikipedia":"en:Farnborough (Main) railway station","naptan:AtcoCode":"9100FRBRMN"}},
{"type":"Feature","geometry":{"type":"Point","coordinates":[-1.4540783,50.8238061]},"properties":{"name":"North Station","usage":"tourism","railway":"station"}},
{"type":"Feature","geometry":{"type":"Point","coordinates":[-0.9614163,51.2798793]},"properties":{"name":"Hook","network":"National Rail","railway":"station","ref:crs":"HOK","wikidata":"Q2717068","wikipedia":"en:Hook railway station","naptan:AtcoCode":"9100HOOK"}},
{"type":"Feature","geometry":{"type":"Point","coordinates":[-0.9070163,51.2847339]},"properties":{"name":"Winchfield","network":"National Rail","railway":"station","ref:crs":"WNF","operator":"South West Trains","wikidata":"Q2206274","wikipedia":"en:Winchfield railway station","naptan:AtcoCode":"9100WNCFILD"}},
{"type":"Feature","geometry":{"type":"Point","coordinates":[-0.8313789,51.2906158]},"properties":{"name":"Fleet","source":"NPE","network":"National Rail","railway":"station","ref:crs":"FLE","operator":"South West Trains","wikidata":"Q2626406","wikipedia":"en:Fleet railway station","wheelchair":"yes","naptan:AtcoCode":"9100FLEET"}},
{"type":"Feature","geometry":{"type":"Point","coordinates":[-0.760113,51.2462388]},"properties":{"name":"Aldershot","network":"National Rail","railway":"station","ref:crs":"AHT","wikidata":"Q4502625","wikipedia":"en:Aldershot railway station","naptan:AtcoCode":"9100ALDRSHT","public_transport":"station"}},
{"type":"Feature","geometry":{"type":"Point","coordinates":[-1.1087807,50.7967035]},"properties":{"name":"Portsmouth Harbour","source":"Landsat photo","network":"National Rail","railway":"station","ref:crs":"PMH","wikidata":"Q2228512","wikipedia":"en:Portsmouth Harbour railway station","naptan:AtcoCode":"9100PHBR","public_transport":"station"}},
{"type":"Feature","geometry":{"type":"Point","coordinates":[-0.8001257,51.0712216]},"properties":{"name":"Liphook","naptan:AtcoCode":"9100LIPHOOK","network":"National Rail","operator":"South Western Railway","public_transport":"station","railway":"station","ref:crs":"LIP","wikidata":"Q3368717","wikipedia":"en:Liphook railway station"}},
{"type":"Feature","geometry":{"type":"Point","coordinates":[-0.8927424,51.043819]},"properties":{"name":"Liss","naptan:AtcoCode":"9100LISS","network":"National Rail","operator":"South West Trains","public_transport":"station","railway":"station","ref:crs":"LIS","wikidata":"Q1884678","wikipedia":"en:Liss railway station"}},
{"type":"Feature","geometry":{"type":"Point","coordinates":[-0.9417209,51.0065237]},"properties":{"name":"Petersfield","naptan:AtcoCode":"9100PTRSFLD","network":"National Rail","public_transport":"station","railway":"station","ref:crs":"PTR","wikidata":"Q2322998","wikipedia":"en:Petersfield railway station"}},
{"type":"Feature","geometry":{"type":"Point","coordinates":[-0.9572878,50.8924725]},"properties":{"name":"Rowlands Castle","source":"Landsat photo","network":"National Rail","railway":"station","ref:crs":"RLN","operator":"South Western Railway","wikidata":"Q2213503","addr:city":"Rowland's Castle","wikipedia":"en:Rowlands Castle railway station","addr:street":"Bowes Hill","addr:postcode":"PO9 6BP","internet_access":"no","naptan:AtcoCode":"9100RWLNDSC","public_transport":"station"}},
{"type":"Feature","geometry":{"type":"Point","coordinates":[-0.9962717,50.8539846]},"properties":{"name":"Bedhampton","naptan:AtcoCode":"9100BDHMPTN","network":"National Rail","operator":"South West Trains","public_transport":"station","railway":"station","ref:crs":"BDH","source":"Bing","wikidata":"Q1816808","wikipedia":"en:Bedhampton railway station"}},
{"type":"Feature","geometry":{"type":"Point","coordinates":[-0.9815624,50.8544413]},"properties":{"alt_name":"Havant Railway Station","name":"Havant","naptan:AtcoCode":"9100HAVANT","network":"National Rail","operator":"South West Trains","public_transport":"station","railway":"station","ref:crs":"HAV","website":"https://en.wikipedia.org/wiki/Havant_railway_station","wikidata":"Q2136408","wikipedia":"en:Havant railway station"}},
{"type":"Feature","geometry":{"type":"Point","coordinates":[-1.0906787,50.7982014]},"properties":{"name":"Portsmouth and Southsea","source":"survey","network":"National Rail","railway":"station","ref:crs":"PMS","operator":"South West Trains","wikidata":"Q3305372","wikipedia":"en:Portsmouth & Southsea railway station","naptan:AtcoCode":"9100PSEA","public_transport":"station"}},
{"type":"Feature","geometry":{"type":"Point","coordinates":[-1.4927767,51.211559]},"properties":{"name":"Andover","network":"National Rail","railway":"station","ref:crs":"ADV","operator":"South West Trains","wikidata":"Q2003702","wikipedia":"en:Andover railway station","naptan:AtcoCode":"9100ANDOVER","public_transport":"station"}},
{"type":"Feature","geometry":{"type":"Point","coordinates":[-1.1923439,50.8533991]},"properties":{"name":"Fareham","network":"National Rail","railway":"station","ref:crs":"FRM","wikidata":"Q3126481","addr:city":"Fareham","wikipedia":"en:Fareham railway station","addr:street":"Station Approach","addr:postcode":"PO16 0UT","addr:housename":"Fareham Railway Station","naptan:AtcoCode":"9100FAREHAM","public_transport":"station"}},
{"type":"Feature","geometry":{"type":"Point","coordinates":[-1.3878537,50.9222668]},"properties":{"name":"St Denys","network":"National Rail","railway":"station","ref:crs":"SDN","wikidata":"Q3372457","platforms":"4","wikipedia":"en:St Denys railway station","naptan:AtcoCode":"9100STDENYS","public_transport":"station"}},
{"type":"Feature","geometry":{"type":"Point","coordinates":[-1.4341585,50.9115657]},"properties":{"name":"Millbrook","network":"National Rail","railway":"station","ref:crs":"MBK","operator":"South West Trains","platforms":"2","wikipedia":"en:Millbrook railway station (Hampshire)","source:ref":"NRE","naptan:AtcoCode":"9100MBRK","public_transport":"station"}},
{"type":"Feature","geometry":{"type":"Point","coordinates":[-1.5734094,50.816746]},"properties":{"name":"Brockenhurst","network":"National Rail","railway":"station","ref:crs":"BCU","wikidata":"Q3057561","addr:city":"New Forest","wikipedia":"en:Brockenhurst railway station","addr:street":"Station Approach","addr:postcode":"SO42 7TW","addr:housename":"Brockenhurst Railway Station","naptan:AtcoCode":"9100BKNHRST"}},
{"type":"Feature","geometry":{"type":"Point","coordinates":[-1.3200089,51.0672545]},"properties":{"name":"Winchester","network":"National Rail","railway":"station","ref:crs":"WIN","operator":"South West Trains","wikidata":"Q2698494","addr:city":"Winchester","wikipedia":"en:Winchester railway station","addr:country":"GB","addr:postcode":"SO23 8TJ","naptan:AtcoCode":"9100WNCHSTR"}},
{"type":"Feature","geometry":{"type":"Point","coordinates":[-1.3629471,50.9506997]},"properties":{"name":"Southampton Airport Parkway","network":"National Rail","railway":"station","ref:crs":"SOA","wikidata":"Q4047567","wikipedia":"en:Southampton Airport Parkway railway station","postal_code":"SO18 2HW","naptan:AtcoCode":"9100SOTPKWY"}},
{"type":"Feature","geometry":{"type":"Point","coordinates":[-1.3848946,50.9834549]},"properties":{"name":"Chandler's Ford","source":"Bing","network":"National Rail","railway":"station","ref:crs":"CFR","wikidata":"Q3167842","wikipedia":"en:Chandler's Ford railway station","naptan:AtcoCode":"9100CSFD"}},
{"type":"Feature","geometry":{"type":"Point","coordinates":[-0.7468871,51.3116516]},"properties":{"name":"Frimley","naptan:AtcoCode":"9100FRIMLEY","network":"National Rail","operator":"South Western Railway","public_transport":"station","railway":"station","ref:crs":"FML","wikidata":"Q2593341","wikipedia":"en:Frimley railway station"}},
{"type":"Feature","geometry":{"type":"Point","coordinates":[-0.7307328,51.2753951]},"properties":{"addr:postcode":"GU12 5QA","addr:street":"Lynchford Road","name":"North Camp","naptan:AtcoCode":"9100NTHCAMP","network":"National Rail","operator":"First Great Western","railway":"station","ref:crs":"NCM","wheelchair":"yes","wikidata":"Q2297819","wikipedia":"en:North Camp railway station"}},
{"type":"Feature","geometry":{"type":"Point","coordinates":[-1.469603,50.9195374]},"properties":{"line":"central","name":"Redbridge","naptan:AtcoCode":"9100REDBDGE","network":"National Rail","railway":"station","ref:crs":"RDB","source":"NRE","wikidata":"Q7305512","wikipedia":"en:Redbridge railway station"}},
{"type":"Feature","geometry":{"type":"Point","coordinates":[-1.364194,50.8964487]},"properties":{"internet_access":"no","name":"Sholing","naptan:AtcoCode":"9100SHOLING","network":"National Rail","public_transport":"station","railway":"station","ref:crs":"SHO","wikidata":"Q7500232","wikipedia":"en:Sholing railway station"}},
{"type":"Feature","geometry":{"type":"Point","coordinates":[-1.3766466,50.8990424]},"properties":{"addr:city":"Southampton","addr:postcode":"SO19 2DJ","addr:street":"Garton Road","name":"Woolston","naptan:AtcoCode":"9100WOLSTON","network":"National Rail","public_transport":"station","railway":"station","ref:crs":"WLS","wikidata":"Q2632304","wikipedia":"en:Woolston railway station"}},
{"type":"Feature","geometry":{"type":"Point","coordinates":[-1.3764672,50.9411238]},"properties":{"name":"Swaythling","network":"National Rail","railway":"station","ref:crs":"SWG","operator":"South West Trains","wikidata":"Q12070392","wikipedia":"en:Swaythling railway station","addr:postcode":"SO18 2LB","naptan:AtcoCode":"9100SWYTHLN"}},
{"type":"Feature","geometry":{"type":"Point","coordinates":[-1.376866,50.9180834]},"properties":{"name":"Bitterne","network":"National Rail","railway":"station","ref:crs":"BTE","wikidata":"Q4919061","wikipedia":"en:Bitterne railway station","naptan:AtcoCode":"9100BITERNE"}},
{"type":"Feature","geometry":{"type":"Point","coordinates":[-1.4518349,50.8214669]},"properties":{"name":"South Station","usage":"tourism","source":"Bing","railway":"station"}},
{"type":"Feature","geometry":{"type":"Point","coordinates":[-1.0608367,51.3299792]},"properties":{"name":"Bramley","network":"National Rail","railway":"station","ref:crs":"BMY","wikidata":"Q2550329","wikipedia":"en:Bramley railway station (Hampshire)","wheelchair":"yes","naptan:AtcoCode":"9100BMLY"}},
{"type":"Feature","geometry":{"type":"Point","coordinates":[-1.3640883,50.9553976]},"properties":{"usage":"tourism","railway":"station"}},
{"type":"Feature","geometry":{"type":"Point","coordinates":[-0.9518419,51.3584485]},"properties":{"train":"yes","usage":"tourism","railway":"station","public_transport":"station"}}
]}
