{"type":"FeatureCollection","features":[
{"type":"Feature","geometry":{"type":"Point","coordinates":[-2.9854823,52.2172391]},"properties":{"name":"Titley Junction","usage":"tourism","railway":"station"}},
{"type":"Feature","geometry":{"type":"Point","coordinates":[-2.3567991,52.0798427]},"properties":{"name":"Colwall","network":"National Rail","railway":"station","ref:crs":"CWL","wikidata":"Q2647190","wikipedia":"en:Colwall railway station","addr:postcode":"WR13 6RN","naptan:AtcoCode":"9100CLWALL"}},
{"type":"Feature","geometry":{"type":"Point","coordinates":[-2.4256108,52.0452528]},"properties":{"name":"Ledbury","naptan:AtcoCode":"9100LDBURY","network":"National Rail","postal_code":"HR8 1AR","railway":"station","ref:crs":"LED","source":"survey","wikipedia":"en:Ledbury railway station"}},
{"type":"Feature","geometry":{"type":"Point","coordinates":[-2.7081221,52.0611986]},"properties":{"addr:city":"Hereford","addr:postcode":"HR1 1BB","addr:street":"Station Approach","name":"Hereford","network":"National Rail","operator:cy":"Trafnidiaeth Cymru","operator:en":"Transport for Wales","public_transport":"station","railway":"station","ref:crs":"HFD","wikipedia":"en:Hereford railway station"}},
{"type":"Feature","geometry":{"type":"Point","coordinates":[-2.7304447,52.2258095]},"properties":{"name":"Leominster","name:cy":"Llanllieni","network":"National Rail","railway":"station","ref:crs":"LEO","operator":"Trafnidiaeth Cymru","wikipedia":"en:Leominster railway station","addr:street":"Worcester Road","operator:cy":"Trafnidiaeth Cymru","operator:en":"Transport for Wales","addr:postcode":"HR6 8AR","internet_access":"no","naptan:AtcoCode":"9100LEOMNST"}}
]}
