{"type":"FeatureCollection","features":[
{"type":"Feature","geometry":{"type":"Point","coordinates":[-1.1566522,50.7242115]},"properties":{"name":"Ryde St John's Road","image":"File:Ryde St. John's Road Railway station 1971.jpg","network":"National Rail","railway":"station","ref:crs":"RYR","operator":"Island Line Trains","wikidata":"Q4567463","wikipedia":"en:Ryde St John's Road railway station","naptan:AtcoCode":"9100RYDS"}},
{"type":"Feature","geometry":{"type":"Point","coordinates":[-1.1386289,50.6782995]},"properties":{"name":"Brading","image":"File:Brading station, Isle of Wight.jpg","network":"National Rail","railway":"station","ref:crs":"BDN","wikidata":"Q2274755","wikipedia":"en:Brading railway station","naptan:AtcoCode":"9100BRDING"}},
{"type":"Feature","geometry":{"type":"Point","coordinates":[-1.1550109,50.7114593]},"properties":{"name":"Smallbrook Junction","note":"No road/path access - open for interchange only","network":"National Rail","railway":"station","ref:crs":"SAB","operator":"Island Line Trains","wikidata":"Q1868757","wikipedia":"en:Smallbrook Junction railway station","naptan:AtcoCode":"9100SMALBRK"}},
{"type":"Feature","geometry":{"type":"Point","coordinates":[-1.2146592,50.7054346]},"properties":{"addr:city":"Havenstreet, near Ryde","addr:street":"Main Road","name":"Havenstreet","railway":"station","usage":"tourism","wikidata":"Q5683726"}},
{"type":"Feature","geometry":{"type":"Point","coordinates":[-1.183063,50.6964692]},"properties":{"name":"Ashey","usage":"tourism","railway":"station","wikidata":"Q4804934","request_stop":"yes"}},
{"type":"Feature","geometry":{"type":"Point","coordinates":[-1.1664698,50.6461826]},"properties":{"name":"Lake","naptan:AtcoCode":"9100LAKEIOW","network":"National Rail","operator":"Island Line Trains","public_transport":"station","railway":"station","ref:crs":"LKE","wheelchair":"yes","wikidata":"Q2126164","wikipedia":"en:Lake railway station"}},
{"type":"Feature","geometry":{"type":"Point","coordinates":[-1.1596319,50.7330485]},"properties":{"name":"Ryde Esplanade","naptan:AtcoCode":"9100RYDE","network":"National Rail","operator":"Island Line","railway":"station","ref:crs":"RYD","wheelchair":"yes","wikidata":"Q2174613","wikipedia":"en:Ryde Esplanade railway station"}},
{"type":"Feature","geometry":{"type":"Point","coordinates":[-1.1604721,50.7390318]},"properties":{"name":"Ryde Pier Head","naptan:AtcoCode":"9100RYDP","network":"National Rail","railway":"station","ref:crs":"RYP","wikipedia":"en:Ryde Pier Head railway station"}},
{"type":"Feature","geometry":{"type":"Point","coordinates":[-1.2405289,50.718146]},"properties":{"image":"File:Wootton station, Isle of Wight, UK.jpg","name":"Wootton","platforms":"1","railway":"station","usage":"tourism","wikidata":"Q8034101"}},
{"type":"Feature","geometry":{"type":"Point","coordinates":[-1.1799202,50.6338793]},"properties":{"name":"Shanklin","image":"File:Shanklin station, Isle of Wight.jpg","train":"yes","network":"National Rail","railway":"station","ref:crs":"SHN","operator":"Island Line","wikidata":"Q2680445","addr:city":"Shanklin","wikipedia":"en:Shanklin railway station","wheelchair":"yes","addr:street":"Station Approach","addr:country":"GB","naptan:AtcoCode":"9100SHANKLN","public_transport":"station"}},
{"type":"Feature","geometry":{"type":"Point","coordinates":[-1.1622454,50.6571102]},"properties":{"name":"Sandown","image":"File:Sandown Railway Station, Isle of Wight, UK.jpg","train":"yes","network":"National Rail","railway":"station","ref:crs":"SAN","wikidata":"Q2685831","wikipedia":"en:Sandown railway station","naptan:AtcoCode":"9100SNDOWN","public_transport":"station"}}
]}
