{"type":"FeatureCollection","features":[
{"type":"Feature","geometry":{"type":"Point","coordinates":[0.1526024,51.1284231]},"properties":{"addr:postcode":"TN3 9TL","name":"Ashurst","naptan:AtcoCode":"9100ASHURST","network":"National Rail","public_transport":"station","railway":"station","ref:crs":"AHS","source":"gps","wikidata":"Q2393085","wikipedia":"en:Ashurst railway station"}},
{"type":"Feature","geometry":{"type":"Point","coordinates":[0.1734867,51.1972229]},"properties":{"addr:postcode":"TN11 8JE","name":"Penshurst","naptan:AtcoCode":"9100PNSHRST","network":"National Rail","public_transport":"station","railway":"station","ref:crs":"PHR","wikidata":"Q2675582","wikipedia":"en:Penshurst railway station"}},
{"type":"Feature","geometry":{"type":"Point","coordinates":[0.8906635,51.3116525]},"properties":{"addr:city":"Faversham","addr:postcode":"ME13 8EB","addr:street":"Station Road","name":"Faversham","naptan:AtcoCode":"9100FAVRSHM","network":"National Rail","operator":"Southeastern","platforms":"4","public_transport":"station","railway":"station","ref:crs":"FAV","wikidata":"Q4753369","wikipedia":"en:Faversham railway station"}},
{"type":"Feature","geometry":{"type":"Point","coordinates":[0.2527161,51.1236048]},"properties":{"name":"Tunbridge Wells West","public_transport":"station","railway":"station","tourism":"preserved_railway","train":"yes","usage":"tourism","wheelchair":"yes","wikidata":"Q7852851","wikipedia":"en:Tunbridge Wells West railway station"}},
{"type":"Feature","geometry":{"type":"Point","coordinates":[0.6852189,51.0703263]},"properties":{"name":"Tenterden Town","usage":"tourism","railway":"station","tourism":"preserved_railway","wikidata":"Q7700834","wikipedia":"en:Tenterden Town railway station","public_transport":"station"}},
{"type":"Feature","geometry":{"type":"Point","coordinates":[0.6600068,51.0639927]},"properties":{"name":"Rolvenden","usage":"tourism","railway":"station","tourism":"preserved_railway","wikidata":"Q7361435","wikipedia":"en:Rolvenden railway station","public_transport":"station"}},
{"type":"Feature","geometry":{"type":"Point","coordinates":[0.6611109,51.0279011]},"properties":{"name":"Wittersham Road","note":"Explictly named on NPE","usage":"tourism","railway":"station","tourism":"preserved_railway","wikidata":"Q8028586","wikipedia":"en:Wittersham Road railway station","public_transport":"station"}},
{"type":"Feature","geometry":{"type":"Point","coordinates":[0.6138687,51.0094167]},"properties":{"name":"Northiam","note":"Explicitly named on NPE","usage":"tourism","source":"survey","railway":"station","tourism":"preserved_railway","wikidata":"Q7059479"}},
{"type":"Feature","geometry":{"type":"Point","coordinates":[1.0724072,51.0713264]},"properties":{"name":"Hythe","railway":"station","source":"npe","usage":"tourism"}},
{"type":"Feature","geometry":{"type":"Point","coordinates":[0.9541871,50.9859454]},"properties":{"name":"New Romney","note":"Survey or additional information required to verify station layout","usage":"tourism","railway":"station","tourism":"attraction","operator":"Romney, Hythe & Dymchurch Railway","wikidata":"Q13570472","wikipedia":"en:New Romney railway station","addr:street":"Littlestone Road","addr:postcode":"TN28 8PL","contact:phone":"+44 1797 362353","addr:housenumber":"2","source:addr:postcode":"Gift bag","source:contact:phone":"Gift bag"}},
{"type":"Feature","geometry":{"type":"Point","coordinates":[0.9631255,50.9587315]},"properties":{"name":"Romney Sands","operator":"Romney, Hythe & Dymchurch Railway","public_transport":"station","railway":"station","source":"survey","tourism":"attraction","usage":"tourism","wikidata":"Q7363267"}},
{"type":"Feature","geometry":{"type":"Point","coordinates":[0.9705863,50.914493]},"properties":{"name":"Dungeness","public_transport":"station","railway":"station","train":"yes","usage":"tourism"}},
{"type":"Feature","geometry":{"type":"Point","coordinates":[0.7497508,51.4159485]},"properties":{"name":"Queenborough","network":"National Rail","railway":"station","ref:crs":"QBR","wikidata":"Q2323119","wikipedia":"en:Queenborough railway station","naptan:AtcoCode":"9100QUENBRO"}},
{"type":"Feature","geometry":{"type":"Point","coordinates":[0.7586219,51.4408766]},"properties":{"name":"Sheerness-on-Sea","network":"National Rail","railway":"station","ref:crs":"SSS","wikidata":"Q7492505","wikipedia":"en:Sheerness-on-Sea railway station","naptan:AtcoCode":"9100SHRNSOS"}},
{"type":"Feature","geometry":{"type":"Point","coordinates":[0.7349601,51.3617377]},"properties":{"name":"Kemsley","network":"National Rail","railway":"station","ref:crs":"KML","wikidata":"Q2625213","wikipedia":"en:Kemsley railway station","wheelchair":"yes","naptan:AtcoCode":"9100KMSLY"}},
{"type":"Feature","geometry":{"type":"Point","coordinates":[0.4660183,51.426953]},"properties":{"name":"Higham","naptan:AtcoCode":"9100HIGM","network":"National Rail","public_transport":"station","railway":"station","ref:crs":"HGM","source":"survey","wikidata":"Q1883622","wikipedia":"en:Higham railway station (Kent)"}},
{"type":"Feature","geometry":{"type":"Point","coordinates":[0.7567947,51.3618635]},"properties":{"name":"Kemsley Down","network":"Sittingbourne and Kemsley Light Railway","operator":"Sittingbourne and Kemsley Light Railway","public_transport":"station","railway":"station","tourism":"heritage_railway","train":"yes","usage":"tourism"}},
{"type":"Feature","geometry":{"type":"Point","coordinates":[1.230519,51.1896657]},"properties":{"addr:city":"Shepherdswell","addr:street":"Station Road","name":"Shepherdswell (EKR)","network":"East Kent Railway","operator":"East Kent Railway","public_transport":"station","railway":"station","source":"npe","tourism":"attraction","usage":"tourism"}},
{"type":"Feature","geometry":{"type":"Point","coordinates":[0.7468492,51.3889653]},"properties":{"name":"Swale","train":"yes","network":"National Rail","railway":"station","ref:crs":"SWL","old_name":"Kings Ferry Bridge Halt;Swale Halt","wikidata":"Q2191551","wikipedia":"en:Swale railway station","naptan:AtcoCode":"9100SWALE","public_transport":"station"}},
{"type":"Feature","geometry":{"type":"Point","coordinates":[0.5661533,51.3947559]},"properties":{"name":"Fort Apache","usage":"tourism","railway":"station","tourism":"miniature_railway"}},
{"type":"Feature","geometry":{"type":"Point","coordinates":[0.2245277,51.1225275]},"properties":{"name":"High Rocks","train":"yes","usage":"tourism","railway":"station","tourism":"preserved_railway","wikidata":"Q15223909","public_transport":"station"}},
{"type":"Feature","geometry":{"type":"Point","coordinates":[1.2638353,51.1991459]},"properties":{"addr:city":"Eythorne","addr:street":"Shooters Hill","name":"Eythorne","network":"East Kent Railway","operator":"East Kent Railway","public_transport":"station","railway":"station","tourism":"attraction","usage":"tourism","wikidata":"Q5423046"}},
{"type":"Feature","geometry":{"type":"Point","coordinates":[0.7852812,51.4378653]},"properties":{"usage":"tourism","railway":"station","station":"miniature"}},
{"type":"Feature","geometry":{"type":"Point","coordinates":[0.9904977,51.0251985]},"properties":{"name":"Dymchurch","public_transport":"station","railway":"station","source":"survey","tourism":"attraction","usage":"tourism","wheelchair":"yes","wikidata":"Q5318836"}},
{"type":"Feature","geometry":{"type":"Point","coordinates":[0.9604261,50.9972577]},"properties":{"name":"Romney Warren Halt","usage":"tourism","railway":"station","wikidata":"Q4104339","wikipedia":"en:Warren Halt railway station"}},
{"type":"Feature","geometry":{"type":"Point","coordinates":[0.9744645,51.0114923]},"properties":{"name":"St Mary's Bay","usage":"tourism","source":"survey","railway":"station","tourism":"attraction","wikidata":"Q7594246"}},
{"type":"Feature","geometry":{"type":"Point","coordinates":[0.6846999,51.2927025]},"properties":{"name":"Stony Shaw","usage":"tourism","railway":"station","source:name":"Operator website"}},
{"type":"Feature","geometry":{"type":"Point","coordinates":[0.7336166,51.345203]},"properties":{"name":"Sittingbourne Viaduct","public_transport":"station","railway":"station","train":"yes","usage":"tourism","wheelchair":"no"}},
{"type":"Feature","geometry":{"type":"Point","coordinates":[0.2629955,51.1300963]},"properties":{"name":"Tunbridge Wells","train":"yes","network":"National Rail","railway":"station","ref:crs":"TBW","wikidata":"Q3381300","wikipedia":"en:Tunbridge Wells railway station","wheelchair":"yes","addr:postcode":"TN1 1BT","naptan:AtcoCode":"9100TUNWELL","public_transport":"station"}},
{"type":"Feature","geometry":{"type":"Point","coordinates":[0.1817999,51.2766797]},"properties":{"name":"Sevenoaks","network":"National Rail","railway":"station","ref:crs":"SEV","website":"http://www.nationalrail.co.uk/stations/sev/details.html","wikipedia":"en:Sevenoaks railway station","postal_code":"TN13 1DP","naptan:AtcoCode":"9100SVNOAKS","public_transport":"station"}},
{"type":"Feature","geometry":{"type":"Point","coordinates":[1.0753092,51.2842245]},"properties":{"name":"Canterbury West","train":"yes","network":"National Rail","railway":"station","ref:crs":"CBW","wikidata":"Q671106","platforms":"2","wikipedia":"en:Canterbury West railway station","wheelchair":"yes","naptan:AtcoCode":"9100CNTBW","public_transport":"station"}},
{"type":"Feature","geometry":{"type":"Point","coordinates":[0.9294965,51.1853805]},"properties":{"name":"Wye","network":"National Rail","railway":"station","ref:crs":"WYE","wikidata":"Q2011884","platforms":"2","wikipedia":"en:Wye railway station","naptan:AtcoCode":"9100WYEE"}},
{"type":"Feature","geometry":{"type":"Point","coordinates":[0.5454292,51.270386]},"properties":{"usage":"tourism","railway":"station"}},
{"type":"Feature","geometry":{"type":"Point","coordinates":[0.7351464,51.342078]},"properties":{"name":"Sittingbourne","network":"National Rail","railway":"station","ref:crs":"SIT","wikidata":"Q1919614","platforms":"3","wikipedia":"en:Sittingbourne railway station","naptan:AtcoCode":"9100STNGBRN"}},
{"type":"Feature","geometry":{"type":"Point","coordinates":[1.0343648,51.3576861]},"properties":{"name":"Whitstable","network":"National Rail","railway":"station","ref:crs":"WHI","wikidata":"Q2555569","platforms":"2","wikipedia":"en:Whitstable railway station","naptan:AtcoCode":"9100WHSTBLE","public_transport":"station"}},
{"type":"Feature","geometry":{"type":"Point","coordinates":[1.0674411,51.3602828]},"properties":{"name":"Chestfield & Swalecliffe","naptan:AtcoCode":"9100CHSW","network":"National Rail","operator":"Southeastern","platforms":"2","public_transport":"station","railway":"station","ref:crs":"CSW","wikidata":"Q5093891","wikipedia":"en:Chestfield & Swalecliffe railway station"}},
{"type":"Feature","geometry":{"type":"Point","coordinates":[0.1971759,51.3129318]},"properties":{"name":"Otford","network":"National Rail","railway":"station","ref:crs":"OTF","wikidata":"Q2023511","wikipedia":"en:Otford railway station","naptan:AtcoCode":"9100OTFORD","public_transport":"station"}},
{"type":"Feature","geometry":{"type":"Point","coordinates":[1.3825478,51.2032233]},"properties":{"name":"Walmer","naptan:AtcoCode":"9100WALMER","network":"National Rail","public_transport":"station","railway":"station","ref:crs":"WAM","source":"survey","wikidata":"Q3502336","wikipedia":"en:Walmer railway station"}},
{"type":"Feature","geometry":{"type":"Point","coordinates":[0.2278823,51.2145812]},"properties":{"name":"Hildenborough","naptan:AtcoCode":"9100HLDNBRO","network":"National Rail","public_transport":"station","railway":"station","ref:crs":"HLB","wikidata":"Q1946568","wikipedia":"en:Hildenborough railway station"}},
{"type":"Feature","geometry":{"type":"Point","coordinates":[0.1941812,51.2901134]},"properties":{"addr:street":"Bat and Ball Road","name":"Bat & Ball","naptan:AtcoCode":"9100BATABAL","network":"National Rail","old_name":"Sevenoaks Bat & Ball","public_transport":"station","railway":"station","ref:crs":"BBL","source":"NPE","wikidata":"Q4868455","wikipedia":"en:Bat & Ball railway station"}},
{"type":"Feature","geometry":{"type":"Point","coordinates":[0.2042149,51.3623288]},"properties":{"name":"Eynsford","naptan:AtcoCode":"9100EYNSFD","network":"National Rail","public_transport":"station","railway":"station","ref:crs":"EYN","source":"NPE","wikidata":"Q2324147","wikipedia":"en:Eynsford railway station"}},
{"type":"Feature","geometry":{"type":"Point","coordinates":[0.2779622,51.1497792]},"properties":{"addr:postcode":"TN2 3XE","addr:street":"North Farm Road","name":"High Brooms","naptan:AtcoCode":"9100HBROOMS","network":"National Rail","public_transport":"station","railway":"station","ref:crs":"HIB","website":"http://www.nationalrail.co.uk/stations/hib/details.html","wikidata":"Q2289866","wikipedia":"en:High Brooms railway station"}},
{"type":"Feature","geometry":{"type":"Point","coordinates":[0.6864127,51.2951704]},"properties":{"name":"Warren Wood","usage":"tourism","railway":"station","public_transport":"station"}},
{"type":"Feature","geometry":{"type":"Point","coordinates":[0.1308295,51.3457689]},"properties":{"name":"Knockholt","network":"National Rail","railway":"station","ref:crs":"KCK","wikidata":"Q1908399","wikipedia":"en:Knockholt railway station","naptan:AtcoCode":"9100KNCKHLT","public_transport":"station"}},
{"type":"Feature","geometry":{"type":"Point","coordinates":[0.8770041,51.2998497]},"properties":{"description":"Faversham Miniature Railway","name":"Brogdale Central Station","railway":"station","usage":"tourism"}},
{"type":"Feature","geometry":{"type":"Point","coordinates":[0.2191164,51.4474203]},"properties":{"name":"Dartford","source":"NPE","name:lt":"Dartfordas","network":"National Rail","railway":"station","ref:crs":"DFD","operator":"Southeastern","wikidata":"Q2380329","wikipedia":"en:Dartford railway station","source_ref":"http://en.wikipedia.org/wiki/List_of_London_railway_stations","wheelchair":"yes","naptan:AtcoCode":"9100DARTFD","public_transport":"station","wheelchair:description":"Lifts to all platforms"}},
{"type":"Feature","geometry":{"type":"Point","coordinates":[0.1713301,51.2966115]},"properties":{"name":"Dunton Green","source":"NPE","network":"National Rail","railway":"station","ref:crs":"DNG","website":"http://www.nationalrail.co.uk/stations/dng/details.html","wikidata":"Q2090452","wikipedia":"en:Dunton Green railway station","addr:postcode":"TN13 2XD","naptan:AtcoCode":"9100DTNG","public_transport":"station"}},
{"type":"Feature","geometry":{"type":"Point","coordinates":[0.067215,51.2001369]},"properties":{"addr:postcode":"TN8 5LP","name":"Edenbridge Town","naptan:AtcoCode":"9100EDNT","network":"National Rail","railway":"station","ref:crs":"EBT","source":"NPE","wikipedia":"en:Edenbridge Town railway station"}},
{"type":"Feature","geometry":{"type":"Point","coordinates":[0.0948105,51.1813846]},"properties":{"addr:postcode":"TN8 7ER","name":"Hever","naptan:AtcoCode":"9100HEVER","network":"National Rail","public_transport":"station","railway":"station","ref:crs":"HEV","source":"NPE","wikipedia":"en:Hever railway station"}},
{"type":"Feature","geometry":{"type":"Point","coordinates":[0.1098981,51.1556295]},"properties":{"addr:postcode":"TN8 7DS","name":"Cowden","naptan:AtcoCode":"9100COWDEN","network":"National Rail","public_transport":"station","railway":"station","ref:crs":"CWN","source":"landsat photo","wikidata":"Q2374789","wikipedia":"en:Cowden railway station"}},
{"type":"Feature","geometry":{"type":"Point","coordinates":[1.3171057,51.3291668]},"properties":{"name":"Minster","train":"yes","network":"National Rail","railway":"station","ref:crs":"MSR","operator":"Southeastern","wikidata":"Q2451565","wikipedia":"en:Minster railway station","naptan:AtcoCode":"9100MINSTER","public_transport":"station"}},
{"type":"Feature","geometry":{"type":"Point","coordinates":[1.3382306,51.3812842]},"properties":{"name":"Westgate-on-Sea","train":"yes","network":"National Rail","railway":"station","ref:crs":"WGA","operator":"Southeastern","wikidata":"Q2515203","wikipedia":"en:Westgate-on-Sea railway station","naptan:AtcoCode":"9100WESGTOS","public_transport":"station"}},
{"type":"Feature","geometry":{"type":"Point","coordinates":[0.321223,51.4423531]},"properties":{"name":"Ebbsfleet International","layer":"2","train":"yes","source":"Bing","network":"National Rail","railway":"station","ref:crs":"EBD","wikidata":"Q800703","wikipedia":"en:Ebbsfleet International railway station","naptan:AtcoCode":"9100EBSFLTI","public_transport":"station"}},
{"type":"Feature","geometry":{"type":"Point","coordinates":[0.5498339,51.3865507]},"properties":{"name":"Gillingham","train":"yes","network":"National Rail","railway":"station","ref:crs":"GLM","website":"http://www.nationalrail.co.uk/stations_destinations/GLM.aspx","wikidata":"Q2086117","addr:city":"Gillingham","wikipedia":"en:Gillingham railway station (Kent)","wheelchair":"yes","addr:street":"Railway Street","addr:postcode":"ME7 1XE","naptan:AtcoCode":"9100GLNGHMK","public_transport":"station"}},
{"type":"Feature","geometry":{"type":"Point","coordinates":[0.4033747,51.2045463]},"properties":{"name":"Beltring","train":"yes","source":"NPE","network":"National Rail","railway":"station","ref:crs":"BEG","wikidata":"Q2680767","wikipedia":"en:Beltring railway station","naptan:AtcoCode":"9100BLTRNAB","public_transport":"station"}},
{"type":"Feature","geometry":{"type":"Point","coordinates":[0.4121616,51.2266654]},"properties":{"name":"Yalding","source":"Bing","network":"National Rail","railway":"station","ref:crs":"YAL","wikidata":"Q2109915","wikipedia":"en:Yalding railway station","naptan:AtcoCode":"9100YALDING","public_transport":"station"}},
{"type":"Feature","geometry":{"type":"Point","coordinates":[0.4227983,51.2496889]},"properties":{"name":"Wateringbury","train":"yes","source":"NPE","network":"National Rail","railway":"station","ref:crs":"WTR","wikipedia":"en:Wateringbury railway station","naptan:AtcoCode":"9100WTRNGBY","public_transport":"station"}},
{"type":"Feature","geometry":{"type":"Point","coordinates":[0.4844783,51.2552513]},"properties":{"name":"East Farleigh","naptan:AtcoCode":"9100EFARLGH","network":"National Rail","public_transport":"station","railway":"station","ref:crs":"EFL","source":"NPE","train":"yes","wikidata":"Q3065808","wikipedia":"en:East Farleigh railway station"}},
{"type":"Feature","geometry":{"type":"Point","coordinates":[0.5157564,51.2703088]},"properties":{"name":"Maidstone West","naptan:AtcoCode":"9100MSTONEW","network":"National Rail","postal_code":"ME16 8RJ","public_transport":"station","railway":"station","ref:crs":"MDW","source":"NPE","wikipedia":"en:Maidstone West railway station"}},
{"type":"Feature","geometry":{"type":"Point","coordinates":[0.5141731,51.2770433]},"properties":{"name":"Maidstone Barracks","network":"National Rail","railway":"station","ref:crs":"MDB","wikidata":"Q2913119","wikipedia":"en:Maidstone Barracks railway station","postal_code":"ME16 0SQ","naptan:AtcoCode":"9100MSTONEB","public_transport":"station"}},
{"type":"Feature","geometry":{"type":"Point","coordinates":[0.4659983,51.3014591]},"properties":{"name":"Aylesford","train":"yes","source":"NPE","network":"National Rail","railway":"station","ref:crs":"AYL","wikidata":"Q2578339","wikipedia":"en:Aylesford railway station","naptan:AtcoCode":"9100AYLESFD","public_transport":"station"}},
{"type":"Feature","geometry":{"type":"Point","coordinates":[0.4551387,51.3128389]},"properties":{"name":"New Hythe","network":"National Rail","railway":"station","ref:crs":"NHE","wikidata":"Q2244436","wikipedia":"en:New Hythe railway station","postal_code":"ME20 6XJ","naptan:AtcoCode":"9100NWHYTHE","public_transport":"station"}},
{"type":"Feature","geometry":{"type":"Point","coordinates":[0.4484399,51.3302228]},"properties":{"name":"Snodland","train":"yes","network":"National Rail","railway":"station","ref:crs":"SDA","wikipedia":"en:Snodland railway station","naptan:AtcoCode":"9100SNODLND","public_transport":"station"}},
{"type":"Feature","geometry":{"type":"Point","coordinates":[0.4451218,51.3523741]},"properties":{"name":"Halling","network":"National Rail","railway":"station","ref:crs":"HAI","wikidata":"Q2122913","wikipedia":"en:Halling railway station","naptan:AtcoCode":"9100HALG","public_transport":"station"}},
{"type":"Feature","geometry":{"type":"Point","coordinates":[0.461982,51.373911]},"properties":{"name":"Cuxton","train":"yes","network":"National Rail","railway":"station","ref:crs":"CUX","wikidata":"Q2456141","wikipedia":"en:Cuxton railway station","naptan:AtcoCode":"9100CXTN","public_transport":"station"}},
{"type":"Feature","geometry":{"type":"Point","coordinates":[0.5002689,51.3965972]},"properties":{"name":"Strood","network":"National Rail","railway":"station","ref:crs":"SOO","wikipedia":"en:Strood railway station","wheelchair":"yes","naptan:AtcoCode":"9100STROOD","public_transport":"station"}},
{"type":"Feature","geometry":{"type":"Point","coordinates":[1.3048692,51.1259357]},"properties":{"name":"Dover Priory","source":"survey","network":"National Rail","railway":"station","ref:crs":"DVP","uic_ref":"7000004","wikidata":"Q2666521","wikipedia":"en:Dover Priory railway station","wheelchair":"limited","addr:postcode":"CT17 9SB","naptan:AtcoCode":"9100DOVERP","public_transport":"station","toilets:wheelchair":"yes"}},
{"type":"Feature","geometry":{"type":"Point","coordinates":[1.1222644,51.300986]},"properties":{"name":"Sturry","network":"National Rail","railway":"station","ref:crs":"STU","wikidata":"Q2519465","platforms":"2","wikipedia":"en:Sturry railway station","naptan:AtcoCode":"9100STURRY","public_transport":"station"}},
{"type":"Feature","geometry":{"type":"Point","coordinates":[1.0179051,51.2571747]},"properties":{"name":"Chartham","naptan:AtcoCode":"9100CHARTHM","network":"National Rail","platforms":"2","public_transport":"station","railway":"station","ref:crs":"CRT","wikidata":"Q2774125","wikipedia":"en:Chartham railway station"}},
{"type":"Feature","geometry":{"type":"Point","coordinates":[0.9760562,51.2444245]},"properties":{"name":"Chilham","naptan:AtcoCode":"9100CLMN","network":"National Rail","platforms":"2","public_transport":"station","railway":"station","ref:crs":"CIL","wikidata":"Q3333628","wikipedia":"en:Chilham railway station"}},
{"type":"Feature","geometry":{"type":"Point","coordinates":[1.0382037,51.0949221]},"properties":{"name":"Westenhanger","network":"National Rail","railway":"station","ref:crs":"WHA","wikidata":"Q2548598","wikipedia":"en:Westenhanger railway station","naptan:AtcoCode":"9100WENHNGR"}},
{"type":"Feature","geometry":{"type":"Point","coordinates":[1.0660027,51.0904998]},"properties":{"name":"Sandling","network":"National Rail","railway":"station","ref:crs":"SDG","wikidata":"Q1863660","wikipedia":"en:Sandling railway station","naptan:AtcoCode":"9100SDLG"}},
{"type":"Feature","geometry":{"type":"Point","coordinates":[1.1683853,51.0828121]},"properties":{"name":"Folkestone Central","train":"yes","source":"naptan_import;survey","network":"National Rail","railway":"station","ref:crs":"FKC","uic_ref":"7000005","wikidata":"Q2081146","wikipedia":"en:Folkestone Central railway station","naptan:AtcoCode":"9100FLKSTNC","public_transport":"station"}},
{"type":"Feature","geometry":{"type":"Point","coordinates":[1.1537821,51.0847184]},"properties":{"name":"Folkestone West","naptan:AtcoCode":"9100FLKSTNW","network":"National Rail","public_transport":"station","railway":"station","ref:crs":"FKW","wikidata":"Q2313864","wikipedia":"en:Folkestone West railway station"}},
{"type":"Feature","geometry":{"type":"Point","coordinates":[0.3894941,51.1823581]},"properties":{"name":"Paddock Wood","network":"National Rail","railway":"station","ref:crs":"PDW","wikidata":"Q2063096","wikipedia":"en:Paddock Wood railway station","naptan:AtcoCode":"9100PKWD"}},
{"type":"Feature","geometry":{"type":"Point","coordinates":[0.7472664,51.1564283]},"properties":{"name":"Pluckley","network":"National Rail","railway":"station","ref:crs":"PLC","wikidata":"Q2346536","wikipedia":"en:Pluckley railway station","naptan:AtcoCode":"9100PLUCKLY"}},
{"type":"Feature","geometry":{"type":"Point","coordinates":[0.6273669,51.1656292]},"properties":{"name":"Headcorn","naptan:AtcoCode":"9100HEADCRN","network":"National Rail","public_transport":"station","railway":"station","ref:crs":"HCN","wikidata":"Q2482799","wikipedia":"en:Headcorn railway station"}},
{"type":"Feature","geometry":{"type":"Point","coordinates":[0.5504987,51.1715258]},"properties":{"name":"Staplehurst","network":"National Rail","railway":"station","ref:crs":"SPU","wikidata":"Q2076171","wikipedia":"en:Staplehurst railway station","naptan:AtcoCode":"9100SPHS"}},
{"type":"Feature","geometry":{"type":"Point","coordinates":[0.4929884,51.1754411]},"properties":{"name":"Marden","network":"National Rail","railway":"station","ref:crs":"MRN","wikidata":"Q2666551","wikipedia":"en:Marden railway station","naptan:AtcoCode":"9100MARDEN"}},
{"type":"Feature","geometry":{"type":"Point","coordinates":[0.2707171,51.1914337]},"properties":{"name":"Tonbridge","network":"National Rail","railway":"station","ref:crs":"TON","wikidata":"Q2127426","wikipedia":"en:Tonbridge railway station","addr:street":"Barden Road","addr:postcode":"TN9 1TT","naptan:AtcoCode":"9100TONBDG"}},
{"type":"Feature","geometry":{"type":"Point","coordinates":[0.168483,51.3933199]},"properties":{"name":"Swanley","network":"National Rail","railway":"station","ref:crs":"SAY","wikidata":"Q946238","wikipedia":"en:Swanley railway station","source_ref":"http://en.wikipedia.org/wiki/List_of_London_railway_stations","naptan:AtcoCode":"9100SWLY","public_transport":"station"}},
{"type":"Feature","geometry":{"type":"Point","coordinates":[1.1987288,51.2413424]},"properties":{"name":"Adisham","source":"NPE","network":"National Rail","railway":"station","ref:crs":"ADM","uic_ref":"7000036","wikidata":"Q1996073","wikipedia":"en:Adisham railway station","naptan:AtcoCode":"9100ADISHAM"}},
{"type":"Feature","geometry":{"type":"Point","coordinates":[1.1372301,51.2614031]},"properties":{"name":"Bekesbourne","naptan:AtcoCode":"9100BEKSBRN","network":"National Rail","public_transport":"station","railway":"station","ref:crs":"BKS","source":"survey","wheelchair":"limited","wikidata":"Q4881599","wikipedia":"en:Bekesbourne railway station"}},
{"type":"Feature","geometry":{"type":"Point","coordinates":[1.07582,51.274185]},"properties":{"name":"Canterbury East","naptan:AtcoCode":"9100CNTBE","network":"National Rail","public_transport":"station","railway":"station","ref:crs":"CBE","wheelchair":"limited","wikidata":"Q4381574","wikipedia":"en:Canterbury East railway station"}},
{"type":"Feature","geometry":{"type":"Point","coordinates":[0.3781687,51.383247]},"properties":{"name":"Sole Street","source":"NPE","network":"National Rail","railway":"station","ref:crs":"SOR","wikidata":"Q2434718","wikipedia":"en:Sole Street railway station","naptan:AtcoCode":"9100SOLEST","public_transport":"station"}},
{"type":"Feature","geometry":{"type":"Point","coordinates":[0.3566218,51.3864534]},"properties":{"name":"Meopham","source":"NPE","network":"National Rail","railway":"station","ref:crs":"MEP","wikidata":"Q2119853","wikipedia":"en:Meopham railway station","naptan:AtcoCode":"9100MEOPHAM","public_transport":"station"}},
{"type":"Feature","geometry":{"type":"Point","coordinates":[0.300103,51.3962097]},"properties":{"name":"Longfield","source":"NPE","network":"National Rail","railway":"station","ref:crs":"LGF","old_name":"Fawkham","wikipedia":"en:Longfield railway station","naptan:AtcoCode":"9100LGFD","public_transport":"station"}},
{"type":"Feature","geometry":{"type":"Point","coordinates":[0.9411453,51.2772848]},"properties":{"name":"Selling","network":"National Rail","railway":"station","ref:crs":"SEG","wikidata":"Q509141","wikipedia":"en:Selling railway station","naptan:AtcoCode":"9100SELLING"}},
{"type":"Feature","geometry":{"type":"Point","coordinates":[0.8077033,51.3334333]},"properties":{"name":"Teynham","network":"National Rail","railway":"station","ref:crs":"TEY","wikidata":"Q1865163","platforms":"2","wikipedia":"en:Teynham railway station","naptan:AtcoCode":"9100TEYNHAM"}},
{"type":"Feature","geometry":{"type":"Point","coordinates":[0.6680455,51.3534504]},"properties":{"name":"Newington","network":"National Rail","railway":"station","ref:crs":"NGT","wikidata":"Q7018278","wikipedia":"en:Newington railway station","naptan:AtcoCode":"9100NEWNGTN"}},
{"type":"Feature","geometry":{"type":"Point","coordinates":[0.6110362,51.3666656]},"properties":{"name":"Rainham","train":"yes","network":"National Rail","railway":"station","ref:crs":"RAI","wikidata":"Q1865266","wikipedia":"en:Rainham railway station (Kent)","naptan:AtcoCode":"9100RAINHMK","public_transport":"station"}},
{"type":"Feature","geometry":{"type":"Point","coordinates":[0.5212081,51.3803092]},"properties":{"name":"Chatham","source":"NPE","network":"National Rail","railway":"station","ref:crs":"CTM","wikidata":"Q2636404","wikipedia":"en:Chatham railway station","wheelchair":"yes","naptan:AtcoCode":"9100CHATHAM","public_transport":"station"}},
{"type":"Feature","geometry":{"type":"Point","coordinates":[0.5072941,51.3892066]},"properties":{"name":"Rochester","network":"National Rail","railway":"station","ref:crs":"RTR","wikidata":"Q2106217","wikipedia":"en:Rochester railway station","naptan:AtcoCode":"9100RCHT","public_transport":"station"}},
{"type":"Feature","geometry":{"type":"Point","coordinates":[1.3479881,51.1706421]},"properties":{"name":"Martin Mill","source":"survey","network":"National Rail","railway":"station","ref:crs":"MTM","wikidata":"Q2900908","wikipedia":"en:Martin Mill railway station","naptan:AtcoCode":"9100MMIL"}},
{"type":"Feature","geometry":{"type":"Point","coordinates":[1.3986457,51.2231068]},"properties":{"name":"Deal","naptan:AtcoCode":"9100DEAL","network":"National Rail","operator":"SouthEastern","public_transport":"station","railway":"station","ref:crs":"DEA","train":"yes","wikidata":"Q2281278","wikipedia":"en:Deal railway station"}},
{"type":"Feature","geometry":{"type":"Point","coordinates":[1.3422666,51.2699629]},"properties":{"name":"Sandwich","naptan:AtcoCode":"9100SWCH","network":"National Rail","public_transport":"station","railway":"station","ref:crs":"SDW","source":"NPE","wikidata":"Q1977660","wikipedia":"en:Sandwich railway station"}},
{"type":"Feature","geometry":{"type":"Point","coordinates":[0.3226384,51.4432708]},"properties":{"fixme":"Does this station have a unique CRS ref","name":"Ebbsfleet International (domestic)","naptan:AtcoCode":"9100EBSFDOM","network":"National Rail","public_transport":"station","railway":"station","ref:crs_2":"EBD"}},
{"type":"Feature","geometry":{"type":"Point","coordinates":[0.3668306,51.4413627]},"properties":{"name":"Gravesend","network":"National Rail","railway":"station","ref:crs":"GRV","wikidata":"Q2615632","wikipedia":"en:Gravesend railway station","naptan:AtcoCode":"9100GRVSEND","public_transport":"station"}},
{"type":"Feature","geometry":{"type":"Point","coordinates":[0.577672,51.2759153]},"properties":{"addr:postcode":"ME14 4PH","addr:street":"Ware Street","name":"Bearsted","naptan:AtcoCode":"9100BSTD","network":"National Rail","public_transport":"station","railway":"station","ref:crs":"BSD","wikidata":"Q2513832","wikipedia":"en:Bearsted railway station"}},
{"type":"Feature","geometry":{"type":"Point","coordinates":[0.6278176,51.2653803]},"properties":{"addr:city":"Hollingbourne","addr:postcode":"ME17 1TX","addr:street":"Station Approach","name":"Hollingbourne","naptan:AtcoCode":"9100HBRN","network":"National Rail","public_transport":"station","railway":"station","ref:crs":"HBN","wikidata":"Q1815605","wikipedia":"en:Hollingbourne railway station"}},
{"type":"Feature","geometry":{"type":"Point","coordinates":[0.6726551,51.2449353]},"properties":{"name":"Harrietsham","naptan:AtcoCode":"9100HRSM","network":"National Rail","public_transport":"station","railway":"station","ref:crs":"HRM","wikidata":"Q2683079","wikipedia":"en:Harrietsham railway station"}},
{"type":"Feature","geometry":{"type":"Point","coordinates":[0.7072408,51.2344619]},"properties":{"name":"Lenham","network":"National Rail","railway":"station","ref:crs":"LEN","wikidata":"Q1825914","wikipedia":"en:Lenham railway station","naptan:AtcoCode":"9100LENHAM"}},
{"type":"Feature","geometry":{"type":"Point","coordinates":[0.7898686,51.2082021]},"properties":{"name":"Charing","naptan:AtcoCode":"9100CRNG","network":"National Rail","public_transport":"station","railway":"station","ref:crs":"CHG","wikidata":"Q2199062","wikipedia":"en:Charing railway station"}},
{"type":"Feature","geometry":{"type":"Point","coordinates":[0.1887766,51.3321241]},"properties":{"name":"Shoreham","network":"National Rail","railway":"station","ref:crs":"SEH","wikipedia":"en:Shoreham railway station","naptan:AtcoCode":"9100SHRMKT","public_transport":"station"}},
{"type":"Feature","geometry":{"type":"Point","coordinates":[0.2474224,51.2972539]},"properties":{"name":"Kemsing","source":"NPE","network":"National Rail","railway":"station","ref:crs":"KMS","wikidata":"Q2870503","wikipedia":"en:Kemsing railway station","naptan:AtcoCode":"9100KEMSING","public_transport":"station"}},
{"type":"Feature","geometry":{"type":"Point","coordinates":[0.3061936,51.2931422]},"properties":{"name":"Borough Green & Wrotham","network":"National Rail","railway":"station","ref:crs":"BRG","wikidata":"Q4946312","wikipedia":"en:Borough Green & Wrotham railway station","naptan:AtcoCode":"9100BORWGAW","public_transport":"station"}},
{"type":"Feature","geometry":{"type":"Point","coordinates":[0.4403872,51.2856601]},"properties":{"name":"East Malling","network":"National Rail","railway":"station","ref:crs":"EML","wikidata":"Q2184113","wikipedia":"en:East Malling railway station","postal_code":"ME19 6AJ","naptan:AtcoCode":"9100EMALING","public_transport":"station"}},
{"type":"Feature","geometry":{"type":"Point","coordinates":[0.4792926,51.2848536]},"properties":{"name":"Barming","source":"NPE","network":"National Rail","railway":"station","ref:crs":"BMG","wikidata":"Q4861272","wikipedia":"en:Barming railway station","naptan:AtcoCode":"9100BARMING","public_transport":"station"}},
{"type":"Feature","geometry":{"type":"Point","coordinates":[0.5200388,51.2775199]},"properties":{"name":"Maidstone East","network":"National Rail","railway":"station","ref:crs":"MDE","wikidata":"Q952299","wikipedia":"en:Maidstone East railway station","postal_code":"ME14 1QN","naptan:AtcoCode":"9100MSTONEE","public_transport":"station"}},
{"type":"Feature","geometry":{"type":"Point","coordinates":[0.235341,51.4016801]},"properties":{"name":"Farningham Road","source":"NPE","network":"National Rail","railway":"station","ref:crs":"FNR","wikidata":"Q2599575","wikipedia":"en:Farningham Road railway station","naptan:AtcoCode":"9100FRNNGRD","public_transport":"station"}},
{"type":"Feature","geometry":{"type":"Point","coordinates":[1.4252755,51.3458538]},"properties":{"addr:city":"Ramsgate","addr:street":"Sycamore Grange","internet_access":"no","name":"Dumpton Park","naptan:AtcoCode":"9100DUMPTNP","network":"National Rail","operator":"Southeastern","platforms":"2","public_transport":"station","railway":"station","ref:crs":"DMP","train":"yes","wheelchair":"no","wikidata":"Q5313984","wikipedia":"en:Dumpton Park railway station"}},
{"type":"Feature","geometry":{"type":"Point","coordinates":[1.433387,51.3607395]},"properties":{"name":"Broadstairs","naptan:AtcoCode":"9100BRSR","network":"National Rail","platforms":"2","public_transport":"station","railway":"station","ref:crs":"BSR","source":"survey","train":"yes","wikidata":"Q2912867","wikipedia":"en:Broadstairs railway station"}},
{"type":"Feature","geometry":{"type":"Point","coordinates":[1.3009038,51.3775024]},"properties":{"name":"Birchington-on-Sea","naptan:AtcoCode":"9100BCNGNOS","network":"National Rail","platforms":"2","public_transport":"station","railway":"station","ref:crs":"BCH","wikidata":"Q1892812","wikipedia":"en:Birchington-on-Sea railway station"}},
{"type":"Feature","geometry":{"type":"Point","coordinates":[1.1183071,51.3644375]},"properties":{"name":"Herne Bay","network":"National Rail","railway":"station","ref:crs":"HNB","wikidata":"Q2294609","platforms":"2","wikipedia":"en:Herne Bay railway station","naptan:AtcoCode":"9100HRNEBAY","public_transport":"station"}},
{"type":"Feature","geometry":{"type":"Point","coordinates":[1.2095904,51.2274229]},"properties":{"name":"Aylesham","source":"survey","network":"National Rail","railway":"station","ref:crs":"AYH","wikidata":"Q4831400","wikipedia":"en:Aylesham railway station","naptan:AtcoCode":"9100ALSHAM"}},
{"type":"Feature","geometry":{"type":"Point","coordinates":[1.2137143,51.2151407]},"properties":{"name":"Snowdown","train":"yes","source":"survey","network":"National Rail","railway":"station","ref:crs":"SWO","wikidata":"Q2605621","wikipedia":"en:Snowdown railway station","naptan:AtcoCode":"9100SNWDNAN","public_transport":"station"}},
{"type":"Feature","geometry":{"type":"Point","coordinates":[1.2297861,51.1880383]},"properties":{"addr:city":"Shepherdswell","addr:street":"Station Road","name":"Shepherdswell","naptan:AtcoCode":"9100SWELL","network":"National Rail","note":"Although noted on timetables as Shepherds Well, the signs at the station actually say Shepherdswell.","official_name":"Shepherds Well","operator":"Southeastern Railway","public_transport":"station","railway":"station","ref:crs":"SPH","source":"NPE","wikipedia":"en:Shepherds Well railway station"}},
{"type":"Feature","geometry":{"type":"Point","coordinates":[1.2724936,51.1489301]},"properties":{"name":"Kearsney","source":"NPE","network":"National Rail","railway":"station","ref:crs":"KSN","wikidata":"Q2358908","wikipedia":"en:Kearsney railway station","naptan:AtcoCode":"9100KSNY"}},
{"type":"Feature","geometry":{"type":"Point","coordinates":[0.8165763,51.0332869]},"properties":{"name":"Appledore","source":"survey","network":"National Rail","railway":"station","ref:crs":"APD","wikidata":"Q2414753","wikipedia":"en:Appledore railway station","naptan:AtcoCode":"9100APDR"}},
{"type":"Feature","geometry":{"type":"Point","coordinates":[0.2112588,51.1939929]},"properties":{"name":"Leigh","network":"National Rail","railway":"station","ref:crs":"LIH","wikidata":"Q2218963","wikipedia":"en:Leigh railway station","addr:postcode":"TN11 8RU","naptan:AtcoCode":"9100LEIGHK"}},
{"type":"Feature","geometry":{"type":"Point","coordinates":[0.0598637,51.2083661]},"properties":{"addr:postcode":"TN8 6HR","name":"Edenbridge","naptan:AtcoCode":"9100EDNB","network":"National Rail","public_transport":"station","railway":"station","ref:crs":"EBR","source":"survey","wikidata":"Q3117816","wikipedia":"en:Edenbridge railway station"}},
{"type":"Feature","geometry":{"type":"Point","coordinates":[0.3239669,51.4459453]},"properties":{"name":"Northfleet","network":"National Rail","railway":"station","ref:crs":"NFL","wikidata":"Q2545395","wikipedia":"en:Northfleet railway station","naptan:AtcoCode":"9100NRTHFLT","public_transport":"station"}},
{"type":"Feature","geometry":{"type":"Point","coordinates":[0.3100251,51.4491136]},"properties":{"name":"Swanscombe","source":"NPE","network":"National Rail","railway":"station","ref:crs":"SWM","wikidata":"Q2298428","wikipedia":"en:Swanscombe railway station","naptan:AtcoCode":"9100SWNSCMB","public_transport":"station"}},
{"type":"Feature","geometry":{"type":"Point","coordinates":[0.2798724,51.4504764]},"properties":{"name":"Greenhithe","train":"yes","network":"National Rail","railway":"station","ref:crs":"GNH","wikidata":"Q3087636","wikipedia":"en:Greenhithe railway station","naptan:AtcoCode":"9100GNHT","public_transport":"station"}},
{"type":"Feature","geometry":{"type":"Point","coordinates":[0.2634425,51.4514164]},"properties":{"name":"Stone Crossing","source":"NPE","network":"National Rail","railway":"station","ref:crs":"SCG","wikidata":"Q3341228","wikipedia":"en:Stone Crossing railway station","naptan:AtcoCode":"9100STCR","public_transport":"station"}},
{"type":"Feature","geometry":{"type":"Point","coordinates":[0.4186871,51.2920962]},"properties":{"alt_name":"West Malling for Kings Hill","name":"West Malling","naptan:AtcoCode":"9100WMALING","network":"National Rail","postal_code":"ME19 6HJ","public_transport":"station","railway":"station","ref:crs":"WMA","source:name":"survey","train":"yes","wikidata":"Q2053919","wikipedia":"en:West Malling railway station"}},
{"type":"Feature","geometry":{"type":"Point","coordinates":[0.8545851,51.0681986]},"properties":{"name":"Ham Street","naptan:AtcoCode":"9100HMST","network":"National Rail","public_transport":"station","railway":"station","ref:crs":"HMT","wikidata":"Q2453414","wikipedia":"en:Ham Street railway station"}},
{"type":"Feature","geometry":{"type":"Point","coordinates":[1.3719521,51.3851637]},"properties":{"addr:city":"Margate","addr:street":"Station Approach","name":"Margate","naptan:AtcoCode":"9100MARGATE","network":"National Rail","old_name":"Margate West","platforms":"4","public_transport":"station","railway":"station","ref:crs":"MAR","source":"survey","train":"yes","wikidata":"Q4296894","wikipedia":"en:Margate railway station"}},
{"type":"Feature","geometry":{"type":"Point","coordinates":[1.404858,51.3409341]},"properties":{"name":"Ramsgate","naptan:AtcoCode":"9100RAMSGTE","network":"National Rail","public_transport":"station","railway":"station","ref:crs":"RAM","source":"Bing","train":"yes","wheelchair":"yes","wikidata":"Q1897319","wikipedia":"en:Ramsgate railway station"}},
{"type":"Feature","geometry":{"type":"Point","coordinates":[1.0041233,51.0360214]},"properties":{"name":"Burmarsh Road","public_transport":"station","railway":"station","usage":"tourism","wikipedia":"en:Burmarsh Road railway station"}},
{"type":"Feature","geometry":{"type":"Point","coordinates":[0.8752323,51.143379]},"properties":{"name":"Ashford International","naptan:AtcoCode":"9100ASHFKY","network":"National Rail","platforms":"6","postal_code":"TN23 1EZ","public_transport":"station","railway":"station","ref:crs":"AFK","ref:crs_Eurostar":"ASI","toilets:wheelchair":"yes","train":"yes","wheelchair":"yes","wikidata":"Q800406","wikipedia":"en:Ashford International railway station"}},
{"type":"Feature","geometry":{"type":"Point","coordinates":[1.2299591,51.1891733]},"properties":{"name":"Shepherdswell (EKMR)","network":"East Kent Miniature Railway","operator":"East Kent Railway","public_transport":"station","railway":"station","tourism":"attraction","usage":"tourism"}}
]}
