{"type":"FeatureCollection","features":[
{"type":"Feature","geometry":{"type":"Point","coordinates":[-1.2028067,52.5713504]},"properties":{"name":"Narborough","source":"survey","network":"National Rail","railway":"station","ref:crs":"NBR","wikidata":"Q1823442","wikipedia":"en:Narborough railway station","postal_code":"LE9 5HR","naptan:AtcoCode":"9100NARBRO"}},
{"type":"Feature","geometry":{"type":"Point","coordinates":[-1.1959184,52.7690651]},"properties":{"name":"Loughborough Central","train":"yes","usage":"tourism","railway":"station","tourism":"attraction","wikidata":"Q6686151","addr:city":"Loughborough","wikipedia":"en:Loughborough Central railway station","wheelchair":"limited","addr:postcode":"LE11 1RW","addr:housename":"Loughborough Central Station","public_transport":"station"}},
{"type":"Feature","geometry":{"type":"Point","coordinates":[-1.3711055,52.5351729]},"properties":{"name":"Hinckley","train":"yes","source":"GPS waypoint","network":"National Rail","railway":"station","ref:crs":"HNK","wikidata":"Q2733409","wikipedia":"en:Hinckley railway station","upload_tag":"ojw_bham","wheelchair":"yes","postal_code":"LE10 1UE","naptan:AtcoCode":"9100HINCKLY","public_transport":"station"}},
{"type":"Feature","geometry":{"type":"Point","coordinates":[-1.1598113,52.7042808]},"properties":{"addr:city":"Rothley","addr:housename":"Rothley Railway Station","addr:postcode":"LE7 7LD","name":"Rothley","public_transport":"station","railway":"station","source":"NPE","train":"yes","usage":"tourism","wikidata":"Q7370489","wikipedia":"en:Rothley railway station"}},
{"type":"Feature","geometry":{"type":"Point","coordinates":[-1.415295,52.5996554]},"properties":{"name":"Shenton","usage":"tourism","railway":"station","wikidata":"Q7494333"}},
{"type":"Feature","geometry":{"type":"Point","coordinates":[-1.4412337,52.6556653]},"properties":{"name":"Shackerstone","usage":"tourism","railway":"station","wikidata":"Q7460166"}},
{"type":"Feature","geometry":{"type":"Point","coordinates":[-0.7948547,52.9446318]},"properties":{"name":"Bottesford","source":"NPE","network":"National Rail","railway":"station","ref:crs":"BTF","wikidata":"Q3985747","wikipedia":"en:Bottesford railway station","naptan:AtcoCode":"9100BOTESFD"}},
{"type":"Feature","geometry":{"type":"Point","coordinates":[-1.420975,52.624726]},"properties":{"name":"Market Bosworth","usage":"tourism","closed":"13 April 1931","opened":"19 March 2011","railway":"station","wikidata":"Q15248129"}},
{"type":"Feature","geometry":{"type":"Point","coordinates":[-0.7998774,52.7565874]},"properties":{"FIXME":"name","usage":"tourism","source":"Bing","railway":"station"}},
{"type":"Feature","geometry":{"type":"Point","coordinates":[-1.1332687,52.6678412]},"properties":{"addr:city":"Leicester","addr:housename":"Leicester North Railway Station","addr:postcode":"LE4 3BR","name":"Leicester North","public_transport":"station","railway":"station","train":"yes","usage":"tourism","wikidata":"Q4882689"}},
{"type":"Feature","geometry":{"type":"Point","coordinates":[-1.5433143,52.7388176]},"properties":{"name":"Discovery Station","usage":"tourism","railway":"station"}},
{"type":"Feature","geometry":{"type":"Point","coordinates":[-1.157396,52.7223746]},"properties":{"name":"Nunckley Hill","network":"Mountsorrel Railway","operator":"Great Central Railway (plc)","public_transport":"station","railway":"station","train":"yes","usage":"tourism"}},
{"type":"Feature","geometry":{"type":"Point","coordinates":[-1.13403,52.5823924]},"properties":{"name":"South Wigston","network":"National Rail","railway":"station","ref:crs":"SWS","operator":"East Midlands Railway","wikidata":"Q2096724","wikipedia":"en:South Wigston railway station","wheelchair":"limited","postal_code":"LE18 4XU","internet_access":"no","naptan:AtcoCode":"9100WGSTS","air_conditioning":"no","public_transport":"station","wikimedia_commons":"Category:South Wigston railway station"}},
{"type":"Feature","geometry":{"type":"Point","coordinates":[-1.1306721,52.6555015]},"properties":{"usage":"tourism","railway":"station"}},
{"type":"Feature","geometry":{"type":"Point","coordinates":[-1.1380655,52.6444735]},"properties":{"train":"yes","usage":"tourism","railway":"station","wheelchair":"no","public_transport":"station"}},
{"type":"Feature","geometry":{"type":"Point","coordinates":[-1.1877284,52.7400619]},"properties":{"addr:housenumber":"Quorn & Woodhouse Station","addr:postcode":"LE12 8AW","name":"Quorn & Woodhouse","public_transport":"station","railway":"station","train":"yes","usage":"tourism","wikidata":"Q7272864","wikipedia":"en:Quorn and Woodhouse railway station"}},
{"type":"Feature","geometry":{"type":"Point","coordinates":[-1.1965133,52.7795757]},"properties":{"addr:city":"Loughborough","name":"Loughborough","naptan:AtcoCode":"9100LOGHBRO","network":"National Rail","public_transport":"station","railway":"station","ref:crs":"LBO","wheelchair":"yes","wheelchair:description":"Need help getting across the tracks","wikidata":"Q1912686","wikipedia":"en:Loughborough railway station"}},
{"type":"Feature","geometry":{"type":"Point","coordinates":[-1.1540785,52.7268895]},"properties":{"name":"Mountsorrel","network":"Mountsorrel Railway","operator":"Great Central Railway (plc)","public_transport":"station","railway":"station","train":"yes","usage":"tourism"}},
{"type":"Feature","geometry":{"type":"Point","coordinates":[-1.1238912,52.6318214]},"properties":{"name":"Leicester","naptan:AtcoCode":"9100LESTER","network":"National Rail","platforms":"4","postal_code":"LE2 0QB","public_transport":"station","railway":"station","ref:crs":"LEI","train":"yes","wheelchair":"yes","wikidata":"Q3399620","wikimedia_commons":"Category:Leicester Central railway station","wikipedia":"en:Leicester railway station"}},
{"type":"Feature","geometry":{"type":"Point","coordinates":[-1.5432707,52.7408988]},"properties":{"name":"Waterside Station","usage":"tourism","railway":"station"}},
{"type":"Feature","geometry":{"type":"Point","coordinates":[-0.8857875,52.7610228]},"properties":{"name":"Melton Mowbray","network":"National Rail","railway":"station","ref:crs":"MMO","wikidata":"Q3296233","wikipedia":"en:Melton Mowbray railway station","naptan:AtcoCode":"9100MLTNSDG","public_transport":"station","wikimedia_commons":"Category:Melton Mowbray railway station"}},
{"type":"Feature","geometry":{"type":"Point","coordinates":[-1.1454909,52.7494311]},"properties":{"name":"Barrow-upon-Soar","naptan:AtcoCode":"9100BAROWOS","network":"National Rail","public_transport":"station","railway":"station","ref:crs":"BWS","wheelchair":"no","wikidata":"Q2146431","wikipedia":"en:Barrow-upon-Soar railway station"}},
{"type":"Feature","geometry":{"type":"Point","coordinates":[-1.0825247,52.6940888]},"properties":{"name":"Syston","naptan:AtcoCode":"9100SYSTON","network":"National Rail","postal_code":"LE7 2HA","public_transport":"station","railway":"station","ref:crs":"SYS","wheelchair":"yes","wikidata":"Q2466439","wikipedia":"en:Syston railway station"}},
{"type":"Feature","geometry":{"type":"Point","coordinates":[-0.9091337,52.4802412]},"properties":{"name":"Market Harborough","network":"National Rail","railway":"station","ref:crs":"MHR","wikidata":"Q2682713","wikipedia":"en:Market Harborough railway station","naptan:AtcoCode":"9100MRKTHRB","public_transport":"station","wikimedia_commons":"Category:Market Harborough railway station"}},
{"type":"Feature","geometry":{"type":"Point","coordinates":[-1.1094383,52.7311264]},"properties":{"name":"Sileby","source":"survey","network":"National Rail","railway":"station","ref:crs":"SIL","wikidata":"Q3023682","wikipedia":"en:Sileby railway station","wheelchair":"no","naptan:AtcoCode":"9100SILEBY","public_transport":"station"}}
]}
