{"type":"FeatureCollection","features":[
{"type":"Feature","geometry":{"type":"Point","coordinates":[-0.4801012,52.6478103]},"properties":{"name":"Stamford","naptan:AtcoCode":"9100STAMFD","network":"National Rail","operator":"CrossCountry Trains","postal_code":"PE9 2JL","public_transport":"station","railway":"station","ref:crs":"SMD","wikidata":"Q2661650","wikipedia":"en:Stamford railway station"}},
{"type":"Feature","geometry":{"type":"Point","coordinates":[0.3345214,53.1431867]},"properties":{"name":"Skegness","source":"NPE tracing","network":"National Rail","railway":"station","ref:crs":"SKG","wikipedia":"en:Skegness railway station","wheelchair":"yes","naptan:AtcoCode":"9100SKEGNES","public_transport":"station"}},
{"type":"Feature","geometry":{"type":"Point","coordinates":[0.2729912,53.1146157]},"properties":{"name":"Havenhouse","source":"NPE tracing","network":"National Rail","railway":"station","ref:crs":"HVN","wikidata":"Q2676343","wikipedia":"en:Havenhouse railway station","naptan:AtcoCode":"9100HAVENHS"}},
{"type":"Feature","geometry":{"type":"Point","coordinates":[0.2345366,53.105126]},"properties":{"name":"Wainfleet","source":"NPE tracing","network":"National Rail","railway":"station","ref:crs":"WFL","wikipedia":"en:Wainfleet railway station","naptan:AtcoCode":"9100WAINFLT"}},
{"type":"Feature","geometry":{"type":"Point","coordinates":[-0.0311968,52.9781191]},"properties":{"name":"Boston","source":"NPE tracing","name:lt":"Bostonas","network":"National Rail","railway":"station","ref:crs":"BSN","wikidata":"Q1812453","wikipedia":"en:Boston railway station","naptan:AtcoCode":"9100BOSTON"}},
{"type":"Feature","geometry":{"type":"Point","coordinates":[-0.8179843,53.5898466]},"properties":{"name":"Crowle","source":"NPE","network":"National Rail","railway":"station","ref:crs":"CWE","operator":"Northern Rail","wikidata":"Q961797","wikipedia":"en:Crowle railway station","naptan:AtcoCode":"9100CROWLE","public_transport":"station"}},
{"type":"Feature","geometry":{"type":"Point","coordinates":[-0.732955,53.5855457]},"properties":{"name":"Althorpe","source":"NPE","network":"National Rail","railway":"station","ref:crs":"ALP","operator":"Northern Rail","wikidata":"Q4736675","wikipedia":"en:Althorpe railway station","naptan:AtcoCode":"9100ALTPE","public_transport":"station"}},
{"type":"Feature","geometry":{"type":"Point","coordinates":[-0.4097613,53.5750127]},"properties":{"name":"Barnetby","source":"npe","network":"National Rail","railway":"station","ref:crs":"BTB","operator":"First TransPennine Express","wikidata":"Q1861647","wikipedia":"en:Barnetby railway station","naptan:AtcoCode":"9100BNTBY","public_transport":"station"}},
{"type":"Feature","geometry":{"type":"Point","coordinates":[-0.4857584,53.5490517]},"properties":{"name":"Brigg","naptan:AtcoCode":"9100BRGG","network":"National Rail","operator":"Northern Rail","public_transport":"station","railway":"station","ref:crs":"BGG","source":"Bing","wikidata":"Q2549335","wikipedia":"en:Brigg railway station"}},
{"type":"Feature","geometry":{"type":"Point","coordinates":[-0.5935507,53.4852618]},"properties":{"name":"Kirton Lindsey","source":"NPE","network":"National Rail","railway":"station","ref:crs":"KTL","operator":"Northern Rail","wikidata":"Q3060156","wikipedia":"en:Kirton Lindsey railway station","naptan:AtcoCode":"9100KRTNLND","public_transport":"station"}},
{"type":"Feature","geometry":{"type":"Point","coordinates":[-0.294296,52.9772821]},"properties":{"name":"Heckington","source":"Bing","network":"National Rail","railway":"station","ref:crs":"HEC","wikidata":"Q1998480","wikipedia":"en:Heckington railway station","naptan:AtcoCode":"9100HCKNGTN"}},
{"type":"Feature","geometry":{"type":"Point","coordinates":[-0.4101594,52.9955161]},"properties":{"name":"Sleaford","train":"yes","network":"National Rail","railway":"station","ref:crs":"SLR","operator":"East Midlands Railway","wikidata":"Q2661734","wikipedia":"en:Sleaford railway station","naptan:AtcoCode":"9100SLEFD","public_transport":"station"}},
{"type":"Feature","geometry":{"type":"Point","coordinates":[-0.4559695,52.9852782]},"properties":{"name":"Rauceby","source":"Bing","network":"National Rail","railway":"station","ref:crs":"RAU","wikidata":"Q2146289","wikipedia":"en:Rauceby railway station","naptan:AtcoCode":"9100RAUCEBY"}},
{"type":"Feature","geometry":{"type":"Point","coordinates":[-0.3804741,53.0413872]},"properties":{"name":"Ruskington","source":"Bing","network":"National Rail","railway":"station","ref:crs":"RKT","wikidata":"Q7380966","wikipedia":"en:Ruskington railway station","naptan:AtcoCode":"9100RSKNGTN"}},
{"type":"Feature","geometry":{"type":"Point","coordinates":[-0.3910625,53.1389295]},"properties":{"name":"Metheringham","source":"Bing","network":"National Rail","railway":"station","ref:crs":"MGM","old_name":"Blankney & Metheringham","wikidata":"Q2228454","wikipedia":"en:Metheringham railway station","naptan:AtcoCode":"9100MTHRNGH","public_transport":"station"}},
{"type":"Feature","geometry":{"type":"Point","coordinates":[-0.1098555,52.975325]},"properties":{"name":"Hubberts Bridge","source":"NPE","network":"National Rail","railway":"station","ref:crs":"HBB","wikidata":"Q2354815","wikipedia":"en:Hubberts Bridge railway station","naptan:AtcoCode":"9100HBRTBDG"}},
{"type":"Feature","geometry":{"type":"Point","coordinates":[0.1994893,53.1230064]},"properties":{"name":"Thorpe Culvert","network":"National Rail","railway":"station","ref:crs":"TPC","wikidata":"Q7796688","wikipedia":"en:Thorpe Culvert railway station","naptan:AtcoCode":"9100TCULVRT"}},
{"type":"Feature","geometry":{"type":"Point","coordinates":[-0.0055878,53.54102]},"properties":{"usage":"tourism","railway":"station"}},
{"type":"Feature","geometry":{"type":"Point","coordinates":[0.266985,53.3384086]},"properties":{"usage":"tourism","railway":"station"}},
{"type":"Feature","geometry":{"type":"Point","coordinates":[-0.3007941,53.6192785]},"properties":{"name":"Ulceby","naptan:AtcoCode":"9100ULCEBY","network":"National Rail","operator":"Northern Rail","public_transport":"station","railway":"station","ref:crs":"ULC","source":"npe","wikidata":"Q2553110","wikipedia":"en:Ulceby railway station"}},
{"type":"Feature","geometry":{"type":"Point","coordinates":[-0.4431162,53.6889643]},"properties":{"name":"Barton-on-Humber","naptan:AtcoCode":"9100BRTHMBR","network":"National Rail","operator":"Northern Rail","public_transport":"station","railway":"station","ref:crs":"BAU","source":"npe","wikidata":"Q2889992","wikipedia":"en:Barton-on-Humber railway station"}},
{"type":"Feature","geometry":{"type":"Point","coordinates":[-0.7695068,53.3989869]},"properties":{"name":"Gainsborough Central","source":"NPE","network":"National Rail","railway":"station","ref:crs":"GNB","operator":"Northern Rail","wikidata":"Q1841218","wikipedia":"en:Gainsborough Central railway station","naptan:AtcoCode":"9100GBROC","public_transport":"station"}},
{"type":"Feature","geometry":{"type":"Point","coordinates":[-0.392889,53.6974548]},"properties":{"name":"Barrow Haven","source":"npe","network":"National Rail","railway":"station","ref:crs":"BAV","operator":"Northern Rail","wikidata":"Q4863876","wikipedia":"en:Barrow Haven railway station","naptan:AtcoCode":"9100BARWHVN","public_transport":"station"}},
{"type":"Feature","geometry":{"type":"Point","coordinates":[-0.3374071,53.6766712]},"properties":{"name":"Goxhill","source":"npe","network":"National Rail","railway":"station","ref:crs":"GOX","operator":"Northern Rail","wikidata":"Q2573248","wikipedia":"en:Goxhill railway station","naptan:AtcoCode":"9100GOXHILL","public_transport":"station"}},
{"type":"Feature","geometry":{"type":"Point","coordinates":[-0.1301752,53.5757948]},"properties":{"name":"Great Coates","source":"npe","network":"National Rail","railway":"station","ref:crs":"GCT","operator":"Northern Rail","wikidata":"Q2397218","wikipedia":"en:Great Coates railway station","naptan:AtcoCode":"9100GTCOATS","public_transport":"station"}},
{"type":"Feature","geometry":{"type":"Point","coordinates":[-0.0758325,53.5741416]},"properties":{"name":"Grimsby Docks","source":"npe","network":"National Rail","railway":"station","ref:crs":"GMD","operator":"Northern Rail","wikidata":"Q2323942","wikipedia":"en:Grimsby Docks railway station","naptan:AtcoCode":"9100GRMSBYD","public_transport":"station"}},
{"type":"Feature","geometry":{"type":"Point","coordinates":[-0.2693542,53.6061]},"properties":{"name":"Habrough","source":"npe","network":"National Rail","railway":"station","ref:crs":"HAB","operator":"Northern Rail","wikidata":"Q3243269","wikipedia":"en:Habrough railway station","naptan:AtcoCode":"9100HABRO","public_transport":"station"}},
{"type":"Feature","geometry":{"type":"Point","coordinates":[-0.1606176,53.5818378]},"properties":{"name":"Healing","source":"npe","network":"National Rail","railway":"station","ref:crs":"HLI","operator":"Northern Rail","wikidata":"Q2627123","wikipedia":"en:Healing railway station","naptan:AtcoCode":"9100HEALING","public_transport":"station"}},
{"type":"Feature","geometry":{"type":"Point","coordinates":[-0.060967,53.5743822]},"properties":{"name":"New Clee","network":"National Rail","railway":"station","ref:crs":"NCE","operator":"Northern Rail","wikidata":"Q4877746","wikipedia":"en:New Clee railway station","request_stop":"yes","naptan:AtcoCode":"9100NEWCLEE","public_transport":"station"}},
{"type":"Feature","geometry":{"type":"Point","coordinates":[-0.3602136,53.7020085]},"properties":{"name":"New Holland","network":"National Rail","railway":"station","ref:crs":"NHL","operator":"Northern Rail","wikidata":"Q13528509","wikipedia":"en:New Holland railway station","naptan:AtcoCode":"9100NHOL","public_transport":"station"}},
{"type":"Feature","geometry":{"type":"Point","coordinates":[-0.1834359,53.5871667]},"properties":{"name":"Stallingborough","source":"npe","network":"National Rail","railway":"station","ref:crs":"SLL","operator":"Northern Rail","wikidata":"Q2320451","wikipedia":"en:Stallingborough railway station","naptan:AtcoCode":"9100SBROUGH","public_transport":"station"}},
{"type":"Feature","geometry":{"type":"Point","coordinates":[-0.3230242,53.6543161]},"properties":{"name":"Thornton Abbey","source":"npe","network":"National Rail","railway":"station","ref:crs":"TNA","operator":"Northern Rail","wikidata":"Q2277067","wikipedia":"en:Thornton Abbey railway station","naptan:AtcoCode":"9100THABBEY","public_transport":"station"}},
{"type":"Feature","geometry":{"type":"Point","coordinates":[-0.6000753,53.1950652]},"properties":{"name":"Hykeham","train":"yes","source":"wikipedia","network":"National Rail","railway":"station","ref:crs":"HKM","operator":"East Midlands Railway","wikidata":"Q2129974","wikipedia":"en:Hykeham railway station","naptan:AtcoCode":"9100HYKEHAM","public_transport":"station"}},
{"type":"Feature","geometry":{"type":"Point","coordinates":[-0.7026611,53.1693479]},"properties":{"name":"Swinderby","source":"wikipedia","network":"National Rail","railway":"station","ref:crs":"SWD","operator":"East Midlands Railway","wikidata":"Q2015746","wikipedia":"en:Swinderby railway station","naptan:AtcoCode":"9100SWNDRBY","public_transport":"station"}},
{"type":"Feature","geometry":{"type":"Point","coordinates":[-0.7693785,53.3860875]},"properties":{"name":"Gainsborough Lea Road","source":"NPE","network":"National Rail","railway":"station","ref:crs":"GBL","operator":"East Midlands Railway","wikidata":"Q5517296","wikipedia":"en:Gainsborough Lea Road railway station","naptan:AtcoCode":"9100GBGHLRD","public_transport":"station"}},
{"type":"Feature","geometry":{"type":"Point","coordinates":[-0.6309736,53.5864278]},"properties":{"internet_access":"no","name":"Frodingham","network":"British Steel LTD","operator":"Appleby Frodingham Railway Preservation Society","railway":"station","train":"yes","usage":"tourism"}},
{"type":"Feature","geometry":{"type":"Point","coordinates":[-0.0053134,53.538884]},"properties":{"usage":"tourism","railway":"station"}},
{"type":"Feature","geometry":{"type":"Point","coordinates":[-0.5398447,53.2261066]},"properties":{"name":"Lincoln Central","network":"National Rail","railway":"station","ref:crs":"LCN","operator":"East Midlands Railway","wikidata":"Q3427836","wikipedia":"en:Lincoln railway station","addr:street":"St Marys Street","addr:postcode":"LN5 7EW","naptan:AtcoCode":"9100LINCLNC","public_transport":"station"}},
{"type":"Feature","geometry":{"type":"Point","coordinates":[-0.5353535,52.987708]},"properties":{"name":"Ancaster","source":"NPE","network":"National Rail","railway":"station","ref:crs":"ANC","wikidata":"Q2861300","wikipedia":"en:Ancaster railway station","naptan:AtcoCode":"9100ANCASTR","public_transport":"station"}},
{"type":"Feature","geometry":{"type":"Point","coordinates":[0.335201,53.1783215]},"properties":{"name":"Walls Lane","usage":"tourism","railway":"station","operator":"Lincolnshire Coast Light Railway","public_transport":"station"}},
{"type":"Feature","geometry":{"type":"Point","coordinates":[-0.6430066,52.9065217]},"properties":{"name":"Grantham","train":"yes","source":"NPE","network":"National Rail","railway":"station","ref:crs":"GRA","wikidata":"Q4496900","wikipedia":"en:Grantham railway station","wheelchair":"yes","naptan:AtcoCode":"9100GTHM","public_transport":"station"}},
{"type":"Feature","geometry":{"type":"Point","coordinates":[-0.1867064,52.9697297]},"properties":{"name":"Swineshead","source":"Bing","network":"National Rail","railway":"station","ref:crs":"SWE","wikidata":"Q1834818","wikipedia":"en:Swineshead railway station","naptan:AtcoCode":"9100SWSHEAD"}},
{"type":"Feature","geometry":{"type":"Point","coordinates":[-0.0300034,53.5629155]},"properties":{"name":"Cleethorpes","source":"npe","network":"National Rail","railway":"station","ref:crs":"CLE","operator":"First TransPennine Express","wikidata":"Q1959432","wikipedia":"en:Cleethorpes railway station","naptan:AtcoCode":"9100CLTHRPS","public_transport":"station"}},
{"type":"Feature","geometry":{"type":"Point","coordinates":[-0.0868507,53.5634567]},"properties":{"name":"Grimsby Town","source":"npe","network":"National Rail","railway":"station","ref:crs":"GMB","operator":"First TransPennine Express","wikidata":"Q5609334","platforms":"3","wikipedia":"en:Grimsby Town railway station","wheelchair":"yes","naptan:AtcoCode":"9100GRMSBYT","public_transport":"station","toilets:wheelchair":"yes"}},
{"type":"Feature","geometry":{"type":"Point","coordinates":[-0.1571731,52.7887647]},"properties":{"name":"Spalding","network":"National Rail","railway":"station","ref:crs":"SPA","old_name":"Spalding Town","wikidata":"Q2097124","wikipedia":"en:Spalding railway station","addr:street":"Winsover Road","addr:postcode":"PE11 1EA","naptan:AtcoCode":"9100SPALDNG"}},
{"type":"Feature","geometry":{"type":"Point","coordinates":[-0.3368448,53.3840114]},"properties":{"name":"Market Rasen","source":"Bing","network":"National Rail","railway":"station","ref:crs":"MKR","operator":"East Midlands Railway","wikidata":"Q4422790","wikipedia":"en:Market Rasen railway station","naptan:AtcoCode":"9100MKTR","public_transport":"station"}},
{"type":"Feature","geometry":{"type":"Point","coordinates":[-0.6645836,53.267314]},"properties":{"name":"Saxilby","train":"yes","network":"National Rail","railway":"station","ref:crs":"SXY","operator":"East Midlands Railway","wikidata":"Q2732092","wikipedia":"en:Saxilby railway station","naptan:AtcoCode":"9100SAXILBY","public_transport":"station"}},
{"type":"Feature","geometry":{"type":"Point","coordinates":[-0.6515681,53.5861008]},"properties":{"name":"Scunthorpe","source":"NPE","network":"National Rail","railway":"station","ref:crs":"SCU","operator":"First TransPennine Express","wikidata":"Q7439507","addr:city":"Scunthorpe","wikipedia":"en:Scunthorpe railway station","wheelchair":"yes","addr:street":"Station Road","naptan:AtcoCode":"9100SCNTHRP","public_transport":"station"}},
{"type":"Feature","geometry":{"type":"Point","coordinates":[-0.0311801,53.4450938]},"properties":{"name":"Ludborough Station","train":"yes","usage":"tourism","network":"Lincolnshire Wolds Railway","railway":"station","website":"https://www.lincolnshirewoldsrailway.co.uk/","operator":"Lincolnshire Wolds Railway","addr:city":"Ludborough","addr:street":"Station Road","addr:postcode":"DN36 5SQ","addr:housename":"Lincolnshire Wolds Railway, Ludborough Station","public_transport":"station"}},
{"type":"Feature","geometry":{"type":"Point","coordinates":[0.0003133,53.5399951]},"properties":{"name":"Humberston North Sea Lane","usage":"tourism","railway":"station"}},
{"type":"Feature","geometry":{"type":"Point","coordinates":[-0.0168282,53.5506632]},"properties":{"name":"Kingsway Station","usage":"tourism","railway":"station"}},
{"type":"Feature","geometry":{"type":"Point","coordinates":[-0.0095532,53.5437348]},"properties":{"name":"Lakeside Central","usage":"tourism","source":"wikipedia","railway":"station"}}
]}
