{"type":"FeatureCollection","features":[
{"type":"Feature","geometry":{"type":"Point","coordinates":[-2.9228248,53.4051916]},"properties":{"name":"Wavertree Technology Park","train":"yes","network":"National Rail","railway":"station","ref:crs":"WAV","wikidata":"Q2969859","wikipedia":"en:Wavertree Technology Park railway station","ref:tiploc":"WVRTTEC","wheelchair":"yes","naptan:AtcoCode":"9100WVRTTEC","public_transport":"station"}},
{"type":"Feature","geometry":{"type":"Point","coordinates":[-2.7251202,53.4267142]},"properties":{"name":"Lea Green","network":"National Rail","railway":"station","ref:crs":"LEG","wikipedia":"en:Lea Green railway station","ref:tiploc":"LEGR","wheelchair":"yes","naptan:AtcoCode":"9100LEGR"}},
{"type":"Feature","geometry":{"type":"Point","coordinates":[-2.7594696,53.4366896]},"properties":{"name":"Thatto Heath","source":"npe","network":"National Rail","railway":"station","ref:crs":"THH","wikipedia":"en:Thatto Heath railway station","naptan:AtcoCode":"9100THHT"}},
{"type":"Feature","geometry":{"type":"Point","coordinates":[-2.6720428,53.4879953]},"properties":{"name":"Garswood","source":"npe","network":"National Rail","railway":"station","ref:crs":"GSW","wikipedia":"en:Garswood railway station","naptan:AtcoCode":"9100GARW"}},
{"type":"Feature","geometry":{"type":"Point","coordinates":[-2.9121844,53.358688]},"properties":{"name":"Cressington","network":"National Rail","railway":"station","ref:crs":"CSG","wikidata":"Q2465226","wikipedia":"en:Cressington railway station","naptan:AtcoCode":"9100CRSNGTN"}},
{"type":"Feature","geometry":{"type":"Point","coordinates":[-2.9812395,53.3075769]},"properties":{"name":"Eastham Rake","network":"National Rail","railway":"station","ref:crs":"ERA","operator":"Merseyrail","wikipedia":"en:Eastham Rake railway station","wheelchair":"limited","internet_access":"no","naptan:AtcoCode":"9100ESTHRAK","public_transport":"station"}},
{"type":"Feature","geometry":{"type":"Point","coordinates":[-2.9267273,53.3645536]},"properties":{"name":"Aigburth","network":"National Rail","railway":"station","ref:crs":"AIG","wikidata":"Q2677471","wikipedia":"en:Aigburth railway station","naptan:AtcoCode":"9100AIGBURT"}},
{"type":"Feature","geometry":{"type":"Point","coordinates":[-2.9760156,53.3832177]},"properties":{"name":"Brunswick","naptan:AtcoCode":"9100BNWK","network":"National Rail","operator":"Merseyrail","public_transport":"station","railway":"station","ref:crs":"BRW","wikidata":"Q2471511","wikipedia":"en:Brunswick railway station"}},
{"type":"Feature","geometry":{"type":"Point","coordinates":[-2.9751719,53.6460377]},"properties":{"name":"Meols Cop","naptan:AtcoCode":"9100MEOLSCP","network":"National Rail","public_transport":"station","railway":"station","ref:crs":"MEC","source":"npe","wheelchair":"no","wikidata":"Q3247481","wikipedia":"en:Meols Cop railway station"}},
{"type":"Feature","geometry":{"type":"Point","coordinates":[-3.0027839,53.6468529]},"properties":{"name":"Southport","naptan:AtcoCode":"9100SOUTHPT","network":"National Rail","public_transport":"station","railway":"station","ref:crs":"SOP","source":"npe","wheelchair":"yes","wikidata":"Q650633","wikipedia":"en:Southport railway station"}},
{"type":"Feature","geometry":{"type":"Point","coordinates":[-2.7662872,53.4171892]},"properties":{"name":"Rainhill","source":"npe","network":"National Rail","railway":"station","ref:crs":"RNH","ref:tipoc":"RHIL","wikipedia":"en:Rainhill railway station","ref:tiploc":"RHIL","naptan:AtcoCode":"9100RHIL"}},
{"type":"Feature","geometry":{"type":"Point","coordinates":[-2.7887184,53.5170928]},"properties":{"name":"Rainford","source":"npe","network":"National Rail","railway":"station","ref:crs":"RNF","operator":"Northern Rail","platforms":"2","wikipedia":"en:Rainford railway station","wheelchair":"no","naptan:AtcoCode":"9100RNFD","public_transport":"station"}},
{"type":"Feature","geometry":{"type":"Point","coordinates":[-2.9025585,53.4864484]},"properties":{"name":"Kirkby","naptan:AtcoCode":"9100KKBY","network":"National Rail","public_transport":"station","railway":"station","ref:crs":"KIR","source":"npe","wikidata":"Q2638933","wikipedia":"en:Kirkby railway station"}},
{"type":"Feature","geometry":{"type":"Point","coordinates":[-2.9562987,53.473813]},"properties":{"name":"Aintree","source":"npe","network":"National Rail","railway":"station","ref:crs":"AIN","wikidata":"Q2184297","wikipedia":"en:Aintree railway station","naptan:AtcoCode":"9100AINTREE"}},
{"type":"Feature","geometry":{"type":"Point","coordinates":[-3.0251924,53.4746595]},"properties":{"name":"Waterloo","naptan:AtcoCode":"9100WLOO","network":"National Rail","railway":"station","ref:crs":"WLO","source":"npe","wikidata":"Q2305041","wikipedia":"en:Waterloo railway station (Merseyside)"}},
{"type":"Feature","geometry":{"type":"Point","coordinates":[-3.0708893,53.5543419]},"properties":{"name":"Formby","naptan:AtcoCode":"9100FORMBY","network":"National Rail","public_transport":"station","railway":"station","ref:crs":"FBY","source":"npe","wikidata":"Q2740647","wikipedia":"en:Formby railway station"}},
{"type":"Feature","geometry":{"type":"Point","coordinates":[-3.0423779,53.6021194]},"properties":{"name":"Ainsdale","naptan:AtcoCode":"9100AINSDAL","network":"National Rail","public_transport":"station","railway":"station","ref:crs":"ANS","source":"npe","wikidata":"Q958339","wikipedia":"en:Ainsdale railway station"}},
{"type":"Feature","geometry":{"type":"Point","coordinates":[-3.0044303,53.4654002]},"properties":{"alt_name":"Seaforth and Litherland","name":"Seaforth & Litherland","naptan:AtcoCode":"9100SFRTHAL","network":"National Rail","railway":"station","ref:crs":"SFL","source":"npe","wheelchair":"yes","wikidata":"Q7440410","wikipedia":"en:Seaforth & Litherland railway station"}},
{"type":"Feature","geometry":{"type":"Point","coordinates":[-2.9946334,53.4529983]},"properties":{"name":"Bootle New Strand","naptan:AtcoCode":"9100BOOTLNS","network":"National Rail","old_name":"Marsh Lane & Strand Road","public_transport":"station","railway":"station","ref:crs":"BNW","source":"npe","wikidata":"Q2183294","wikipedia":"en:Bootle New Strand railway station"}},
{"type":"Feature","geometry":{"type":"Point","coordinates":[-2.9956678,53.4467]},"properties":{"name":"Bootle Oriel Road","naptan:AtcoCode":"9100BOOTLOR","network":"National Rail","public_transport":"station","railway":"station","ref:crs":"BOT","source":"npe","wikidata":"Q2149213","wikipedia":"en:Bootle Oriel Road railway station"}},
{"type":"Feature","geometry":{"type":"Point","coordinates":[-3.0697067,53.4284419]},"properties":{"name":"Wallasey Grove Road","source":"npe","network":"National Rail","railway":"station","ref:crs":"WLG","operator":"Merseyrail","wikipedia":"en:Wallasey Grove Road railway station","naptan:AtcoCode":"9100WALAGRD"}},
{"type":"Feature","geometry":{"type":"Point","coordinates":[-3.0691344,53.4229816]},"properties":{"name":"Wallasey Village","source":"npe","network":"National Rail","railway":"station","ref:crs":"WLV","operator":"Merseyrail","wikipedia":"en:Wallasey Village railway station","naptan:AtcoCode":"9100WALASYV"}},
{"type":"Feature","geometry":{"type":"Point","coordinates":[-3.0579762,53.4046764]},"properties":{"addr:city":"Birkenhead","addr:postcode":"CH41 7AZ","addr:street":"Station Road","electrified":"rail","internet_access":"no","name":"Birkenhead North","naptan:AtcoCode":"9100BRKNHDN","network":"National Rail","operator":"Merseyrail","public_transport":"station","railway":"station","ref:crs":"BKN","source":"npe","wikidata":"Q2583306","wikipedia":"en:Birkenhead North railway station"}},
{"type":"Feature","geometry":{"type":"Point","coordinates":[-3.0787675,53.4093067]},"properties":{"addr:city":"Bidston","addr:postcode":"CH43 7RF","addr:street":"Bidston Station Approach","electrified":"rail","internet_access":"no","name":"Bidston","naptan:AtcoCode":"9100BDSTON","network":"National Rail","operator":"Merseyrail","platforms":"2","public_transport":"station","railway":"station","ref:crs":"BID","source":"npe","wikidata":"Q2592219","wikipedia":"en:Bidston railway station"}},
{"type":"Feature","geometry":{"type":"Point","coordinates":[-3.0999565,53.4080669]},"properties":{"name":"Leasowe","source":"npe","network":"National Rail","railway":"station","ref:crs":"LSW","operator":"Merseyrail","wikipedia":"en:Leasowe railway station","electrified":"rail","naptan:AtcoCode":"9100LEASOWE"}},
{"type":"Feature","geometry":{"type":"Point","coordinates":[-3.1132696,53.4072656]},"properties":{"name":"Moreton","source":"npe","network":"National Rail","railway":"station","ref:crs":"MRT","operator":"Merseyrail","wikipedia":"en:Moreton railway station (Merseyside)","electrified":"rail","naptan:AtcoCode":"9100MOTO"}},
{"type":"Feature","geometry":{"type":"Point","coordinates":[-3.1539137,53.3994243]},"properties":{"name":"Meols","source":"npe","network":"National Rail","railway":"station","ref:crs":"MEO","operator":"Merseyrail","wikipedia":"en:Meols railway station","electrified":"rail","internet_access":"no","naptan:AtcoCode":"9100MELS","public_transport":"station"}},
{"type":"Feature","geometry":{"type":"Point","coordinates":[-3.170031,53.3949422]},"properties":{"name":"Manor Road","source":"npe","network":"National Rail","railway":"station","ref:crs":"MNR","operator":"Merseyrail","platforms":"2","wikipedia":"en:Manor Road railway station","electrified":"rail","naptan:AtcoCode":"9100MNRD","public_transport":"station"}},
{"type":"Feature","geometry":{"type":"Point","coordinates":[-3.1788086,53.3898917]},"properties":{"name":"Hoylake","source":"npe","network":"National Rail","railway":"station","ref:crs":"HYK","operator":"Merseyrail","wikipedia":"en:Hoylake railway station","electrified":"rail","naptan:AtcoCode":"9100HOYLAKE","public_transport":"station"}},
{"type":"Feature","geometry":{"type":"Point","coordinates":[-3.0841027,53.3864458]},"properties":{"addr:city":"Upton","addr:postcode":"CH43 9RY","addr:street":"Noctorum Avenue","internet_access":"no","name":"Upton","naptan:AtcoCode":"9100UPTON","network":"National Rail","operator":"Transport for Wales","public_transport":"station","railway":"station","ref:crs":"UPT","wheelchair":"limited","wikidata":"Q2736977","wikipedia":"en:Upton railway station"}},
{"type":"Feature","geometry":{"type":"Point","coordinates":[-3.0107997,53.3727991]},"properties":{"name":"Rock Ferry","network":"National Rail","railway":"station","ref:crs":"RFY","wikipedia":"en:Rock Ferry railway station","naptan:AtcoCode":"9100ROCKFRY"}},
{"type":"Feature","geometry":{"type":"Point","coordinates":[-2.9310007,53.5064588]},"properties":{"name":"Maghull","source":"NPE","network":"National Rail","railway":"station","ref:crs":"MAG","wikipedia":"en:Maghull railway station","naptan:AtcoCode":"9100MAGHULL","public_transport":"station"}},
{"type":"Feature","geometry":{"type":"Point","coordinates":[-3.0733389,53.3296559]},"properties":{"addr:city":"Heswall","addr:postcode":"CH60 1XQ","addr:street":"Brimstage Road","internet_access":"no","name":"Heswall","naptan:AtcoCode":"9100HESWALL","network":"National Rail","operator":"Transport for Wales","public_transport":"station","railway":"station","ref:crs":"HSW","source":"NPE","wheelchair":"yes","wikidata":"Q3418506","wikipedia":"en:Heswall railway station"}},
{"type":"Feature","geometry":{"type":"Point","coordinates":[-3.0030442,53.3576635]},"properties":{"name":"Bebington","name:lt":"Bibingtonas","network":"National Rail","railway":"station","ref:crs":"BEB","wikidata":"Q2192728","wikipedia":"en:Bebington railway station","naptan:AtcoCode":"9100BEBNGTN"}},
{"type":"Feature","geometry":{"type":"Point","coordinates":[-3.0208998,53.3882025]},"properties":{"name":"Birkenhead Central","network":"National Rail","railway":"station","ref:crs":"BKC","wikipedia":"en:Birkenhead Central railway station","naptan:AtcoCode":"9100BRKNHDC"}},
{"type":"Feature","geometry":{"type":"Point","coordinates":[-3.0162905,53.383365]},"properties":{"name":"Green Lane","network":"National Rail","railway":"station","ref:crs":"GNL","wikipedia":"en:Green Lane railway station","naptan:AtcoCode":"9100GNLN"}},
{"type":"Feature","geometry":{"type":"Point","coordinates":[-3.0397419,53.3976518]},"properties":{"addr:city":"Birkenhead","addr:postcode":"CH41 8BT","addr:street":"Duke Street","electrified":"rail","internet_access":"no","name":"Birkenhead Park","naptan:AtcoCode":"9100BRKNHDP","network":"National Rail","operator":"Merseyrail","public_transport":"station","railway":"station","ref:crs":"BKP","wikidata":"Q2592796","wikipedia":"en:Birkenhead Park railway station"}},
{"type":"Feature","geometry":{"type":"Point","coordinates":[-2.9868579,53.3218667]},"properties":{"name":"Bromborough","network":"National Rail","railway":"station","ref:crs":"BOM","wikipedia":"en:Bromborough railway station","naptan:AtcoCode":"9100BRMB"}},
{"type":"Feature","geometry":{"type":"Point","coordinates":[-2.8933668,53.4064956]},"properties":{"name":"Broad Green","network":"National Rail","railway":"station","ref:crs":"BGE","wikidata":"Q2629741","wikipedia":"en:Broad Green railway station","ref:tiploc":"BROADGR","naptan:AtcoCode":"9100BROADGR"}},
{"type":"Feature","geometry":{"type":"Point","coordinates":[-2.9529484,53.3756627]},"properties":{"name":"St Michaels","network":"National Rail","railway":"station","ref:crs":"STM","wikidata":"Q1817693","wikipedia":"en:St Michaels railway station","wheelchair":"no","naptan:AtcoCode":"9100STMCHLS"}},
{"type":"Feature","geometry":{"type":"Point","coordinates":[-2.8433204,53.4095394]},"properties":{"name":"Huyton","network":"National Rail","railway":"station","ref:crs":"HUY","website":"http://www.nationalrail.co.uk/stations_destinations/huy.aspx","wikidata":"Q946322","wikipedia":"en:Huyton railway station","ref:tiploc":"HUYTON","naptan:AtcoCode":"9100HUYTON"}},
{"type":"Feature","geometry":{"type":"Point","coordinates":[-2.7965367,53.4139015]},"properties":{"name":"Whiston","network":"National Rail","railway":"station","ref:crs":"WHN","wikidata":"Q2459451","wikipedia":"en:Whiston railway station","ref:tiploc":"WHISTON","wheelchair":"yes","naptan:AtcoCode":"9100WHISTON"}},
{"type":"Feature","geometry":{"type":"Point","coordinates":[-2.9811665,53.4407853]},"properties":{"name":"Kirkdale","naptan:AtcoCode":"9100KRKDALE","network":"National Rail","public_transport":"station","railway":"station","ref:crs":"KKD","wikidata":"Q1853000","wikipedia":"en:Kirkdale railway station"}},
{"type":"Feature","geometry":{"type":"Point","coordinates":[-3.0230291,53.3935345]},"properties":{"addr:city":"Birkenhead","addr:postcode":"CH41 4PP","addr:street":"Europa Boulevard","electrified":"rail","internet_access":"no","name":"Conway Park","naptan:AtcoCode":"9100BRKNCPK","network":"National Rail","operator":"Merseyrail","public_transport":"station","railway":"station","ref:crs":"CNP","wikidata":"Q2881512","wikipedia":"en:Conway Park railway station"}},
{"type":"Feature","geometry":{"type":"Point","coordinates":[-3.0140483,53.3943192]},"properties":{"addr:city":"Birkenhead","addr:postcode":"CH41 1AL","addr:street":"Hamilton Street","alt_name":"Birkenhead Hamilton Square","electrified":"rail","internet_access":"yes","name":"Hamilton Square","naptan:AtcoCode":"9100HAMTSQ","network":"National Rail","operator":"Merseyrail","public_transport":"station","railway":"station","ref:crs":"BKQ","wikidata":"Q305403","wikipedia":"en:Birkenhead Hamilton Square railway station"}},
{"type":"Feature","geometry":{"type":"Point","coordinates":[-2.9880433,53.4379509]},"properties":{"name":"Bank Hall","naptan:AtcoCode":"9100BNKHALL","network":"National Rail","public_transport":"station","railway":"station","ref:crs":"BAH","wikidata":"Q2777932","wikipedia":"en:Bank Hall railway station"}},
{"type":"Feature","geometry":{"type":"Point","coordinates":[-2.9940655,53.3400533]},"properties":{"name":"Spital","network":"National Rail","railway":"station","ref:crs":"SPI","wikidata":"Q2089422","wikipedia":"en:Spital railway station","naptan:AtcoCode":"9100SPITAL"}},
{"type":"Feature","geometry":{"type":"Point","coordinates":[-3.0480464,53.4373879]},"properties":{"name":"New Brighton","source":"local_knowledge","network":"National Rail","railway":"station","ref:crs":"NBN","operator":"Merseyrail","wikipedia":"en:New Brighton railway station","naptan:AtcoCode":"9100NBTN","public_transport":"station"}},
{"type":"Feature","geometry":{"type":"Point","coordinates":[-3.1836835,53.3734284]},"properties":{"name":"West Kirby","network":"National Rail","railway":"station","ref:crs":"WKI","operator":"Merseyrail","wikipedia":"en:West Kirby railway station","electrified":"rail","naptan:AtcoCode":"9100WKIRBY","public_transport":"station"}},
{"type":"Feature","geometry":{"type":"Point","coordinates":[-3.00883,53.6508112]},"properties":{"name":"Pier Entrance","layer":"1","usage":"tourism","railway":"station","source:name":"https://upload.wikimedia.org/wikipedia/commons/1/13/Southport_Pier_Tram.jpg","public_transport":"station"}},
{"type":"Feature","geometry":{"type":"Point","coordinates":[-3.0213084,53.6554031]},"properties":{"name":"Pavilion","layer":"1","usage":"tourism","railway":"station","source:name":"http://farm3.staticflickr.com/2706/4538359768_359b63f5e4_z.jpg"}},
{"type":"Feature","geometry":{"type":"Point","coordinates":[-3.014695,53.6485824]},"properties":{"name":"Southport Princes Park","public_transport":"station","railway":"station","usage":"tourism"}},
{"type":"Feature","geometry":{"type":"Point","coordinates":[-3.0121469,53.6523279]},"properties":{"name":"Southport Marine Parade","public_transport":"station","railway":"station","usage":"tourism"}},
{"type":"Feature","geometry":{"type":"Point","coordinates":[-2.8558962,53.4100365]},"properties":{"name":"Roby","train":"yes","network":"National Rail","railway":"station","ref:crs":"ROB","wikidata":"Q3063201","wikipedia":"en:Roby railway station","ref:tiploc":"ROBY","naptan:AtcoCode":"9100ROBY","public_transport":"station"}},
{"type":"Feature","geometry":{"type":"Point","coordinates":[-2.70004,53.4338186]},"properties":{"name":"St Helens Junction","source":"npe","network":"National Rail","railway":"station","ref:crs":"SHJ","wikipedia":"en:St Helens Junction railway station","ref:tiploc":"STHLNSJ","naptan:AtcoCode":"9100STHLNSJ"}},
{"type":"Feature","geometry":{"type":"Point","coordinates":[-2.9902234,53.3302771]},"properties":{"name":"Bromborough Rake","network":"National Rail","railway":"station","ref:crs":"BMR","operator":"Merseyrail","wikipedia":"en:Bromborough Rake railway station","internet_access":"no","naptan:AtcoCode":"9100BRMBRK","public_transport":"station"}},
{"type":"Feature","geometry":{"type":"Point","coordinates":[-2.9506754,53.4868988]},"properties":{"name":"Old Roan","source":"npe","network":"National Rail","railway":"station","ref:crs":"ORN","wikidata":"Q7084858","wikipedia":"en:Old Roan railway station","naptan:AtcoCode":"9100OLDROAN"}},
{"type":"Feature","geometry":{"type":"Point","coordinates":[-2.9627161,53.4620285]},"properties":{"name":"Orrell Park","network":"National Rail","railway":"station","ref:crs":"OPK","wikidata":"Q2054566","wikipedia":"en:Orrell Park railway station","naptan:AtcoCode":"9100ORELPKH"}},
{"type":"Feature","geometry":{"type":"Point","coordinates":[-2.9660572,53.4563903]},"properties":{"name":"Walton","naptan:AtcoCode":"9100WALTONM","network":"National Rail","operator":"Merseyrail","public_transport":"station","railway":"station","ref:crs":"WAO","wheelchair":"limited","wikidata":"Q2346937","wikipedia":"en:Walton railway station (Merseyside)"}},
{"type":"Feature","geometry":{"type":"Point","coordinates":[-2.9630946,53.4575059]},"properties":{"name":"Rice Lane","network":"National Rail","railway":"station","ref:crs":"RIL","wikidata":"Q2419192","wikipedia":"en:Rice Lane railway station","naptan:AtcoCode":"9100RICELA"}},
{"type":"Feature","geometry":{"type":"Point","coordinates":[-3.0146159,53.6338886]},"properties":{"name":"Birkdale","source":"npe","network":"National Rail","railway":"station","ref:crs":"BDL","wikidata":"Q2470223","wikipedia":"en:Birkdale railway station","naptan:AtcoCode":"9100BKDLE","public_transport":"station"}},
{"type":"Feature","geometry":{"type":"Point","coordinates":[-3.0718907,53.5662108]},"properties":{"name":"Freshfield","naptan:AtcoCode":"9100FRSHFLD","network":"National Rail","operator":"Merseyrail","public_transport":"station","railway":"station","ref:crs":"FRE","source":"npe","wikidata":"Q1860501","wikipedia":"en:Freshfield railway station"}},
{"type":"Feature","geometry":{"type":"Point","coordinates":[-3.0497373,53.4976204]},"properties":{"name":"Hall Road","source":"npe","network":"National Rail","railway":"station","ref:crs":"HLR","wikidata":"Q2233289","wikipedia":"en:Hall Road railway station","naptan:AtcoCode":"9100HALLRD"}},
{"type":"Feature","geometry":{"type":"Point","coordinates":[-3.057184,53.5253852]},"properties":{"name":"Hightown","source":"npe","network":"National Rail","railway":"station","ref:crs":"HTO","operator":"Merseyrail","wikidata":"Q2275625","wikipedia":"en:Hightown railway station","naptan:AtcoCode":"9100HITN"}},
{"type":"Feature","geometry":{"type":"Point","coordinates":[-3.0254312,53.6215448]},"properties":{"name":"Hillside","naptan:AtcoCode":"9100HILLSID","network":"National Rail","note:location":"NPE and other maps are wrong, platform is on the south side of the bridge","public_transport":"station","railway":"station","ref:crs":"HIL","source":"local knowledge","wikidata":"Q2398739","wikipedia":"en:Hillside railway station"}},
{"type":"Feature","geometry":{"type":"Point","coordinates":[-2.7803346,53.4307355]},"properties":{"name":"Eccleston Park","source":"NPE","network":"National Rail","railway":"station","ref:crs":"ECL","wikipedia":"en:Eccleston Park railway station","naptan:AtcoCode":"9100ECPK"}},
{"type":"Feature","geometry":{"type":"Point","coordinates":[-2.7989869,53.4235274]},"properties":{"name":"Prescot","source":"NPE","network":"National Rail","railway":"station","ref:crs":"PSC","wikidata":"Q1938051","wikipedia":"en:Prescot railway station","naptan:AtcoCode":"9100PRESCOT"}},
{"type":"Feature","geometry":{"type":"Point","coordinates":[-2.7300151,53.4526501]},"properties":{"name":"St Helens Central","source":"npe","network":"National Rail","railway":"station","ref:crs":"SNH","old_name":"St Helens Shaw Street","wikipedia":"en:St Helens Central railway station","naptan:AtcoCode":"9100STHLNSC"}},
{"type":"Feature","geometry":{"type":"Point","coordinates":[-2.9369705,53.468984]},"properties":{"name":"Fazakerley","network":"National Rail","railway":"station","ref:crs":"FAZ","wikidata":"Q4837976","wikipedia":"en:Fazakerley railway station","naptan:AtcoCode":"9100FAZKRLY"}},
{"type":"Feature","geometry":{"type":"Point","coordinates":[-2.8554087,53.3607333]},"properties":{"name":"Hunts Cross","naptan:AtcoCode":"9100HUNTSX","network":"National Rail","operator":"Merseyrail","public_transport":"station","railway":"station","ref:crs":"HNX","wikidata":"Q1867593","wikipedia":"en:Hunts Cross railway station"}},
{"type":"Feature","geometry":{"type":"Point","coordinates":[-3.0404348,53.4877265]},"properties":{"name":"Blundellsands & Crosby","network":"National Rail","railway":"station","ref:crs":"BLN","operator":"Merseyrail","wikidata":"Q2342705","wikipedia":"en:Blundellsands & Crosby railway station","naptan:AtcoCode":"9100BLNDLAC"}},
{"type":"Feature","geometry":{"type":"Point","coordinates":[-3.1330833,53.3630039]},"properties":{"name":"Royden Park Minature Railway","usage":"tourism","railway":"station"}},
{"type":"Feature","geometry":{"type":"Point","coordinates":[-2.9212569,53.5166544]},"properties":{"name":"Maghull North","train":"yes","network":"National Rail","railway":"station","ref:crs":"MNS","operator":"Merseyrail","wikidata":"Q6730453","wikipedia":"en:Maghull North railway station","public_transport":"station"}},
{"type":"Feature","geometry":{"type":"Point","coordinates":[-2.6128853,53.4531451]},"properties":{"name":"Newton-le-Willows","network":"National Rail","railway":"station","ref:crs":"NLW","old_name":"Newton Bridge","wikipedia":"en:Newton-le-Willows railway station","ref:tiploc":"NWTNLW","naptan:AtcoCode":"9100NWTNLW"}},
{"type":"Feature","geometry":{"type":"Point","coordinates":[-2.6376153,53.4512184]},"properties":{"name":"Earlestown","network":"National Rail","railway":"station","ref:crs":"ERL","old_name":"Newton Junction","wikipedia":"en:Earlestown railway station","ref:tiploc":"ERLSTWN","naptan:AtcoCode":"9100ERLSTWN"}},
{"type":"Feature","geometry":{"type":"Point","coordinates":[-2.946699,53.4024004]},"properties":{"name":"Edge Hill","naptan:AtcoCode":"9100EDGH","network":"National Rail","public_transport":"station","railway":"station","ref:crs":"EDG","wikidata":"Q1814188","wikipedia":"en:Edge Hill railway station"}},
{"type":"Feature","geometry":{"type":"Point","coordinates":[-2.914829,53.3785566]},"properties":{"name":"Mossley Hill","naptan:AtcoCode":"9100MSLH","network":"National Rail","postal_code":"L18 8AG","public_transport":"station","railway":"station","ref:crs":"MSH","wikidata":"Q1998870","wikipedia":"en:Mossley Hill railway station"}},
{"type":"Feature","geometry":{"type":"Point","coordinates":[-2.9073402,53.3695048]},"properties":{"name":"West Allerton","network":"National Rail","railway":"station","ref:crs":"WSA","wikidata":"Q2787611","wikipedia":"en:West Allerton railway station","naptan:AtcoCode":"9100WALERTN"}},
{"type":"Feature","geometry":{"type":"Point","coordinates":[-2.830106,53.364495]},"properties":{"name":"Halewood","naptan:AtcoCode":"9100HALW","network":"National Rail","public_transport":"station","railway":"station","ref:crs":"HED","wikidata":"Q2395635","wikipedia":"en:Halewood railway station"}},
{"type":"Feature","geometry":{"type":"Point","coordinates":[-2.9775854,53.4076085]},"properties":{"addr:postcode":"L1 1JD","addr:street":"Lime Street","name":"Liverpool Lime Street","name:ko":"리버풀 라임 스트리트 역","naptan:AtcoCode":"9100LVRPLSH","network":"National Rail","operator":"Network Rail","public_transport":"station","railway":"station","ref:crs":"LIV","wikidata":"Q801113","wikipedia":"en:Liverpool Lime Street railway station"}},
{"type":"Feature","geometry":{"type":"Point","coordinates":[-2.8892004,53.3576179]},"properties":{"name":"Liverpool South Parkway","naptan:AtcoCode":"9100ALERTN","network":"National Rail","public_transport":"station","railway":"station","ref:crs":"LPY","wikipedia":"en:Liverpool South Parkway railway station"}},
{"type":"Feature","geometry":{"type":"Point","coordinates":[-2.9920401,53.4049368]},"properties":{"alt_name":"James Street","name":"Liverpool James Street","naptan:AtcoCode":"9100JAMESST","network":"National Rail","note:platforms":"platforms 1 and 3 in normal use, platform 2 generally disused","platforms":"3","public_transport":"station","railway":"station","ref:crs":"LVJ","wikidata":"Q1928945","wikipedia":"en:Liverpool James Street railway station"}},
{"type":"Feature","geometry":{"type":"Point","coordinates":[-2.9892356,53.4085494]},"properties":{"addr:postcode":"L2 2BS","name":"Moorfields","naptan:AtcoCode":"9100MORFLDS","network":"National Rail","operator":"Merseytravel","platforms":"3","public_transport":"station","railway":"station","ref:crs":"MRF","wikidata":"Q2261745","wikipedia":"en:Moorfields railway station"}},
{"type":"Feature","geometry":{"type":"Point","coordinates":[-2.9982505,53.3484812]},"properties":{"name":"Port Sunlight","network":"National Rail","railway":"station","ref:crs":"PSL","operator":"Merseyrail","addr:city":"Port Sunlight","platforms":"2","wikipedia":"en:Port Sunlight railway station","addr:street":"Greendale Road","addr:postcode":"CH62 4XB","naptan:AtcoCode":"9100PSLT"}},
{"type":"Feature","geometry":{"type":"Point","coordinates":[-2.9797282,53.4043212]},"properties":{"name":"Liverpool Central","naptan:AtcoCode":"9100LVRPLCH","network":"National Rail","operator":"Merseyrail","public_transport":"station","railway":"station","ref:crs":"LVC","wikidata":"Q2519286","wikipedia":"en:Liverpool Central railway station"}},
{"type":"Feature","geometry":{"type":"Point","coordinates":[-2.9920015,53.4295369]},"properties":{"name":"Sandhills","naptan:AtcoCode":"9100SANDH","network":"National Rail","operator":"Merseyrail","public_transport":"station","railway":"station","ref:crs":"SDL","wikidata":"Q2463350","wikipedia":"en:Sandhills railway station"}},
{"type":"Feature","geometry":{"type":"Point","coordinates":[-2.8151829,53.4369651]},"properties":{"name":"Knowsley Safari Park Train Station","public_transport":"station","railway":"station","usage":"tourism"}}
]}
