{"type":"FeatureCollection","features":[
{"type":"Feature","geometry":{"type":"Point","coordinates":[1.4181588,52.6233603]},"properties":{"name":"Brundall Gardens","source":"NPE","network":"National Rail","railway":"station","ref:crs":"BGA","wikidata":"Q2262602","wikipedia":"en:Brundall Gardens railway station","naptan:AtcoCode":"9100BRUNDLG"}},
{"type":"Feature","geometry":{"type":"Point","coordinates":[1.4386558,52.6196558]},"properties":{"name":"Brundall","network":"National Rail","railway":"station","ref:crs":"BDA","wikidata":"Q282288","wikipedia":"en:Brundall railway station","naptan:AtcoCode":"9100BRUNDAL"}},
{"type":"Feature","geometry":{"type":"Point","coordinates":[1.4040132,52.777345]},"properties":{"name":"Worstead","source":"NPE","network":"National Rail","railway":"station","ref:crs":"WRT","wikidata":"Q248736","wikipedia":"en:Worstead railway station","naptan:AtcoCode":"9100WORSTED"}},
{"type":"Feature","geometry":{"type":"Point","coordinates":[0.3656264,52.604156]},"properties":{"name":"Downham Market","network":"National Rail","railway":"station","ref:crs":"DOW","wikidata":"Q980263","wikipedia":"en:Downham Market railway station","naptan:AtcoCode":"9100DOWNHAM"}},
{"type":"Feature","geometry":{"type":"Point","coordinates":[1.2107897,52.9413671]},"properties":{"name":"Sheringham","owner":"Network Rail","network":"National Rail","railway":"station","ref:crs":"SHM","operator":"Greater Anglia","wikipedia":"en:Sheringham railway station","source:ref":"ATOC","naptan:AtcoCode":"9100SHRGHAM"}},
{"type":"Feature","geometry":{"type":"Point","coordinates":[1.2456193,52.9355477]},"properties":{"name":"West Runton","network":"National Rail","railway":"station","ref:crs":"WRN","wikidata":"Q217353","wikipedia":"en:West Runton railway station","naptan:AtcoCode":"9100WRUNTON"}},
{"type":"Feature","geometry":{"type":"Point","coordinates":[1.2916476,52.9300536]},"properties":{"name":"Cromer","network":"National Rail","railway":"station","ref:crs":"CMR","old_name":"Cromer Beach","wikidata":"Q1950073","wikipedia":"en:Cromer railway station","naptan:AtcoCode":"9100CMER"}},
{"type":"Feature","geometry":{"type":"Point","coordinates":[1.1038974,52.5703742]},"properties":{"name":"Wymondham Abbey","train":"yes","usage":"tourism","railway":"station","tourism":"preserved_railway","wikidata":"Q8039987","wikipedia":"en:Wymondham Abbey railway station","public_transport":"station"}},
{"type":"Feature","geometry":{"type":"Point","coordinates":[1.0518284,52.5910486]},"properties":{"name":"Kimberley Park","usage":"tourism","railway":"station","tourism":"preserved_railway","wikidata":"Q6409843"}},
{"type":"Feature","geometry":{"type":"Point","coordinates":[1.0246114,52.610697]},"properties":{"name":"Hardingham","usage":"tourism","railway":"station","wikidata":"Q5656160"}},
{"type":"Feature","geometry":{"type":"Point","coordinates":[1.0009429,52.6248116]},"properties":{"name":"Thuxton","usage":"tourism","railway":"station","tourism":"preserved_railway","operator":"Mid-Norfolk Railway","wikidata":"Q7799504","platforms":"2"}},
{"type":"Feature","geometry":{"type":"Point","coordinates":[0.9596864,52.6523643]},"properties":{"name":"Yaxham","railway":"station","tourism":"preserved_railway","usage":"tourism","wikidata":"Q8050492"}},
{"type":"Feature","geometry":{"type":"Point","coordinates":[0.9476606,52.678973]},"properties":{"name":"Dereham","usage":"tourism","railway":"station","tourism":"preserved_railway","operator":"Mid-Norfolk Railway","wikidata":"Q5261757","wikipedia":"en:Dereham railway station"}},
{"type":"Feature","geometry":{"type":"Point","coordinates":[1.3845467,52.8168596]},"properties":{"name":"North Walsham","source":"NPE","network":"National Rail","railway":"station","ref:crs":"NWA","wikidata":"Q217655","wikipedia":"en:North Walsham railway station","naptan:AtcoCode":"9100NWALSHM"}},
{"type":"Feature","geometry":{"type":"Point","coordinates":[1.3913667,52.6755817]},"properties":{"name":"Salhouse","source":"NPE","network":"National Rail","railway":"station","ref:crs":"SAH","wikidata":"Q248738","wikipedia":"en:Salhouse railway station","naptan:AtcoCode":"9100SALHOUS"}},
{"type":"Feature","geometry":{"type":"Point","coordinates":[1.408031,52.7154999]},"properties":{"name":"Hoveton and Wroxham","source":"NPE","network":"National Rail","railway":"station","ref:crs":"HXM","wikidata":"Q281183","wikipedia":"en:Hoveton & Wroxham railway station","naptan:AtcoCode":"9100WROXHAM"}},
{"type":"Feature","geometry":{"type":"Point","coordinates":[1.3493462,52.866075]},"properties":{"name":"Gunton","source":"NPE","network":"National Rail","railway":"station","ref:crs":"GNT","wikidata":"Q217665","wikipedia":"en:Gunton railway station","naptan:AtcoCode":"9100GUNTON"}},
{"type":"Feature","geometry":{"type":"Point","coordinates":[1.2997514,52.9179454]},"properties":{"name":"Roughton Road","network":"National Rail","railway":"station","ref:crs":"RNR","wikidata":"Q217695","wikipedia":"en:Roughton Road railway station","wheelchair":"no","naptan:AtcoCode":"9100RGHTNRD"}},
{"type":"Feature","geometry":{"type":"Point","coordinates":[1.2082134,52.9416966]},"properties":{"name":"Sheringham (NNR)","usage":"tourism","railway":"station","tourism":"preserved_railway","operator":"North Norfolk Railway"}},
{"type":"Feature","geometry":{"type":"Point","coordinates":[1.5440761,52.6347047]},"properties":{"name":"Acle","naptan:AtcoCode":"9100ACLE","network":"National Rail","railway":"station","ref:crs":"ACL","source":"NPE","wikidata":"Q281169","wikipedia":"en:Acle railway station"}},
{"type":"Feature","geometry":{"type":"Point","coordinates":[1.631036,52.5902155]},"properties":{"addr:postcode":"NR30 1SB","name":"Berney Arms","naptan:AtcoCode":"9100BRNYARM","network":"National Rail","railway":"station","ref:crs":"BYA","request_stop":"yes","source":"NPE","wikidata":"Q281175","wikipedia":"en:Berney Arms railway station"}},
{"type":"Feature","geometry":{"type":"Point","coordinates":[1.4700589,52.5977308]},"properties":{"name":"Buckenham","source":"NPE","network":"National Rail","railway":"station","ref:crs":"BUC","wikidata":"Q2064742","wikipedia":"en:Buckenham railway station","request_stop":"yes","naptan:AtcoCode":"9100BUCKNHM","toilets:wheelchair":"no"}},
{"type":"Feature","geometry":{"type":"Point","coordinates":[1.6230138,52.5289897]},"properties":{"name":"Haddiscoe","source":"NPE","network":"National Rail","railway":"station","ref:crs":"HAD","wikidata":"Q2754722","wikipedia":"en:Haddiscoe railway station","naptan:AtcoCode":"9100HADISCO"}},
{"type":"Feature","geometry":{"type":"Point","coordinates":[1.4899035,52.6220652]},"properties":{"name":"Lingwood","source":"NPE","network":"National Rail","railway":"station","ref:crs":"LGD","wikidata":"Q281164","wikipedia":"en:Lingwood railway station","naptan:AtcoCode":"9100LGWOOD"}},
{"type":"Feature","geometry":{"type":"Point","coordinates":[1.5136191,52.5787068]},"properties":{"name":"Cantley","source":"NPE","network":"National Rail","railway":"station","ref:crs":"CNY","wikidata":"Q2149282","wikipedia":"en:Cantley railway station","naptan:AtcoCode":"9100CNTLEY"}},
{"type":"Feature","geometry":{"type":"Point","coordinates":[1.1134842,52.9143627]},"properties":{"name":"Holt","usage":"tourism","railway":"station","tourism":"preserved_railway","wikidata":"Q12060441"}},
{"type":"Feature","geometry":{"type":"Point","coordinates":[0.8683605,52.9471474]},"properties":{"name":"The Midden","usage":"tourism","railway":"station","alt_name":"The Midden Halt","wikidata":"Q85807902","wikipedia":"en:The Midden Halt railway station"}},
{"type":"Feature","geometry":{"type":"Point","coordinates":[0.8777375,52.9363888]},"properties":{"name":"Warham","usage":"tourism","railway":"station","tourism":"preserved_railway","wikidata":"Q7969378","wikipedia":"en:Warham railway station"}},
{"type":"Feature","geometry":{"type":"Point","coordinates":[0.8790464,52.918577]},"properties":{"name":"Wighton Halt","usage":"tourism","railway":"station","tourism":"preserved_railway","alt_name":"Wighton","old_name":"Seton's Halt","wikidata":"Q7999660","wikipedia":"en:Wighton Halt railway station"}},
{"type":"Feature","geometry":{"type":"Point","coordinates":[1.4085335,52.7168488]},"properties":{"name":"Wroxham BVR","usage":"tourism","railway":"station","wikidata":"Q20718188"}},
{"type":"Feature","geometry":{"type":"Point","coordinates":[1.3603255,52.7344055]},"properties":{"name":"Coltishall","usage":"tourism","railway":"station","tourism":"preserved_railway","wikidata":"Q5149451"}},
{"type":"Feature","geometry":{"type":"Point","coordinates":[1.3070895,52.7575759]},"properties":{"name":"Buxton","usage":"tourism","railway":"station","tourism":"preserved_railway","wikidata":"Q5003285"}},
{"type":"Feature","geometry":{"type":"Point","coordinates":[1.2914816,52.7669005]},"properties":{"name":"Brampton","usage":"tourism","railway":"station","tourism":"preserved_railway","operator":"Bure Valley Railway","wikidata":"Q2325021","wikipedia":"en:Brampton railway station"}},
{"type":"Feature","geometry":{"type":"Point","coordinates":[1.2552517,52.7910537]},"properties":{"name":"Aylsham","usage":"tourism","railway":"station","tourism":"preserved_railway","wikidata":"Q4831443","wikipedia":"en:Aylsham South railway station"}},
{"type":"Feature","geometry":{"type":"Point","coordinates":[0.8653779,52.949216]},"properties":{"name":"Wells-on-Sea","usage":"tourism","source":"NPE","railway":"station","tourism":"narrow_gauge_railway","wikidata":"Q7981731","wikipedia":"en:Wells railway station, Norfolk"}},
{"type":"Feature","geometry":{"type":"Point","coordinates":[0.8719869,52.8961239]},"properties":{"name":"Walsingham","usage":"tourism","railway":"station","tourism":"preserved_railway","wikidata":"Q7963857","wikipedia":"en:Walsingham (W&WLR) railway station"}},
{"type":"Feature","geometry":{"type":"Point","coordinates":[1.1504254,52.932886]},"properties":{"name":"Weybourne","usage":"tourism","railway":"station","tourism":"preserved_railway","wikidata":"Q7990292"}},
{"type":"Feature","geometry":{"type":"Point","coordinates":[0.8499284,52.9585593]},"properties":{"name":"The Harbour Station","usage":"tourism","railway":"station","tourism":"narrow_gauge_railway","destination":"Pinewoods & Beach"}},
{"type":"Feature","geometry":{"type":"Point","coordinates":[0.8495298,52.9685689]},"properties":{"name":"Pinewoods Station","usage":"tourism","railway":"station","tourism":"narrow_gauge_railway"}},
{"type":"Feature","geometry":{"type":"Point","coordinates":[1.1378821,52.9319954]},"properties":{"name":"Kelling Heath Park","usage":"tourism","railway":"station","tourism":"preserved_railway","wikidata":"Q6385812","request_stop":"yes"}},
{"type":"Feature","geometry":{"type":"Point","coordinates":[1.7206879,52.6119213]},"properties":{"name":"Great Yarmouth","name:lt":"Didysis Jarmutas","network":"National Rail","railway":"station","ref:crs":"GYM","operator":"Greater Anglia","wikidata":"Q280999","platforms":"4","wikipedia":"en:Great Yarmouth railway station","naptan:AtcoCode":"9100YARMTH"}},
{"type":"Feature","geometry":{"type":"Point","coordinates":[1.5593742,52.5644995]},"properties":{"name":"Reedham","network":"National Rail","railway":"station","ref:crs":"REE","wikidata":"Q1960288","wikipedia":"en:Reedham railway station (Norfolk)","naptan:AtcoCode":"9100RDHAMN"}},
{"type":"Feature","geometry":{"type":"Point","coordinates":[0.9093112,52.4538578]},"properties":{"name":"Harling Road","source":"NPE","network":"National Rail","railway":"station","ref:crs":"HRD","wikidata":"Q2746601","wikipedia":"en:Harling Road railway station","naptan:AtcoCode":"9100HRLNGRD"}},
{"type":"Feature","geometry":{"type":"Point","coordinates":[1.0863145,52.5350854]},"properties":{"name":"Spooner Row","email":"contactcentre@greateranglia.co.uk","phone":"+448456007245","source":"survey;local knowledge;NPE","network":"National Rail","railway":"station","ref:crs":"SPN","website":"https://www.nationalrail.co.uk/stations/SPN/details.html","operator":"Greater Anglia","wikidata":"Q2476140","addr:city":"Spooner Row","wikipedia":"en:Spooner Row railway station","wheelchair":"yes","addr:street":"Station Road","baby_feeding":"no","request_stop":"yes","addr:postcode":"NR18 9AH","naptan:AtcoCode":"9100SPONRRW","public_transport":"station"}},
{"type":"Feature","geometry":{"type":"Point","coordinates":[0.624439,52.4538785]},"properties":{"name":"Brandon","source":"NPE","network":"National Rail","railway":"station","ref:crs":"BND","wikidata":"Q2501282","wikipedia":"en:Brandon railway station","naptan:AtcoCode":"9100BNDON"}},
{"type":"Feature","geometry":{"type":"Point","coordinates":[0.7452845,52.4191691]},"properties":{"url":"http://www.nationalrail.co.uk/stations/TTF/details.html","name":"Thetford","network":"National Rail","railway":"station","ref:crs":"TTF","operator":"Greater Anglia","wikidata":"Q2691707","wikipedia":"en:Thetford railway station","naptan:AtcoCode":"9100THETFD"}},
{"type":"Feature","geometry":{"type":"Point","coordinates":[0.9699833,52.4712664]},"properties":{"name":"Eccles Road","train":"yes","source":"NPE","network":"National Rail","railway":"station","ref:crs":"ECS","wikidata":"Q2037638","wikipedia":"en:Eccles Road railway station","naptan:AtcoCode":"9100ECLR","public_transport":"station"}},
{"type":"Feature","geometry":{"type":"Point","coordinates":[1.0222088,52.5144202]},"properties":{"name":"Attleborough","source":"NPE","network":"National Rail","railway":"station","ref:crs":"ATL","wikidata":"Q2093675","wikipedia":"en:Attleborough railway station","naptan:AtcoCode":"9100ATTLBON"}},
{"type":"Feature","geometry":{"type":"Point","coordinates":[1.1181355,52.5653515]},"properties":{"name":"Wymondham","source":"NPE","network":"National Rail","railway":"station","ref:crs":"WMD","wikidata":"Q2411114","wikipedia":"en:Wymondham railway station","naptan:AtcoCode":"9100WYMNDHM"}},
{"type":"Feature","geometry":{"type":"Point","coordinates":[0.3831294,52.6728741]},"properties":{"name":"Watlington","network":"National Rail","railway":"station","ref:crs":"WTG","old_name":"Magdalen Road","operator":"First Capital Connect","wikidata":"Q1839322","platforms":"2","wikipedia":"en:Watlington railway station","naptan:AtcoCode":"9100WATLGTN","public_transport":"station"}},
{"type":"Feature","geometry":{"type":"Point","coordinates":[0.4040158,52.7538147]},"properties":{"name":"King's Lynn","train":"yes","network":"National Rail","railway":"station","ref:crs":"KLN","operator":"First Capital Connect","wikidata":"Q285604","platforms":"2","wikipedia":"en:King's Lynn railway station","naptan:AtcoCode":"9100KLYNN","public_transport":"station"}},
{"type":"Feature","geometry":{"type":"Point","coordinates":[1.3076876,52.626307]},"properties":{"name":"Norwich","train":"yes","network":"National Rail","railway":"station","ref:crs":"NRW","uic_ref":"7001635","website":"https://www.greateranglia.co.uk/destination/norwich","operator":"Abellio Greater Anglia","wikidata":"Q389902","addr:city":"Norwich","platforms":"6","wikipedia":"en:Norwich railway station","start_date":"1844 - 05 - 01","wheelchair":"yes","addr:street":"Station Approach","description":"Customer help points on concourse. Entire station is step free.","addr:country":"GB","addr:postcode":"NR1 1EF","internet_access":"yes","naptan:AtcoCode":"9100NRCH","air_conditioning":"no","public_transport":"station","internet_access:fee":"no","wheelchair:description":"Ramp for train access available. Accessible booking office counter available. Accessible ticket machines located in the ticket hall and on the station concourse. Assistance is only available during the station staffed hours (see above), unless pre-booked.","hearing_impaired:induction_loop":"yes"}},
{"type":"Feature","geometry":{"type":"Point","coordinates":[1.1235411,52.3736162]},"properties":{"name":"Diss","network":"National Rail","railway":"station","ref:crs":"DIS","wikidata":"Q2716714","wikipedia":"en:Diss railway station","naptan:AtcoCode":"9100DISS","public_transport":"station"}}
]}
