{"type":"FeatureCollection","features":[
{"type":"Feature","geometry":{"type":"Point","coordinates":[-1.6367716,55.392793]},"properties":{"name":"Alnmouth","source":"NPE","network":"National Rail","railway":"station","ref:crs":"ALM","wikidata":"Q4734063","wikipedia":"en:Alnmouth railway station","naptan:AtcoCode":"9100ALNMOTH"}},
{"type":"Feature","geometry":{"type":"Point","coordinates":[-2.0105423,55.7745555]},"properties":{"name":"Berwick-upon-Tweed","network":"National Rail","railway":"station","ref:crs":"BWK","operator":"London North Eastern Railway","wikidata":"Q2232337","wikipedia":"en:Berwick-upon-Tweed railway station"}},
{"type":"Feature","geometry":{"type":"Point","coordinates":[-1.7067301,55.5367939]},"properties":{"name":"Chathill","naptan:AtcoCode":"9100CHHL","network":"National Rail","operator":"Northern","public_transport":"station","railway":"station","ref:crs":"CHT","source":"NPE","wikidata":"Q5087731","wikipedia":"en:Chathill railway station"}},
{"type":"Feature","geometry":{"type":"Point","coordinates":[-1.6162192,55.2411444]},"properties":{"name":"Widdrington","naptan:AtcoCode":"9100WDRNGTN","network":"National Rail","public_transport":"station","railway":"station","ref:crs":"WDD","source":"NPE","wheelchair":"yes","wikidata":"Q2572775","wikipedia":"en:Widdrington railway station"}},
{"type":"Feature","geometry":{"type":"Point","coordinates":[-2.489054,54.8539136]},"properties":{"name":"Lintley","usage":"tourism","railway":"station"}},
{"type":"Feature","geometry":{"type":"Point","coordinates":[-1.5495857,55.1897458]},"properties":{"name":"Museum Halt","usage":"tourism","railway":"station","wikidata":"Q8032742"}},
{"type":"Feature","geometry":{"type":"Point","coordinates":[-1.5516907,55.1961472]},"properties":{"name":"Lakeside Halt","usage":"tourism","railway":"station"}},
{"type":"Feature","geometry":{"type":"Point","coordinates":[-2.1226374,55.646411]},"properties":{"name":"Etal Railway Station","usage":"tourism","railway":"station"}},
{"type":"Feature","geometry":{"type":"Point","coordinates":[-2.4751167,54.8405356]},"properties":{"name":"Kirkhaugh","usage":"tourism","railway":"station"}},
{"type":"Feature","geometry":{"type":"Point","coordinates":[-2.3450711,54.9745437]},"properties":{"name":"Bardon Mill","network":"National Rail","railway":"station","ref:crs":"BLL","operator":"Northern","wikidata":"Q2052953","addr:city":"Bardon Mill","wikipedia":"en:Bardon Mill railway station","addr:postcode":"NE47 7HY","naptan:AtcoCode":"9100BRDNML","public_transport":"station"}},
{"type":"Feature","geometry":{"type":"Point","coordinates":[-2.0190286,54.9662648]},"properties":{"name":"Corbridge","network":"National Rail","railway":"station","ref:crs":"CRB","operator":"Northern","wikidata":"Q1883670","addr:city":"Corbridge","wikipedia":"en:Corbridge railway station","wheelchair":"limited","addr:street":"Station Road","addr:postcode":"NE45 5AY","naptan:AtcoCode":"9100CRBG","public_transport":"station"}},
{"type":"Feature","geometry":{"type":"Point","coordinates":[-2.4627642,54.9679903]},"properties":{"name":"Haltwhistle","source":"survey","network":"National Rail","railway":"station","ref:crs":"HWH","wikidata":"Q13528467","wikipedia":"en:Haltwhistle railway station","naptan:AtcoCode":"9100HLTWHST","public_transport":"station"}},
{"type":"Feature","geometry":{"type":"Point","coordinates":[-2.2472059,54.9752903]},"properties":{"name":"Haydon Bridge","source":"NPE","network":"National Rail","railway":"station","ref:crs":"HDB","operator":"Northern","wikidata":"Q2003647","addr:city":"Haydon Bridge","wikipedia":"en:Haydon Bridge railway station","addr:postcode":"NE47 6LL","naptan:AtcoCode":"9100HYDB","public_transport":"station"}},
{"type":"Feature","geometry":{"type":"Point","coordinates":[-1.8647367,54.9658707]},"properties":{"name":"Prudhoe","network":"National Rail","railway":"station","ref:crs":"PRU","wikidata":"Q2298662","addr:city":"Prudhoe","wikipedia":"en:Prudhoe railway station","wheelchair":"yes","addr:street":"Station Road","addr:postcode":"NE42 6NR","naptan:AtcoCode":"9100PRUDHOE","public_transport":"station"}},
{"type":"Feature","geometry":{"type":"Point","coordinates":[-1.9719541,54.9489331]},"properties":{"name":"Riding Mill","source":"NPE","network":"National Rail","railway":"station","ref:crs":"RDM","shelter":"yes","operator":"Northern","wikidata":"Q2365388","addr:city":"Riding Mill","wikipedia":"en:Riding Mill railway station","wheelchair":"yes","addr:postcode":"NE44 6EP","naptan:AtcoCode":"9100RIDNGML","public_transport":"station"}},
{"type":"Feature","geometry":{"type":"Point","coordinates":[-1.9171893,54.946811]},"properties":{"name":"Stocksfield","source":"NPE","network":"National Rail","railway":"station","ref:crs":"SKS","operator":"Northern","wikidata":"Q2371813","addr:city":"Stocksfield","wikipedia":"en:Stocksfield railway station","wheelchair":"yes","addr:postcode":"NE43 7NQ","naptan:AtcoCode":"9100STCKSFL","public_transport":"station"}},
{"type":"Feature","geometry":{"type":"Point","coordinates":[-1.8146904,54.9747906]},"properties":{"name":"Wylam","source":"survey","network":"National Rail","railway":"station","ref:crs":"WYM","wikidata":"Q2536803","wikipedia":"en:Wylam railway station","naptan:AtcoCode":"9100WYLAM","public_transport":"station"}},
{"type":"Feature","geometry":{"type":"Point","coordinates":[-1.6517687,55.3072171]},"properties":{"name":"Acklington","naptan:AtcoCode":"9100ACKLNGT","network":"National Rail","operator":"Northern","public_transport":"station","railway":"station","ref:crs":"ACK","source":"NPE","wikidata":"Q3517520","wikipedia":"en:Acklington railway station"}},
{"type":"Feature","geometry":{"type":"Point","coordinates":[-2.5064919,54.8653223]},"properties":{"name":"Slaggyford","train":"yes","usage":"tourism","railway":"station","wheelchair":"yes","public_transport":"station"}},
{"type":"Feature","geometry":{"type":"Point","coordinates":[-2.1067584,55.6391023]},"properties":{"name":"Heatherslaw Railway Station","usage":"tourism","railway":"station"}},
{"type":"Feature","geometry":{"type":"Point","coordinates":[-2.0947934,54.9735335]},"properties":{"name":"Hexham","train":"yes","network":"National Rail","railway":"station","ref:crs":"HEX","operator":"Northern","wikidata":"Q2462338","wikipedia":"en:Hexham railway station","naptan:AtcoCode":"9100HEXHAM","public_transport":"station"}},
{"type":"Feature","geometry":{"type":"Point","coordinates":[-1.6437205,55.1783232]},"properties":{"name":"Pegswood","train":"yes","source":"NPE","network":"National Rail","railway":"station","ref:crs":"PEG","wikidata":"Q2495528","wikipedia":"en:Pegswood railway station","naptan:AtcoCode":"9100PEGSWD","public_transport":"station"}},
{"type":"Feature","geometry":{"type":"Point","coordinates":[-1.6831484,55.1623623]},"properties":{"name":"Morpeth","naptan:AtcoCode":"9100MRPTHRP","network":"National Rail","public_transport":"station","railway":"station","ref:crs":"MPT","wikidata":"Q2534198","wikipedia":"en:Morpeth railway station"}},
{"type":"Feature","geometry":{"type":"Point","coordinates":[-1.6866887,55.4025681]},"properties":{"name":"Lionheart","usage":"tourism","railway":"station","website":"https://www.alnvalleyrailway.co.uk/","public_transport":"station"}},
{"type":"Feature","geometry":{"type":"Point","coordinates":[-1.5986859,55.0877657]},"properties":{"name":"Cramlington","naptan:AtcoCode":"9100CRMLNGT","network":"National Rail","operator":"Northern","public_transport":"station","railway":"station","ref:crs":"CRM","wikidata":"Q2007937","wikipedia":"en:Cramlington railway station"}}
]}
