{"type":"FeatureCollection","features":[
{"type":"Feature","geometry":{"type":"Point","coordinates":[-1.2143782,53.853331]},"properties":{"name":"Ulleskelf","source":"npe","network":"National Rail","railway":"station","ref:crs":"ULL","wikidata":"Q951589","wikipedia":"en:Ulleskelf railway station","naptan:AtcoCode":"9100ULESKLF","public_transport":"station"}},
{"type":"Feature","geometry":{"type":"Point","coordinates":[-0.7784454,54.2472695]},"properties":{"addr:housename":"Pickering Station","addr:postcode":"YO18 7AJ","addr:street":"Park Street","name":"Pickering","railway":"station","usage":"tourism","website":"https://www.nymr.co.uk/","wikidata":"Q7190832"}},
{"type":"Feature","geometry":{"type":"Point","coordinates":[-0.7443884,54.3082776]},"properties":{"name":"Levisham","usage":"tourism","railway":"station","wikidata":"Q6535693","wikipedia":"en:Levisham railway station","ref:tiploc":"PICKLEV"}},
{"type":"Feature","geometry":{"type":"Point","coordinates":[-0.7177548,54.3424545]},"properties":{"name":"Newton Dale","usage":"tourism","railway":"station"}},
{"type":"Feature","geometry":{"type":"Point","coordinates":[-0.7120022,54.4004864]},"properties":{"name":"Goathland Station (NYMR)","usage":"tourism","railway":"station","wikidata":"Q5575368","wikipedia":"en:Goathland railway station"}},
{"type":"Feature","geometry":{"type":"Point","coordinates":[-0.7248845,54.4360239]},"properties":{"name":"Grosmont","usage":"tourism","railway":"station"}},
{"type":"Feature","geometry":{"type":"Point","coordinates":[-2.2808342,54.0669551]},"properties":{"name":"Settle","route":"Settle to Carlisle Railway","source":"GPX + NPE","network":"National Rail","railway":"station","ref:crs":"SET","wikidata":"Q2210148","wikipedia":"en:Settle railway station","postal_code":"BD24 9AA","naptan:AtcoCode":"9100SETTLE","public_transport":"station"}},
{"type":"Feature","geometry":{"type":"Point","coordinates":[-2.3020792,54.1492195]},"properties":{"name":"Horton-in-Ribblesdale","source":"NPE","network":"National Rail","railway":"station","ref:crs":"HIR","wikidata":"Q5906817","wikipedia":"en:Horton-in-Ribblesdale railway station","naptan:AtcoCode":"9100HTNRIBL","public_transport":"station"}},
{"type":"Feature","geometry":{"type":"Point","coordinates":[-1.2272134,53.8270101]},"properties":{"name":"Church Fenton","source":"npe","network":"National Rail","railway":"station","ref:crs":"CHF","wikidata":"Q3489838","wikipedia":"en:Church Fenton railway station","naptan:AtcoCode":"9100CHFN"}},
{"type":"Feature","geometry":{"type":"Point","coordinates":[-1.0195165,54.5873806]},"properties":{"name":"Marske","network":"National Rail","railway":"station","ref:crs":"MSK","uic_ref":"7001509","wikidata":"Q951534","wikipedia":"en:Marske railway station","ref:stanox":"15668","ref:tiploc":"MRSK","naptan:AtcoCode":"9100MRSK"}},
{"type":"Feature","geometry":{"type":"Point","coordinates":[-2.2551519,54.0166575]},"properties":{"name":"Long Preston","network":"National Rail","old_ref":"NPE + GPX","railway":"station","ref:crs":"LPR","wikipedia":"en:Long Preston railway station","naptan:AtcoCode":"9100LPRESTN","public_transport":"station"}},
{"type":"Feature","geometry":{"type":"Point","coordinates":[-1.0937157,54.4573049]},"properties":{"name":"Battersby","network":"National Rail","railway":"station","ref:crs":"BTT","uic_ref":"7000359","wikidata":"Q367057","wikipedia":"en:Battersby railway station","naptan:AtcoCode":"9100BTRSBY","public_transport":"station"}},
{"type":"Feature","geometry":{"type":"Point","coordinates":[-1.991213,53.9753772]},"properties":{"name":"Embsay","public_transport":"station","railway":"station","train":"yes","usage":"tourism","wikidata":"Q5370259","wikipedia":"en:Embsay railway station"}},
{"type":"Feature","geometry":{"type":"Point","coordinates":[-1.9600589,53.9758359]},"properties":{"name":"Holywell","note":"Serves adjacent Craven Fault viewpoint and picnic sites only. No publicly accessible route to A65.","public_transport":"station","railway":"station","train":"yes","usage":"tourism","wikidata":"Q5887184","wikipedia":"en:Holywell Halt railway station"}},
{"type":"Feature","geometry":{"type":"Point","coordinates":[-1.9087257,53.9761778]},"properties":{"name":"Bolton Abbey","public_transport":"station","railway":"station","train":"yes","usage":"tourism","wikidata":"Q4940142","wikipedia":"en:Bolton Abbey railway station"}},
{"type":"Feature","geometry":{"type":"Point","coordinates":[-1.0519248,54.609055]},"properties":{"name":"Redcar East","network":"National Rail","railway":"station","ref:crs":"RCE","uic_ref":"7001851","wikidata":"Q4318568","wikipedia":"en:Redcar East railway station","ref:stanox":"15664","ref:tiploc":"REDCARE","naptan:AtcoCode":"9100REDCARE","public_transport":"station"}},
{"type":"Feature","geometry":{"type":"Point","coordinates":[-0.3142945,54.1745371]},"properties":{"addr:city":"Hunmanby","addr:postcode":"YO14 0LR","length":"923","name":"Hunmanby","naptan:AtcoCode":"9100HUNMNBY","network":"National Rail","railway":"station","ref:crs":"HUB","ref:tiploc":"HUNMNBY","source":"npe","wikipedia":"en:Hunmanby railway station"}},
{"type":"Feature","geometry":{"type":"Point","coordinates":[-0.4056223,54.2799474]},"properties":{"name":"Scarborough","train":"yes","network":"National Rail","railway":"station","ref:crs":"SCA","operator":"First Transpennine Express","wikipedia":"en:Scarborough railway station","wheelchair":"yes","naptan:AtcoCode":"9100SCARBRO","public_transport":"station","toilets:wheelchair":"yes"}},
{"type":"Feature","geometry":{"type":"Point","coordinates":[-1.232944,53.7973955]},"properties":{"name":"Sherburn-in-Elmet","source":"NPE","network":"National Rail","railway":"station","ref:crs":"SIE","wikidata":"Q1881964","wikipedia":"en:Sherburn-in-Elmet railway station","naptan:AtcoCode":"9100SHBN","public_transport":"station"}},
{"type":"Feature","geometry":{"type":"Point","coordinates":[-1.9284688,54.3191529]},"properties":{"name":"Redmire","train":"yes","usage":"tourism","source":"OS OpenData StreetView","network":"Wensleydale Railway","railway":"station","operator":"Wensleydale Railway Association","wikidata":"Q7306097","source:name":"NPE","public_transport":"station"}},
{"type":"Feature","geometry":{"type":"Point","coordinates":[-1.1146667,53.6984707]},"properties":{"name":"Hensall","source":"NPE","network":"National Rail","railway":"station","ref:crs":"HEL","wikidata":"Q2785836","wikipedia":"en:Hensall railway station","naptan:AtcoCode":"9100HENSALL"}},
{"type":"Feature","geometry":{"type":"Point","coordinates":[-1.5880507,54.2891975]},"properties":{"name":"Bedale","usage":"tourism","railway":"station","operator":"Wensleydale Railway","wikidata":"Q4878983","wikipedia":"en:Bedale railway station","public_transport":"station"}},
{"type":"Feature","geometry":{"type":"Point","coordinates":[-0.9705382,54.5793885]},"properties":{"name":"Forest Halt","railway":"station","usage":"tourism"}},
{"type":"Feature","geometry":{"type":"Point","coordinates":[-0.7938803,54.4394928]},"properties":{"name":"Glaisdale","network":"National Rail","railway":"station","ref:crs":"GLS","uic_ref":"7000940","wikidata":"Q2357575","wikipedia":"en:Glaisdale railway station","naptan:AtcoCode":"9100GLAISDL","public_transport":"station"}},
{"type":"Feature","geometry":{"type":"Point","coordinates":[-0.9749156,54.4812048]},"properties":{"name":"Commondale","network":"National Rail","railway":"station","ref:crs":"COM","uic_ref":"7000525","operator":"Northern Rail","wikidata":"Q1943197","wikipedia":"en:Commondale railway station","naptan:AtcoCode":"9100COMONDL","public_transport":"station"}},
{"type":"Feature","geometry":{"type":"Point","coordinates":[-0.7617497,54.4375309]},"properties":{"name":"Egton","network":"National Rail","railway":"station","ref:crs":"EGT","uic_ref":"7000776","operator":"Northern Rail","wikidata":"Q2437498","wikipedia":"en:Egton railway station","addr:postcode":"YO21 1UX","naptan:AtcoCode":"9100EGTON","public_transport":"station"}},
{"type":"Feature","geometry":{"type":"Point","coordinates":[-0.6628583,54.4611428]},"properties":{"name":"Sleights","network":"National Rail","railway":"station","ref:crs":"SLH","uic_ref":"7001999","operator":"Northern Rail","wikidata":"Q2658220","wikipedia":"en:Sleights railway station","naptan:AtcoCode":"9100SLEGHTS","public_transport":"station"}},
{"type":"Feature","geometry":{"type":"Point","coordinates":[-0.94675,54.4671509]},"properties":{"name":"Castleton Moor","network":"National Rail","railway":"station","ref:crs":"CSM","uic_ref":"7000512","wikidata":"Q2181881","wikipedia":"en:Castleton Moor railway station","naptan:AtcoCode":"9100CTNM","public_transport":"station"}},
{"type":"Feature","geometry":{"type":"Point","coordinates":[-0.9109238,54.4661475]},"properties":{"name":"Danby","train":"yes","network":"National Rail","railway":"station","ref:crs":"DNY","uic_ref":"7000644","wikidata":"Q2012537","wikipedia":"en:Danby railway station","naptan:AtcoCode":"9100DANBY","public_transport":"station"}},
{"type":"Feature","geometry":{"type":"Point","coordinates":[-0.8255112,54.4604593]},"properties":{"name":"Lealholm","network":"National Rail","railway":"station","ref:crs":"LHM","uic_ref":"7001380","operator":"Northern Rail","wikidata":"Q2377733","wikipedia":"en:Lealholm railway station","naptan:AtcoCode":"9100LEALHLM","public_transport":"station"}},
{"type":"Feature","geometry":{"type":"Point","coordinates":[-1.068352,54.4777686]},"properties":{"name":"Kildale","source":"OS_OpenData_StreetView","network":"National Rail","railway":"station","ref:crs":"KLD","uic_ref":"7001251","wikidata":"Q6406700","wikipedia":"en:Kildale railway station","naptan:AtcoCode":"9100KLDL","public_transport":"station"}},
{"type":"Feature","geometry":{"type":"Point","coordinates":[-1.1150788,54.4893819]},"properties":{"name":"Great Ayton","naptan:AtcoCode":"9100GTAYTON","network":"National Rail","operator":"Northern Rail","public_transport":"station","railway":"station","ref:crs":"GTA","train":"yes","uic_ref":"7000910","wikidata":"Q3377096","wikipedia":"en:Great Ayton railway station"}},
{"type":"Feature","geometry":{"type":"Point","coordinates":[-2.3028455,54.0617706]},"properties":{"name":"Giggleswick","source":"NPE;Bing;OS_OpenData_StreetView","network":"National Rail","railway":"station","ref:crs":"GIG","wikidata":"Q2802459","addr:city":"Settle","wikipedia":"en:Giggleswick railway station","addr:village":"Giggleswick","addr:postcode":"BD24 0EA","naptan:AtcoCode":"9100GGLSWCK","public_transport":"station"}},
{"type":"Feature","geometry":{"type":"Point","coordinates":[-0.9752233,54.5834185]},"properties":{"name":"Saltburn","network":"National Rail","railway":"station","ref:crs":"SLB","uic_ref":"7001928","operator":"Northern Rail","wikidata":"Q2033443","wikipedia":"en:Saltburn railway station","naptan:AtcoCode":"9100SBRN","public_transport":"station"}},
{"type":"Feature","geometry":{"type":"Point","coordinates":[-1.0309929,54.5893375]},"properties":{"name":"Longbeck","network":"National Rail","railway":"station","ref:crs":"LGK","uic_ref":"7001313","operator":"Northern","wikidata":"Q2337724","wikipedia":"en:Longbeck railway station","naptan:AtcoCode":"9100LONGBCK","public_transport":"station"}},
{"type":"Feature","geometry":{"type":"Point","coordinates":[-0.9709902,54.5856932]},"properties":{"name":"Town Station","usage":"tourism","railway":"station","funicular":"yes","public_transport":"station"}},
{"type":"Feature","geometry":{"type":"Point","coordinates":[-1.5674423,54.173908]},"properties":{"usage":"tourism","railway":"station"}},
{"type":"Feature","geometry":{"type":"Point","coordinates":[-1.5637519,54.1760006]},"properties":{"usage":"tourism","railway":"station"}},
{"type":"Feature","geometry":{"type":"Point","coordinates":[-1.5659244,54.1778028]},"properties":{"usage":"tourism","railway":"station"}},
{"type":"Feature","geometry":{"type":"Point","coordinates":[-0.7253575,54.436456]},"properties":{"name":"Grosmont","network":"National Rail","railway":"station","ref:crs":"GMT","uic_ref":"7000952","wikipedia":"en:Grosmont railway station","naptan:AtcoCode":"9100GROSMNT","public_transport":"station"}},
{"type":"Feature","geometry":{"type":"Point","coordinates":[-1.5612827,54.3051229]},"properties":{"name":"Leeming Bar","usage":"tourism","railway":"station","wikidata":"Q6516322","public_transport":"station"}},
{"type":"Feature","geometry":{"type":"Point","coordinates":[-0.4109367,54.3009515]},"properties":{"name":"Scalby Mills","public_transport":"station","railway":"station","usage":"tourism"}},
{"type":"Feature","geometry":{"type":"Point","coordinates":[-0.4113865,54.2929426]},"properties":{"name":"Peasholm","public_transport":"station","railway":"station","usage":"tourism"}},
{"type":"Feature","geometry":{"type":"Point","coordinates":[-0.9667675,54.5841702]},"properties":{"name":"Cat Nab","usage":"tourism","source":"survey","railway":"station"}},
{"type":"Feature","geometry":{"type":"Point","coordinates":[-1.5338293,54.3195897]},"properties":{"name":"Scruton","usage":"tourism","railway":"station","wikidata":"Q7439362","wikipedia":"en:Scruton railway station"}},
{"type":"Feature","geometry":{"type":"Point","coordinates":[-1.4482218,54.340079]},"properties":{"name":"Northallerton West","public_transport":"station","railway":"station","usage":"tourism","wikidata":"Q18619288","wikipedia":"en:Northallerton West railway station"}},
{"type":"Feature","geometry":{"type":"Point","coordinates":[-1.7181864,54.3058821]},"properties":{"name":"Finghall Lane","train":"yes","usage":"tourism","railway":"station","wikidata":"Q5450304","public_transport":"station"}},
{"type":"Feature","geometry":{"type":"Point","coordinates":[-1.1125744,54.6097585]},"properties":{"name":"British Steel Redcar","network":"National Rail","railway":"station","ref:crs":"RBS","uic_ref":"7000354","alt_name":"Redcar British Steel","operator":"Northern Rail","wikidata":"Q13528433","wikipedia":"en:Redcar British Steel railway station","naptan:AtcoCode":"9100REDCBSC","public_transport":"station"}},
{"type":"Feature","geometry":{"type":"Point","coordinates":[-1.0703222,54.6159857]},"properties":{"name":"Redcar Central","network":"National Rail","railway":"station","ref:crs":"RCC","uic_ref":"7001850","operator":"Northern Rail","wikidata":"Q2317607","platforms":"2","wikipedia":"en:Redcar Central railway station","naptan:AtcoCode":"9100REDCARC","public_transport":"station"}},
{"type":"Feature","geometry":{"type":"Point","coordinates":[-1.1762715,54.5840107]},"properties":{"name":"South Bank","source":"website","network":"National Rail","railway":"station","ref:crs":"SBK","uic_ref":"7002087","wikidata":"Q1898560","wikipedia":"en:South Bank railway station (England)","postal_code":"TS6 6AZ","addr:postcode":"TS6 6AZ","naptan:AtcoCode":"9100STHBANK","public_transport":"station"}},
{"type":"Feature","geometry":{"type":"Point","coordinates":[-1.3514668,54.4937626]},"properties":{"name":"Yarm","train":"yes","network":"National Rail","railway":"station","ref:crs":"YRM","operator":"TransPennine Express","wikidata":"Q2733475","wikipedia":"en:Yarm railway station","naptan:AtcoCode":"9100YAAM","public_transport":"station"}},
{"type":"Feature","geometry":{"type":"Point","coordinates":[-0.2938604,54.2098083]},"properties":{"name":"Filey","source":"npe","network":"National Rail","railway":"station","ref:crs":"FIL","operator":"Northern","platforms":"2","wikipedia":"en:Filey railway station","ref:tiploc":"FILEY","naptan:AtcoCode":"9100FILEY","public_transport":"station"}},
{"type":"Feature","geometry":{"type":"Point","coordinates":[-0.4169939,54.2406582]},"properties":{"name":"Seamer","naptan:AtcoCode":"9100SEAMER","network":"National Rail","operator":"TransPennine Express","railway":"station","ref:crs":"SEM","ref:tiploc":"SEAMER","source":"npe","wikipedia":"en:Seamer railway station"}},
{"type":"Feature","geometry":{"type":"Point","coordinates":[-1.3201962,53.9974183]},"properties":{"name":"Cattal","source":"NPE","network":"National Rail","railway":"station","ref:crs":"CTL","wikidata":"Q2087472","wikipedia":"en:Cattal railway station","naptan:AtcoCode":"9100CATTAL"}},
{"type":"Feature","geometry":{"type":"Point","coordinates":[-1.2840693,53.996331]},"properties":{"name":"Hammerton","source":"NPE","network":"National Rail","railway":"station","ref:crs":"HMM","wikidata":"Q2660162","wikipedia":"en:Hammerton railway station","naptan:AtcoCode":"9100HAMERTN"}},
{"type":"Feature","geometry":{"type":"Point","coordinates":[-1.5276765,53.9803587]},"properties":{"name":"Hornbeam Park","network":"National Rail","railway":"station","ref:crs":"HBP","operator":"Northern","wikidata":"Q4342481","platforms":"2","wikipedia":"en:Hornbeam Park railway station","internet_access":"no","naptan:AtcoCode":"9100HRNBPK"}},
{"type":"Feature","geometry":{"type":"Point","coordinates":[-1.4703169,54.0090258]},"properties":{"name":"Knaresborough","source":"NPE","network":"National Rail","railway":"station","ref:crs":"KNA","wikidata":"Q2848537","platforms":"2","wikipedia":"en:Knaresborough railway station","naptan:AtcoCode":"9100KNRSBGH"}},
{"type":"Feature","geometry":{"type":"Point","coordinates":[-1.5326585,53.9584446]},"properties":{"name":"Pannal","naptan:AtcoCode":"9100PANNAL","network":"National Rail","platforms":"2","public_transport":"station","railway":"station","ref:crs":"PNL","wikidata":"Q2602787","wikipedia":"en:Pannal railway station"}},
{"type":"Feature","geometry":{"type":"Point","coordinates":[-1.1484069,53.9759597]},"properties":{"name":"Poppleton","train":"yes","source":"NPE","network":"National Rail","railway":"station","ref:crs":"POP","operator":"Northern","wikidata":"Q7229551","platforms":"2","wikipedia":"en:Poppleton railway station","internet_access":"no","naptan:AtcoCode":"9100POPLTON","public_transport":"station"}},
{"type":"Feature","geometry":{"type":"Point","coordinates":[-1.5004755,53.998881]},"properties":{"name":"Starbeck","network":"National Rail","railway":"station","ref:crs":"SBE","wikidata":"Q2187296","platforms":"2","wikipedia":"en:Starbeck railway station","naptan:AtcoCode":"9100STARBCK"}},
{"type":"Feature","geometry":{"type":"Point","coordinates":[-1.5812986,53.923285]},"properties":{"name":"Weeton","network":"National Rail","railway":"station","ref:crs":"WET","wikidata":"Q3015678","wikipedia":"en:Weeton railway station","naptan:AtcoCode":"9100WEETON"}},
{"type":"Feature","geometry":{"type":"Point","coordinates":[-0.615191,54.4848396]},"properties":{"name":"Whitby","network":"National Rail","railway":"station","ref:crs":"WTB","uic_ref":"7002397","operator":"Northern Rail","wikipedia":"en:Whitby railway station","naptan:AtcoCode":"9100WTBY","public_transport":"station"}},
{"type":"Feature","geometry":{"type":"Point","coordinates":[-0.6276892,54.469998]},"properties":{"name":"Ruswarp","network":"National Rail","railway":"station","ref:crs":"RUS","uic_ref":"7001914","wikipedia":"en:Ruswarp railway station","naptan:AtcoCode":"9100RUSWARP","public_transport":"station"}},
{"type":"Feature","geometry":{"type":"Point","coordinates":[-2.5106193,54.1154922]},"properties":{"name":"Bentham","network":"National Rail","railway":"station","ref:crs":"BEN","wikidata":"Q4890388","wikipedia":"en:Bentham railway station","naptan:AtcoCode":"9100BNTHAM","public_transport":"station"}},
{"type":"Feature","geometry":{"type":"Point","coordinates":[-2.4104509,54.105416]},"properties":{"name":"Clapham","source":"NPE","network":"National Rail","railway":"station","ref:crs":"CPY","wikidata":"Q5125882","wikipedia":"en:Clapham railway station","naptan:AtcoCode":"9100CLPM","public_transport":"station"}},
{"type":"Feature","geometry":{"type":"Point","coordinates":[-2.0118034,53.9171608]},"properties":{"name":"Cononley","network":"National Rail","railway":"station","ref:crs":"CEY","wikidata":"Q3295297","wikipedia":"en:Cononley railway station","naptan:AtcoCode":"9100CONONLY"}},
{"type":"Feature","geometry":{"type":"Point","coordinates":[-2.1050692,53.9782539]},"properties":{"name":"Gargrave","source":"NPE","network":"National Rail","railway":"station","ref:crs":"GGV","wikidata":"Q2007532","wikipedia":"en:Gargrave railway station","naptan:AtcoCode":"9100GRGRAVE"}},
{"type":"Feature","geometry":{"type":"Point","coordinates":[-1.5374305,53.9934045]},"properties":{"addr:city":"Harrogate","addr:postcode":"HG1 1TE","addr:street":"Station Parade","name":"Harrogate","naptan:AtcoCode":"9100HAGT","network":"National Rail","operator":"Northern","platforms":"3","public_transport":"station","railway":"station","ref:crs":"HGT","wikidata":"Q2698559","wikipedia":"en:Harrogate railway station"}},
{"type":"Feature","geometry":{"type":"Point","coordinates":[-1.0980878,53.9597781]},"properties":{"train":"yes","usage":"tourism","railway":"station","public_transport":"stop_position"}},
{"type":"Feature","geometry":{"type":"Point","coordinates":[-2.0260314,53.9584308]},"properties":{"name":"Skipton","train":"yes","network":"National Rail","railway":"station","ref:crs":"SKI","operator":"Northern","wikidata":"Q2477336","wikipedia":"en:Skipton railway station","naptan:AtcoCode":"9100SKPT","public_transport":"station"}},
{"type":"Feature","geometry":{"type":"Point","coordinates":[-2.3607019,54.2056018]},"properties":{"name":"Ribblehead","network":"National Rail","railway":"station","ref:crs":"RHD","operator":"Northern","wikidata":"Q2801135","wikipedia":"en:Ribblehead railway station","naptan:AtcoCode":"9100RIBLHED"}},
{"type":"Feature","geometry":{"type":"Point","coordinates":[-1.1697897,54.5280386]},"properties":{"name":"Nunthorpe","naptan:AtcoCode":"9100NUNTHRP","network":"National Rail","operator":"Northern Rail","public_transport":"station","railway":"station","ref:crs":"NNT","train":"yes","uic_ref":"7001667","wikidata":"Q2200991","wikipedia":"en:Nunthorpe railway station"}},
{"type":"Feature","geometry":{"type":"Point","coordinates":[-1.2511292,53.7823824]},"properties":{"name":"South Milford","network":"National Rail","railway":"station","ref:crs":"SOM","wikidata":"Q2408723","wikipedia":"en:South Milford railway station","naptan:AtcoCode":"9100SMILFD","public_transport":"station"}},
{"type":"Feature","geometry":{"type":"Point","coordinates":[-1.2085659,54.5521069]},"properties":{"name":"James Cook","source":"wikipedia","network":"National Rail","railway":"station","ref:crs":"JCH","alt_name":"James Cook University Hospital","operator":"Northern Rail","wikidata":"Q6131684","wikipedia":"en:James Cook railway station","naptan:AtcoCode":"9100JAMCOK","public_transport":"station"}},
{"type":"Feature","geometry":{"type":"Point","coordinates":[-1.372768,54.2281989]},"properties":{"name":"Thirsk","source":"landsat and local knowledge","network":"National Rail","railway":"station","ref:crs":"THI","operator":"TransPennine Express","wikidata":"Q2424788","wikipedia":"en:Thirsk railway station","naptan:AtcoCode":"9100THIRSK","public_transport":"station"}},
{"type":"Feature","geometry":{"type":"Point","coordinates":[-1.0937301,53.9577037]},"properties":{"addr:city":"York","addr:housename":"York Railway Station","addr:postcode":"YO24 1AB","addr:street":"Station Road","internet_access":"wlan","internet_access:fee":"no","listed_status":"Grade II*","name":"York","naptan:AtcoCode":"9100YORK","network":"National Rail","operator":"Virgin Trains East Coast","passenger":"yes","platforms":"11","public_transport":"station","railway":"station","ref:crs":"YRK","source":"Bing","wheelchair":"yes","wikidata":"Q2269429","wikipedia":"en:York railway station"}},
{"type":"Feature","geometry":{"type":"Point","coordinates":[-1.0634228,53.7829146]},"properties":{"name":"Selby","length":"200.3","network":"National Rail","railway":"station","ref:crs":"SBY","wikidata":"Q2253957","addr:city":"Selby","wikipedia":"en:Selby railway station","ref:tiploc":"SELBY","addr:street":"Station Road","addr:postcode":"YO8 4NW","naptan:AtcoCode":"9100SELBY","public_transport":"station"}},
{"type":"Feature","geometry":{"type":"Point","coordinates":[-1.2345092,54.5791464]},"properties":{"name":"Middlesbrough","network":"National Rail","railway":"station","ref:crs":"MBR","uic_ref":"7001502","operator":"First TransPennine Express","wikidata":"Q2102917","wikipedia":"en:Middlesbrough railway station","wheelchair":"limited","naptan:AtcoCode":"9100MDLSBRO","public_transport":"station","toilets:wheelchair":"limited"}},
{"type":"Feature","geometry":{"type":"Point","coordinates":[-1.441378,54.3324731]},"properties":{"name":"Northallerton","naptan:AtcoCode":"9100NLRTN","network":"National Rail","operator":"TransPennine Express","public_transport":"station","railway":"station","ref:crs":"NTR","source":"Bing","wikidata":"Q2537832","wikipedia":"en:Northallerton railway station"}},
{"type":"Feature","geometry":{"type":"Point","coordinates":[-1.0096946,53.9629949]},"properties":{"name":"Murton Park","usage":"tourism","railway":"station","operator":"Derwent Valley Light Railway"}},
{"type":"Feature","geometry":{"type":"Point","coordinates":[-1.3016958,54.5591886]},"properties":{"addr:postcode":"TS17 6AW","name":"Thornaby","naptan:AtcoCode":"9100TABY","network":"National Rail","operator":"Northern Rail","public_transport":"station","railway":"station","ref:crs":"TBY","wikidata":"Q2795880","wikipedia":"en:Thornaby railway station"}},
{"type":"Feature","geometry":{"type":"Point","coordinates":[-2.2269493,54.0104821]},"properties":{"name":"Hellifield","train":"yes","source":"npe","network":"National Rail","railway":"station","ref:crs":"HLD","operator":"Northern","wikidata":"Q1859183","addr:city":"Hellifield","wikipedia":"en:Hellifield railway station","addr:street":"Station Road","addr:postcode":"BD23 4HN","naptan:AtcoCode":"9100HELIFLD","public_transport":"station"}},
{"type":"Feature","geometry":{"type":"Point","coordinates":[-1.1985283,54.5443422]},"properties":{"name":"Marton","network":"National Rail","railway":"station","ref:crs":"MTO","uic_ref":"7001474","operator":"Northern Rail","wikidata":"Q6777308","wikipedia":"en:Marton railway station (North Yorkshire)","naptan:AtcoCode":"9100MARTON"}},
{"type":"Feature","geometry":{"type":"Point","coordinates":[-0.7977286,54.1318572]},"properties":{"name":"Malton","naptan:AtcoCode":"9100MALTON","network":"National Rail","platforms":"1","public_transport":"station","railway":"station","ref:crs":"MLT","source":"npe","wikidata":"Q2065298","wikipedia":"en:Malton railway station"}},
{"type":"Feature","geometry":{"type":"Point","coordinates":[-1.1805958,54.5334838]},"properties":{"name":"Gypsy Lane","network":"National Rail","railway":"station","ref:crs":"GYP","uic_ref":"7000998","wikidata":"Q2431199","wikipedia":"en:Gypsy Lane railway station","naptan:AtcoCode":"9100GYPSYLA"}},
{"type":"Feature","geometry":{"type":"Point","coordinates":[-0.9707315,54.5861191]},"properties":{"name":"Pier","opening_hours:covid19":"closed","public_transport":"station","railway":"station","train":"yes","usage":"tourism"}},
{"type":"Feature","geometry":{"type":"Point","coordinates":[-1.1590267,53.6991423]},"properties":{"name":"Whitley Bridge","source":"NPE","network":"National Rail","railway":"station","ref:crs":"WBD","wikidata":"Q2379493","wikipedia":"en:Whitley Bridge railway station","naptan:AtcoCode":"9100WHTBDGE"}},
{"type":"Feature","geometry":{"type":"Point","coordinates":[-1.8222392,54.308109]},"properties":{"name":"Leyburn","image":"https://www.geograph.org.uk/photo/6375689","train":"yes","usage":"tourism","railway":"station","wikidata":"Q6537980","public_transport":"station"}},
{"type":"Feature","geometry":{"type":"Point","coordinates":[-0.8068088,54.2111863]},"properties":{"name":"Kumali","public_transport":"station","railway":"station","usage":"tourism"}},
{"type":"Feature","geometry":{"type":"Point","coordinates":[-0.8036184,54.2087968]},"properties":{"name":"Zoo","public_transport":"station","railway":"station","usage":"tourism"}},
{"type":"Feature","geometry":{"type":"Point","coordinates":[-0.8078347,54.2094998]},"properties":{"name":"Plaza","public_transport":"station","railway":"station","usage":"tourism"}},
{"type":"Feature","geometry":{"type":"Point","coordinates":[-0.8080105,54.2071578]},"properties":{"railway":"station","usage":"tourism"}}
]}
