{"type":"FeatureCollection","features":[
{"type":"Feature","geometry":{"type":"Point","coordinates":[-2.3488657,52.4171608]},"properties":{"name":"Arley","usage":"tourism","source":"NPE","railway":"station"}},
{"type":"Feature","geometry":{"type":"Point","coordinates":[-2.3771788,52.4738899]},"properties":{"name":"Hampton Loade","usage":"tourism","source":"NPE","railway":"station","operator":"Severn Valley Railway"}},
{"type":"Feature","geometry":{"type":"Point","coordinates":[-2.3705819,52.444908]},"properties":{"name":"Highley","note":"Name from nearby village","usage":"tourism","source":"NPE","railway":"station","operator":"Severn Valley Railway","wikidata":"Q5759466","public_transport":"station"}},
{"type":"Feature","geometry":{"type":"Point","coordinates":[-2.7159583,52.371071]},"properties":{"name":"Ludlow","source":"NPE","name:cy":"Llwydlo","network":"National Rail","railway":"station","ref:crs":"LUD","operator":"Trafnidiaeth Cymru","wikidata":"Q2237004","platforms":"2","wikipedia":"en:Ludlow railway station","addr:street":"Station Drive","operator:cy":"Trafnidiaeth Cymru","operator:en":"Transport for Wales","naptan:AtcoCode":"9100LUDLOW"}},
{"type":"Feature","geometry":{"type":"Point","coordinates":[-2.4816724,52.6629753]},"properties":{"name":"Horsehay & Dawley","usage":"tourism","railway":"station"}},
{"type":"Feature","geometry":{"type":"Point","coordinates":[-2.3759344,52.4549695]},"properties":{"name":"Country Park Halt","usage":"tourism","railway":"station","operator":"Severn Valley Railway","request_stop":"yes"}},
{"type":"Feature","geometry":{"type":"Point","coordinates":[-2.4176529,52.5341676]},"properties":{"public_transport":"station","railway":"station","usage":"tourism"}},
{"type":"Feature","geometry":{"type":"Point","coordinates":[-2.4825208,52.6628583]},"properties":{"name":"Spring Village","usage":"tourism","railway":"station"}},
{"type":"Feature","geometry":{"type":"Point","coordinates":[-2.4182517,52.5343967]},"properties":{"public_transport":"station","railway":"station","usage":"tourism"}},
{"type":"Feature","geometry":{"type":"Point","coordinates":[-2.7182651,52.8561108]},"properties":{"name":"Wem","source":"Local Knowledge","network":"National Rail","railway":"station","ref:crs":"WEM","operator":"Trafnidiaeth Cymru","wikidata":"Q2557796","platforms":"2","wikipedia":"en:Wem railway station","operator:cy":"Trafnidiaeth Cymru","operator:en":"Transport for Wales","naptan:AtcoCode":"9100WEMM"}},
{"type":"Feature","geometry":{"type":"Point","coordinates":[-2.6716574,52.9682221]},"properties":{"name":"Whitchurch","source":"NPE","name:cy":"Eglwys Wen","network":"National Rail","railway":"station","ref:crs":"WTC","operator":"Trafnidiaeth Cymru","wikidata":"Q1963093","wikipedia":"en:Whitchurch railway station (Shropshire)","operator:cy":"Trafnidiaeth Cymru","operator:en":"Transport for Wales","naptan:AtcoCode":"9100WCHR"}},
{"type":"Feature","geometry":{"type":"Point","coordinates":[-2.6895572,52.8994613]},"properties":{"name":"Prees","source":"NPE","network":"National Rail","railway":"station","ref:crs":"PRS","operator":"Trafnidiaeth Cymru","wikidata":"Q2717690","wikipedia":"en:Prees railway station","operator:cy":"Trafnidiaeth Cymru","operator:en":"Transport for Wales","request_stop":"yes","naptan:AtcoCode":"9100PREES"}},
{"type":"Feature","geometry":{"type":"Point","coordinates":[-3.0496534,52.8618713]},"properties":{"name":"Cambrian Heritage Railway","phone":"+44 1691 688763","usage":"tourism","railway":"station","website":"http://www.cambrianrailways.com"}},
{"type":"Feature","geometry":{"type":"Point","coordinates":[-3.069585,52.7987314]},"properties":{"name":"Penygarreg Lane Halt","usage":"tourism","railway":"station","wikidata":"Q7165406"}},
{"type":"Feature","geometry":{"type":"Point","coordinates":[-3.063948,52.807809]},"properties":{"name":"Llynclys South","usage":"tourism","railway":"station","wikidata":"Q6662943"}},
{"type":"Feature","geometry":{"type":"Point","coordinates":[-2.4207754,52.5305171]},"properties":{"name":"Bridgnorth","operator":"Severn Valley Railway","platforms":"2","public_transport":"station","railway":"station","usage":"tourism","website":"http://www.bridgnorthstation.co.uk/","wikidata":"Q4966910"}},
{"type":"Feature","geometry":{"type":"Point","coordinates":[-2.5167193,52.7014362]},"properties":{"name":"Wellington","network":"National Rail","railway":"station","ref:crs":"WLN","wikidata":"Q1851350","wikipedia":"en:Wellington railway station (Shropshire)","naptan:AtcoCode":"9100WELNGTN"}},
{"type":"Feature","geometry":{"type":"Point","coordinates":[-2.2692217,52.6382256]},"properties":{"name":"Albrighton","network":"National Rail","railway":"station","ref:crs":"ALB","wikidata":"Q2943712","wikipedia":"en:Albrighton railway station","naptan:AtcoCode":"9100ALBRGHT"}},
{"type":"Feature","geometry":{"type":"Point","coordinates":[-2.3006927,52.6448458]},"properties":{"name":"Cosford","network":"National Rail","railway":"station","ref:crs":"COS","wikidata":"Q1945497","wikipedia":"en:Cosford railway station","naptan:AtcoCode":"9100COSFORD"}},
{"type":"Feature","geometry":{"type":"Point","coordinates":[-2.450188,52.6930906]},"properties":{"name":"Oakengates","network":"National Rail","railway":"station","ref:crs":"OKN","wikidata":"Q2384836","wikipedia":"en:Oakengates railway station","naptan:AtcoCode":"9100OAKNGTS"}},
{"type":"Feature","geometry":{"type":"Point","coordinates":[-2.3716887,52.6660075]},"properties":{"name":"Shifnal","network":"National Rail","railway":"station","ref:crs":"SFN","wikidata":"Q1891199","wikipedia":"en:Shifnal railway station","naptan:AtcoCode":"9100SHIFNAL"}},
{"type":"Feature","geometry":{"type":"Point","coordinates":[-2.441178,52.6811135]},"properties":{"name":"Telford Central","network":"National Rail","railway":"station","ref:crs":"TFC","wikipedia":"en:Telford Central railway station","naptan:AtcoCode":"9100TELFRDC","public_transport":"station"}},
{"type":"Feature","geometry":{"type":"Point","coordinates":[-2.8036843,52.5373034]},"properties":{"designation":"Unstaffed","name":"Church Stretton","naptan:AtcoCode":"9100CSTR","network":"National Rail","operator":"Trafnidiaeth Cymru","operator:cy":"Eglwys Wen","operator:en":"Transport for Wales","public_transport":"station","railway":"station","ref:crs":"CTT","start_date":"1914","wikidata":"Q2857475","wikipedia":"en:Church Stretton railway station"}},
{"type":"Feature","geometry":{"type":"Point","coordinates":[-3.0368846,52.8933219]},"properties":{"name":"Gobowen","network":"National Rail","railway":"station","ref:crs":"GOB","wikidata":"Q2929352","wikipedia":"en:Gobowen railway station","naptan:AtcoCode":"9100GOBOWEN","public_transport":"station"}},
{"type":"Feature","geometry":{"type":"Point","coordinates":[-2.4799869,52.6716648]},"properties":{"name":"Lawley Village","usage":"tourism","railway":"station"}},
{"type":"Feature","geometry":{"type":"Point","coordinates":[-2.7494043,52.7118509]},"properties":{"name":"Shrewsbury","name:cy":"Yr Amwythig","network":"National Rail","railway":"station","ref:crs":"SHR","old_name":"Shrewsbury General","operator":"Trafnidiaeth Cymru","wikidata":"Q1911181","wikipedia":"en:Shrewsbury railway station","operator:cy":"Trafnidiaeth Cymru","operator:en":"Transport for Wales","railway:etcs":"2","naptan:AtcoCode":"9100SHRWBY","public_transport":"station"}},
{"type":"Feature","geometry":{"type":"Point","coordinates":[-2.8844798,52.4231159]},"properties":{"name":"Broome","name:cy":"Br≈µm","network":"National Rail","railway":"station","ref:crs":"BME","operator":"Trafnidiaeth Cymru","wikidata":"Q1965763","wikipedia":"en:Broome railway station","operator:cy":"Trafnidiaeth Cymru","operator:en":"Transport for Wales","request_stop":"yes","naptan:AtcoCode":"9100BROOME","public_transport":"station"}},
{"type":"Feature","geometry":{"type":"Point","coordinates":[-2.9119657,52.3915253]},"properties":{"name":"Hopton Heath","network":"National Rail","railway":"station","ref:crs":"HPT","operator":"Trafnidiaeth Cymru","wikidata":"Q2858875","wikipedia":"en:Hopton Heath railway station","operator:cy":"Trafnidiaeth Cymru","operator:en":"Transport for Wales","request_stop":"yes","naptan:AtcoCode":"9100HOPTONH","public_transport":"station"}},
{"type":"Feature","geometry":{"type":"Point","coordinates":[-2.9478389,52.3572552]},"properties":{"name":"Bucknell","network":"National Rail","railway":"station","ref:crs":"BUK","operator":"Trafnidiaeth Cymru","wikidata":"Q1936871","wikipedia":"en:Bucknell railway station","operator:cy":"Trafnidiaeth Cymru","operator:en":"Transport for Wales","request_stop":"yes","naptan:AtcoCode":"9100BKNELL","public_transport":"station"}},
{"type":"Feature","geometry":{"type":"Point","coordinates":[-2.8375532,52.442192]},"properties":{"name":"Craven Arms","network":"National Rail","railway":"station","ref:crs":"CRV","old_name":"Craven Arms and Stokesay","operator":"Trafnidiaeth Cymru","wikidata":"Q2209474","wikipedia":"en:Craven Arms railway station","designation":"Unstaffed","operator:cy":"Trafnidiaeth Cymru","operator:en":"Transport for Wales","naptan:AtcoCode":"9100CRAVENA","public_transport":"station"}},
{"type":"Feature","geometry":{"type":"Point","coordinates":[-2.7363694,52.8090881]},"properties":{"name":"Yorton","source":"NPE","network":"National Rail","railway":"station","ref:crs":"YRT","operator":"Trafnidiaeth Cymru","wikidata":"Q2709911","wikipedia":"en:Yorton railway station","operator:cy":"Trafnidiaeth Cymru","operator:en":"Transport for Wales","request_stop":"yes","naptan:AtcoCode":"9100YORTON"}}
]}
