{"type":"FeatureCollection","features":[
{"type":"Feature","geometry":{"type":"Point","coordinates":[1.1826445,52.0505454]},"properties":{"name":"Derby Road","network":"National Rail","railway":"station","ref:crs":"DBR","wikidata":"Q2353885","wikipedia":"en:Derby Road railway station","start_date":"1877-05-01","naptan:AtcoCode":"9100DERBYRD"}},
{"type":"Feature","geometry":{"type":"Point","coordinates":[1.3498136,51.9670171]},"properties":{"name":"Felixstowe","naptan:AtcoCode":"9100FLXSTOW","network":"National Rail","public_transport":"station","railway":"station","ref:crs":"FLX","wikidata":"Q3247616","wikipedia":"en:Felixstowe railway station"}},
{"type":"Feature","geometry":{"type":"Point","coordinates":[1.1659683,52.0810736]},"properties":{"name":"Westerfield","naptan:AtcoCode":"9100WSTRFLD","network":"National Rail","public_transport":"station","railway":"station","ref:crs":"WFI","start_date":"1859-06-01","wikidata":"Q1815407","wikipedia":"en:Westerfield railway station"}},
{"type":"Feature","geometry":{"type":"Point","coordinates":[1.3194153,51.9766523]},"properties":{"name":"Trimley","network":"National Rail","railway":"station","ref:crs":"TRM","wikidata":"Q2889017","wikipedia":"en:Trimley railway station","ref:stanox":"49138","ref:tiploc":"TRIMLEY","naptan:AtcoCode":"9100TRIMLEY"}},
{"type":"Feature","geometry":{"type":"Point","coordinates":[0.5343584,52.4474224]},"properties":{"name":"Lakenheath","source":"NPE","network":"National Rail","railway":"station","ref:crs":"LAK","wikidata":"Q2579323","wikipedia":"en:Lakenheath railway station","request_stop":"yes","naptan:AtcoCode":"9100LAKNHTH","public_transport":"station"}},
{"type":"Feature","geometry":{"type":"Point","coordinates":[0.7355732,52.0362647]},"properties":{"name":"Sudbury","source":"NPE","network":"National Rail","railway":"station","ref:crs":"SUY","wikidata":"Q2463248","wikipedia":"en:Sudbury railway station","wheelchair":"no","naptan:AtcoCode":"9100SUDBURY","toilets:wheelchair":"no"}},
{"type":"Feature","geometry":{"type":"Point","coordinates":[0.4073491,52.238341]},"properties":{"addr:city":"Newmarket","addr:street":"Green Road","name":"Newmarket","naptan:AtcoCode":"9100NWMKET","network":"National Rail","operator":"Greater Anglia","platforms":"1","railway":"station","ref:crs":"NMK","wikidata":"Q2320175","wikipedia":"en:Newmarket (Suffolk) railway station"}},
{"type":"Feature","geometry":{"type":"Point","coordinates":[1.71568,52.4776868]},"properties":{"name":"Oulton Broad North","source":"NPE","network":"National Rail","railway":"station","ref:crs":"OUN","wikidata":"Q2854239","wikipedia":"en:Oulton Broad North railway station","naptan:AtcoCode":"9100OULTNBN"}},
{"type":"Feature","geometry":{"type":"Point","coordinates":[1.5695831,52.4585329]},"properties":{"name":"Beccles","naptan:AtcoCode":"9100BECCLES","network":"National Rail","public_transport":"station","railway":"station","ref:crs":"BCC","source":"NPE","wikidata":"Q2659206","wikipedia":"en:Beccles railway station"}},
{"type":"Feature","geometry":{"type":"Point","coordinates":[1.7499565,52.4742253]},"properties":{"name":"Lowestoft","naptan:AtcoCode":"9100LOWSTFT","network":"National Rail","old_name":"Lowestoft Central","public_transport":"station","railway":"station","ref:crs":"LWT","wheelchair":"yes","wikidata":"Q2008297","wikipedia":"en:Lowestoft railway station"}},
{"type":"Feature","geometry":{"type":"Point","coordinates":[1.5235658,52.2730379]},"properties":{"name":"Darsham","naptan:AtcoCode":"9100DARSHAM","network":"National Rail","public_transport":"station","railway":"station","ref:crs":"DSM","source":"Bing","train":"yes","wikidata":"Q2998721","wikipedia":"en:Darsham railway station"}},
{"type":"Feature","geometry":{"type":"Point","coordinates":[1.5437655,52.3953783]},"properties":{"name":"Brampton","naptan:AtcoCode":"9100BRAMPTN","network":"National Rail","public_transport":"station","railway":"station","ref:crs":"BRP","request_stop":"yes","wikidata":"Q2599812","wikipedia":"en:Brampton railway station (Suffolk)"}},
{"type":"Feature","geometry":{"type":"Point","coordinates":[1.3381527,52.1043512]},"properties":{"name":"Melton","naptan:AtcoCode":"9100MELTON","network":"National Rail","public_transport":"station","railway":"station","ref:crs":"MES","wikidata":"Q3246752","wikipedia":"en:Melton railway station"}},
{"type":"Feature","geometry":{"type":"Point","coordinates":[1.6521998,52.5101587]},"properties":{"name":"Somerleyton","source":"NPE","network":"National Rail","railway":"station","ref:crs":"SYT","wikidata":"Q1920909","wikipedia":"en:Somerleyton railway station","naptan:AtcoCode":"9100SMRLYTN","public_transport":"station"}},
{"type":"Feature","geometry":{"type":"Point","coordinates":[1.7075546,52.4695423]},"properties":{"name":"Oulton Broad South","naptan:AtcoCode":"9100OULTNBS","network":"National Rail","old_name":"Carlton Colville","public_transport":"station","railway":"station","ref:crs":"OUS","source":"NPE","wikidata":"Q1870239","wikipedia":"en:Oulton Broad South railway station"}},
{"type":"Feature","geometry":{"type":"Point","coordinates":[1.4901155,52.2150638]},"properties":{"name":"Saxmundham","network":"National Rail","railway":"station","ref:crs":"SAX","wikidata":"Q763638","wikipedia":"en:Saxmundham railway station","naptan:AtcoCode":"9100SXMNDHM","public_transport":"station"}},
{"type":"Feature","geometry":{"type":"Point","coordinates":[1.5057452,52.3469592]},"properties":{"name":"Halesworth","naptan:AtcoCode":"9100HALSWTH","network":"National Rail","public_transport":"station","railway":"station","ref:crs":"HAS","wikidata":"Q2406246","wikipedia":"en:Halesworth railway station"}},
{"type":"Feature","geometry":{"type":"Point","coordinates":[1.1173766,52.2503532]},"properties":{"name":"Brockford","usage":"tourism","railway":"station","wikidata":"Q4972790","wikipedia":"en:Brockford and Wetheringsett railway station"}},
{"type":"Feature","geometry":{"type":"Point","coordinates":[1.1041577,52.1184196]},"properties":{"usage":"tourism","source":"OS OpenData StreetView","railway":"station"}},
{"type":"Feature","geometry":{"type":"Point","coordinates":[1.1447878,52.0504188]},"properties":{"addr:city":"Ipswich","addr:housename":"Ipswich Station","addr:postcode":"IP2 8AL","addr:street":"Burrell Road","name":"Ipswich","naptan:AtcoCode":"9100IPSWICH","network":"National Rail","operator":"Greater Anglia","public_transport":"station","railway":"station","ref:crs":"IPS","train":"yes","wikidata":"Q2003305","wikipedia":"en:Ipswich railway station"}},
{"type":"Feature","geometry":{"type":"Point","coordinates":[0.412795,52.4302453]},"properties":{"name":"Shippea Hill","source":"NPE","network":"National Rail","railway":"station","ref:crs":"SPP","old_name":"Mildenhall Road","operator":"Greater Anglia","wikidata":"Q1822505","wikipedia":"en:Shippea Hill railway station","request_stop":"yes","naptan:AtcoCode":"9100SPHL","public_transport":"station"}},
{"type":"Feature","geometry":{"type":"Point","coordinates":[0.7125888,52.2536353]},"properties":{"name":"Bury St Edmunds","erected":"1847","name:lt":"Beri Sent Edmundsas","network":"National Rail","railway":"station","ref:crs":"BSE","operator":"National Express East Anglia","wikidata":"Q3243921","wikipedia":"en:Bury St Edmunds railway station","source:ref":"ATOC","naptan:AtcoCode":"9100BSTEDMS"}},
{"type":"Feature","geometry":{"type":"Point","coordinates":[0.9125333,52.2381588]},"properties":{"name":"Elmswell","network":"National Rail","railway":"station","ref:crs":"ESW","operator":"Greater Anglia","wikidata":"Q2980360","wikipedia":"en:Elmswell railway station","wheelchair":"yes","internet_access":"no","naptan:AtcoCode":"9100ELMSWEL","public_transport":"station"}},
{"type":"Feature","geometry":{"type":"Point","coordinates":[0.8086544,52.2499275]},"properties":{"name":"Thurston","source":"NPE","network":"National Rail","railway":"station","ref:crs":"TRS","wikidata":"Q2384368","wikipedia":"en:Thurston railway station","naptan:AtcoCode":"9100THUSTON"}},
{"type":"Feature","geometry":{"type":"Point","coordinates":[1.0555379,52.1526149]},"properties":{"name":"Needham Market","source":"NPE","network":"National Rail","railway":"station","ref:crs":"NMT","wikidata":"Q2526515","wikipedia":"en:Needham Market railway station","naptan:AtcoCode":"9100NEEDHAM","public_transport":"station"}},
{"type":"Feature","geometry":{"type":"Point","coordinates":[1.000257,52.1897991]},"properties":{"name":"Stowmarket","phone":"+44 800 028 28 78","source":"http://www.nationalrail.co.uk/stations/SMK/details.html","network":"National Rail","railway":"station","ref:crs":"SMK","wikidata":"Q2618103","wikipedia":"en:Stowmarket railway station","wheelchair":"limited","naptan:AtcoCode":"9100STWMRKT","public_transport":"station"}},
{"type":"Feature","geometry":{"type":"Point","coordinates":[1.1228264,52.2502347]},"properties":{"name":"Dovebrook","usage":"tourism","railway":"station","public_transport":"station"}},
{"type":"Feature","geometry":{"type":"Point","coordinates":[1.3986272,52.1510336]},"properties":{"name":"Wickham Market","naptan:AtcoCode":"9100WCKHMMR","network":"National Rail","public_transport":"station","railway":"station","ref:crs":"WCM","wikidata":"Q3043489","wikipedia":"en:Wickham Market railway station"}},
{"type":"Feature","geometry":{"type":"Point","coordinates":[1.3178856,52.0902961]},"properties":{"name":"Woodbridge","naptan:AtcoCode":"9100WODBDGE","network":"National Rail","public_transport":"station","railway":"station","ref:crs":"WDB","wikidata":"Q3246749","wikipedia":"en:Woodbridge railway station"}}
]}
