{"type":"FeatureCollection","features":[
{"type":"Feature","geometry":{"type":"Point","coordinates":[-0.4143441,51.3729077]},"properties":{"name":"Walton-on-Thames","network":"National Rail","railway":"station","ref:crs":"WAL","operator":"South Western Railway","wikidata":"Q2183741","wikipedia":"en:Walton-on-Thames railway station","naptan:AtcoCode":"9100WONT","public_transport":"station"}},
{"type":"Feature","geometry":{"type":"Point","coordinates":[-0.4422487,51.2192418]},"properties":{"name":"Gomshall","naptan:AtcoCode":"9100GOMSHAL","network":"National Rail","public_transport":"station","railway":"station","ref:crs":"GOM","wikidata":"Q3199982","wikipedia":"en:Gomshall railway station"}},
{"type":"Feature","geometry":{"type":"Point","coordinates":[-0.2038369,51.2418815]},"properties":{"addr:city":"Reigate","addr:postcode":"RH2 0BD","name":"Reigate","naptan:AtcoCode":"9100REIGATE","network":"National Rail","postcode":"RH2 0BD","public_transport":"station","railway":"station","ref:crs":"REI","toilets:wheelchair":"yes","website":"http://www.nationalrail.co.uk/stations-and-destinations/stations-made-easy/reigate-station-plan","wheelchair":"yes","wheelchair:description":"Platform 1 for Gatwick: Step free via side gate to ticket office & WC, Platform 2 for Reading & London step free, Blue Badge Bays nearby. Hearing Loop in Booking Office. Uneven \"Step-free\" to town is across rail tracks. Subway has steps.","wikidata":"Q628747","wikipedia":"en:Reigate railway station"}},
{"type":"Feature","geometry":{"type":"Point","coordinates":[-0.339152,51.3890554]},"properties":{"name":"Thames Ditton","network":"National Rail","railway":"station","ref:crs":"THD","website":"https://www.nationalrail.co.uk/stations/THD/details.html","operator":"South Western Railway","wikidata":"Q2476102","addr:city":"Thames Ditton","wikipedia":"en:Thames Ditton railway station","addr:street":"Station Road","baby_feeding":"no","addr:postcode":"KT7 0PA","internet_access":"no","naptan:AtcoCode":"9100TDITTON","public_transport":"station","wikimedia_commons":"https://commons.wikimedia.org/wiki/File:Thames_Ditton_stn_look_north2.JPG"}},
{"type":"Feature","geometry":{"type":"Point","coordinates":[-0.1540561,51.3189347]},"properties":{"name":"Woodmansterne","network":"National Rail","railway":"station","ref:crs":"WME","wikidata":"Q2737664","wikipedia":"en:Woodmansterne railway station","naptan:AtcoCode":"9100WDMNSTR","public_transport":"station"}},
{"type":"Feature","geometry":{"type":"Point","coordinates":[-0.2110128,51.2947257]},"properties":{"name":"Kingswood","network":"National Rail","railway":"station","ref:crs":"KND","wikidata":"Q2192379","wikipedia":"en:Kingswood railway station","naptan:AtcoCode":"9100KGWD","public_transport":"station"}},
{"type":"Feature","geometry":{"type":"Point","coordinates":[-0.7217326,51.2962035]},"properties":{"name":"Frimley Lodge Miniature Railway","usage":"tourism","railway":"station","wheelchair":"limited"}},
{"type":"Feature","geometry":{"type":"Point","coordinates":[-0.7124293,51.2495324]},"properties":{"name":"Ash","naptan:AtcoCode":"9100ASHH","network":"National Rail","operator":"South West Trains","public_transport":"station","railway":"station","ref:crs":"ASH","wikidata":"Q2102056","wikipedia":"en:Ash railway station"}},
{"type":"Feature","geometry":{"type":"Point","coordinates":[-0.6676084,51.244622]},"properties":{"name":"Wanborough","naptan:AtcoCode":"9100WANBRO","network":"National Rail","operator":"South Western Railway","public_transport":"station","railway":"station","ref:crs":"WAN","wikidata":"Q372011","wikipedia":"en:Wanborough railway station"}},
{"type":"Feature","geometry":{"type":"Point","coordinates":[-0.5621185,51.4014748]},"properties":{"name":"Virginia Water","source":"Surrey aerial","network":"National Rail","railway":"station","ref:crs":"VIR","wikidata":"Q976686","wikipedia":"en:Virginia Water railway station","naptan:AtcoCode":"9100VRGNWTR","public_transport":"station"}},
{"type":"Feature","geometry":{"type":"Point","coordinates":[-0.1609516,51.1687913]},"properties":{"addr:city":"Horley","addr:postcode":"RH6 7NL","addr:street":"Victoria Road","name":"Horley","naptan:AtcoCode":"9100HORLEY","network":"National Rail","public_transport":"station","railway":"station","ref:crs":"HOR","toilets:wheelchair":"yes","wheelchair":"yes","wheelchair:description":"Accessible WC in ticket office on Victoria Road, also step-free to Bus Stops A & B. (upper level). Lifts to all platforms. Step-free entrance to platform 1 from car park.","wikidata":"Q673580","wikipedia":"en:Horley railway station"}},
{"type":"Feature","geometry":{"type":"Point","coordinates":[-0.1622843,51.2017863]},"properties":{"addr:city":"Redhill","addr:district":"Salfords","addr:postcode":"RH1 5DE","addr:street":"Southern Avenue","name":"Salfords","naptan:AtcoCode":"9100SALFDS","network":"National Rail","public_transport":"station","railway":"station","ref:crs":"SAF","toilets:wheelchair":"no","website":"www.nationalrail.co.uk/stations-and-destinations/stations-made-easy/salfords-surrey-station-plan","wheelchair":"limited","wheelchair:description":"Only Northbound platform 1 has step free access. Southbound platform 2 via bridge. Blue Badge space by station entrance. WC on platform 1 not checked as it was locked (June 2018)","wikidata":"Q2282929","wikipedia":"en:Salfords railway station"}},
{"type":"Feature","geometry":{"type":"Point","coordinates":[-0.1709022,51.2274606]},"properties":{"addr:city":"Earlswood","addr:street":"Station Approach West","name":"Earlswood","naptan:AtcoCode":"9100EARLSWD","network":"National Rail","postal_code":"RH1 5DE","public_transport":"station","railway":"station","ref:crs":"ELD","source":"NPE","wheelchair":"limited","wheelchair:description":"Step-free to northbound platform only. No barriers. Stairs and subway to southbound. (WC not checked today) one Blue Badge space and dipped kerb opposite entrances.","wikidata":"Q772070","wikipedia":"en:Earlswood railway station (Surrey)"}},
{"type":"Feature","geometry":{"type":"Point","coordinates":[-0.1693688,51.3093522]},"properties":{"name":"Chipstead","network":"National Rail","railway":"station","ref:crs":"CHP","wikidata":"Q2033523","wikipedia":"en:Chipstead railway station","naptan:AtcoCode":"9100CHSD","public_transport":"station"}},
{"type":"Feature","geometry":{"type":"Point","coordinates":[-0.4094874,51.4210039]},"properties":{"name":"Kempton Park","network":"National Rail","railway":"station","ref:crs":"KMP","operator":"South Western Railway","wikidata":"Q2297981","wikipedia":"en:Kempton Park railway station","postal_code":"TW16 5AE","naptan:AtcoCode":"9100KMPTNPK","public_transport":"station"}},
{"type":"Feature","geometry":{"type":"Point","coordinates":[-0.4174088,51.4182813]},"properties":{"name":"Sunbury","network":"National Rail","railway":"station","ref:crs":"SUU","operator":"South Western Railway","wikidata":"Q2266833","wikipedia":"en:Sunbury (Surrey) railway station","source:name":"local knowledge","naptan:AtcoCode":"9100SUNBURY","public_transport":"station"}},
{"type":"Feature","geometry":{"type":"Point","coordinates":[-0.4307971,51.4132081]},"properties":{"name":"Upper Halliford","source":"OS_OpenData_VectorMapDistrict","network":"National Rail","railway":"station","ref:crs":"UPH","operator":"South Western Railway","wikidata":"Q2164311","wikipedia":"en:Upper Halliford railway station","naptan:AtcoCode":"9100UHALIFD","public_transport":"station"}},
{"type":"Feature","geometry":{"type":"Point","coordinates":[-0.4469133,51.3968972]},"properties":{"name":"Shepperton","source":"OS_OpenData_VectorMapDistrict","network":"National Rail","railway":"station","ref:crs":"SHP","operator":"South Western Railway","wikidata":"Q3246626","wikipedia":"en:Shepperton railway station","naptan:AtcoCode":"9100SHEPRTN","public_transport":"station"}},
{"type":"Feature","geometry":{"type":"Point","coordinates":[-0.3406341,51.3750646]},"properties":{"name":"Hinchley Wood","network":"National Rail","railway":"station","ref:crs":"HYW","wikidata":"Q2065274","wikipedia":"en:Hinchley Wood railway station","naptan:AtcoCode":"9100HNCHLYW","public_transport":"station"}},
{"type":"Feature","geometry":{"type":"Point","coordinates":[-0.3398503,51.2363548]},"properties":{"name":"Dorking West","network":"National Rail","railway":"station","ref:crs":"DKT","wikidata":"Q2456082","wikipedia":"en:Dorking West railway station","wheelchair":"limited","postal_code":"RH4 5EE","naptan:AtcoCode":"9100DRKGW","public_transport":"station"}},
{"type":"Feature","geometry":{"type":"Point","coordinates":[-0.150065,51.2641687]},"properties":{"name":"Merstham","network":"National Rail","railway":"station","ref:crs":"MHM","wikidata":"Q369575","addr:city":"Merstham","wikipedia":"en:Merstham railway station","wheelchair":"limited","postal_code":"RH1 3ED","naptan:AtcoCode":"9100MERSTHM","public_transport":"station","toilets:wheelchair":"no","wheelchair:description":"No access from Platform 1, Booking office and car park to Platform 2 (towards Gatwick and coast). Train ramp NOT available all day. Loop not working (3/16)"}},
{"type":"Feature","geometry":{"type":"Point","coordinates":[-0.5250129,51.2151195]},"properties":{"name":"Chilworth","source":"Visit","network":"National Rail","railway":"station","ref:crs":"CHL","operator":"First Great Western","wikidata":"Q2295135","platforms":"2","wikipedia":"en:Chilworth railway station","naptan:AtcoCode":"9100CHLWTH","public_transport":"station"}},
{"type":"Feature","geometry":{"type":"Point","coordinates":[-0.566879,51.2143603]},"properties":{"name":"Shalford","network":"National Rail","railway":"station","ref:crs":"SFR","wikidata":"Q2476216","platforms":"2","wikipedia":"en:Shalford railway station","postal_code":"GU4 2WS","naptan:AtcoCode":"9100SHALFD","public_transport":"station"}},
{"type":"Feature","geometry":{"type":"Point","coordinates":[-0.3532042,51.3800529]},"properties":{"name":"Esher","network":"National Rail","railway":"station","ref:crs":"ESH","operator":"South Western Railway","wikidata":"Q1876878","wikipedia":"en:Esher railway station","source:name":"local knowledge","naptan:AtcoCode":"9100ESHER","public_transport":"station"}},
{"type":"Feature","geometry":{"type":"Point","coordinates":[-0.7924218,51.2118094]},"properties":{"addr:city":"Farnham","addr:street":"Station Hill","name":"Farnham","name:lt":"Farnamas","naptan:AtcoCode":"9100FARNHAM","network":"National Rail","operator":"South Western Railway","public_transport":"station","railway":"station","ref:crs":"FNH","toilets:wheelchair":"no","website":"http://www.nationalrail.co.uk/stations/FNH/details.html","wheelchair":"limited","wheelchair:description":"Step-free to London trains via steep slope & side \"gate\". Route from opposite platform across uneven level crossing. Step-free to bus stops. Narrow \"accessible\" Toilet","wikidata":"Q2178927","wikipedia":"en:Farnham railway station"}},
{"type":"Feature","geometry":{"type":"Point","coordinates":[-0.5950836,51.385277]},"properties":{"name":"Longcross","naptan:AtcoCode":"9100LNGCROS","network":"National Rail","old_name":"Longcross Halt","public_transport":"station","railway":"station","ref:crs":"LNG","wikidata":"Q1925371","wikipedia":"en:Longcross railway station"}},
{"type":"Feature","geometry":{"type":"Point","coordinates":[-0.0068029,51.1761001]},"properties":{"name":"Lingfield","naptan:AtcoCode":"9100LINGFLD","network":"National Rail","network:train":"National Rail","operator":"Southern","postal_code":"RH7 6EF","public_transport":"station","railway":"station","ref:crs":"LFD","source":"npe","wheelchair":"limited","wikidata":"Q743644","wikipedia":"en:Lingfield railway station"}},
{"type":"Feature","geometry":{"type":"Point","coordinates":[-0.4200382,51.2912891]},"properties":{"name":"Effingham Junction","network":"National Rail","railway":"station","ref:crs":"EFF","operator":"South Western Railway","wikidata":"Q2164410","wikipedia":"en:Effingham Junction railway station","naptan:AtcoCode":"9100EFNGHMJ","public_transport":"station"}},
{"type":"Feature","geometry":{"type":"Point","coordinates":[-0.2674721,51.247941]},"properties":{"addr:city":"Betchworth","addr:postcode":"RH3 7BZ","addr:street":"Pebblehill Road","name":"Betchworth","naptan:AtcoCode":"9100BTCHWTH","network":"National Rail","postcode":"RH3 7BZ","public_transport":"station","railway":"station","ref:crs":"BTO","toilets:wheelchair":"no","website":"http://www.nationalrail.co.uk/stations/BTO/details.html","wheelchair":"limited","wheelchair:description":"Unstaffed station, ramps available for use by train crew. Steep ramps up onto platforms both sides. Gate to Gatwick trains easy to open. Nearby road has no footway.","wikidata":"Q2041117","wikipedia":"en:Betchworth railway station"}},
{"type":"Feature","geometry":{"type":"Point","coordinates":[-0.5573085,51.3184492]},"properties":{"name":"Woking","network":"National Rail","railway":"station","ref:crs":"WOK","wikidata":"Q2119774","addr:city":"Woking","wikipedia":"en:Woking railway station","wheelchair":"yes","naptan:AtcoCode":"9100WOKING","public_transport":"station","toilets:wheelchair":"yes","wheelchair:description":"Lifts at west end footbridge. Accessible toilets on platforms 3/4 & 5 (1/2 not checked for toilet). Some dedicated Blue Badge spaces near south entrance."}},
{"type":"Feature","geometry":{"type":"Point","coordinates":[-0.5055065,51.3395197]},"properties":{"name":"West Byfleet","network":"National Rail","railway":"station","ref:crs":"WBY","wikidata":"Q13528644","wikipedia":"en:West Byfleet railway station","phonetic:en":"w…õst bajflit","naptan:AtcoCode":"9100WBYFLET","public_transport":"station"}},
{"type":"Feature","geometry":{"type":"Point","coordinates":[-0.3241359,51.2411653]},"properties":{"name":"Dorking","network":"National Rail","railway":"station","ref:crs":"DKG","website":"http://www.nationalrail.co.uk/stations/DKG/details.html","operator":"Southern","wikidata":"Q1914125","addr:city":"Dorking","wikipedia":"en:Dorking railway station","ref:stanox":"87687","wheelchair":"yes","addr:street":"Station Approach","postal_code":"RH4 1TF","naptan:AtcoCode":"9100DORKING","public_transport":"station","wheelchair:description":"Automatic sliding doors from street to ticket hall & platform 1. Lift to bridge for terminal platforms 2 & 3. Manual ramps. Toilets not yet checked."}},
{"type":"Feature","geometry":{"type":"Point","coordinates":[-0.3073912,51.3179225]},"properties":{"name":"Ashtead","network":"National Rail","railway":"station","ref:crs":"AHD","wikidata":"Q4805961","wikipedia":"en:Ashtead railway station","ref:stanox":"87683","postal_code":"KT21 2DR","naptan:AtcoCode":"9100ASHD","public_transport":"station"}},
{"type":"Feature","geometry":{"type":"Point","coordinates":[-0.3894128,51.3179185]},"properties":{"name":"Cobham & Stoke d'Abernon","network":"National Rail","railway":"station","ref:crs":"CSD","operator":"South Western Railway","wikidata":"Q5138880","wikipedia":"en:Cobham & Stoke d'Abernon railway station","naptan:AtcoCode":"9100CBHMSDA","public_transport":"station"}},
{"type":"Feature","geometry":{"type":"Point","coordinates":[-0.324151,51.2388475]},"properties":{"name":"Dorking Deepdene","network":"National Rail","railway":"station","ref:crs":"DPD","wikidata":"Q2343042","addr:city":"Dorking","wikipedia":"en:Dorking Deepdene railway station","ref:stanox":"87086","wheelchair":"no","postal_code":"RH4 7TY","naptan:AtcoCode":"9100DEPDENE","public_transport":"station","toilets:wheelchair":"no","wheelchair:description":"Unstaffed. Long flights of steps from both platforms to Road for interchange with Dorking North station."}},
{"type":"Feature","geometry":{"type":"Point","coordinates":[-0.165577,51.2400546]},"properties":{"name":"Redhill","network":"National Rail","railway":"station","ref:crs":"RDH","operator":"Southern","wikidata":"Q2383756","addr:city":"Redhill","wikipedia":"en:Redhill railway station","wheelchair":"yes","addr:street":"Station Road","postal_code":"RH1 1RB","naptan:AtcoCode":"9100REDHILL","public_transport":"station","toilets:wheelchair":"yes","wheelchair:description":"Blue Badge spaces (2). Ramps to ticket office and tactile map of station. Lifts to all platforms. Accessible toilet (RADAR KEY) on Platform 3. Defibrillator in subway by lift to platforms 1+2."}},
{"type":"Feature","geometry":{"type":"Point","coordinates":[-0.2388278,51.323925]},"properties":{"addr:street":"Bunbury Way","name":"Epsom Downs","naptan:AtcoCode":"9100EPSDNS","network":"National Rail","operator":"Southern","public_transport":"station","railway":"station","ref:crs":"EPD","wikidata":"Q2576134","wikipedia":"en:Epsom Downs railway station"}},
{"type":"Feature","geometry":{"type":"Point","coordinates":[-0.48122,51.3496809]},"properties":{"name":"Byfleet and New Haw","train":"yes","network":"National Rail","railway":"station","ref:crs":"BFN","operator":"South Western Railway","wikidata":"Q2718174","wikipedia":"en:Byfleet & New Haw railway station","naptan:AtcoCode":"9100BYFLANH","public_transport":"station"}},
{"type":"Feature","geometry":{"type":"Point","coordinates":[-0.4580837,51.3614381]},"properties":{"name":"Weybridge","network":"National Rail","railway":"station","ref:crs":"WYB","operator":"South Western Railway","wikidata":"Q2842764","platforms":"3","wikipedia":"en:Weybridge railway station","naptan:AtcoCode":"9100WEYBDGE","public_transport":"station"}},
{"type":"Feature","geometry":{"type":"Point","coordinates":[-0.6043565,51.1971377]},"properties":{"name":"Farncombe","naptan:AtcoCode":"9100FRNCMB","network":"National Rail","operator":"South West Trains","platforms":"2","postal_code":"GU7 3NF","public_transport":"station","railway":"station","ref:crs":"FNC","source":"NPE tracing","wikidata":"Q5435985","wikipedia":"en:Farncombe railway station"}},
{"type":"Feature","geometry":{"type":"Point","coordinates":[-0.6189149,51.1865358]},"properties":{"name":"Godalming","naptan:AtcoCode":"9100GDLMING","network":"National Rail","postal_code":"GU7 1EU","public_transport":"station","railway":"station","ref:crs":"GOD","source":"NPE","wikidata":"Q3053175","wikipedia":"en:Godalming railway station"}},
{"type":"Feature","geometry":{"type":"Point","coordinates":[-0.3625418,51.3361004]},"properties":{"name":"Oxshott","source":"OS_OpenData_VectorMapDistrict","network":"National Rail","railway":"station","ref:crs":"OXS","operator":"South Western Railway","wikidata":"Q1924201","wikipedia":"en:Oxshott railway station","naptan:AtcoCode":"9100OXSHOTT","public_transport":"station"}},
{"type":"Feature","geometry":{"type":"Point","coordinates":[-0.3484109,51.3610578]},"properties":{"name":"Claygate","train":"yes","source":"OS_OpenData_VectorMapDistrict","network":"National Rail","railway":"station","ref:crs":"CLG","wikidata":"Q1937264","wikipedia":"en:Claygate railway station","naptan:AtcoCode":"9100CLYGATE","public_transport":"station"}},
{"type":"Feature","geometry":{"type":"Point","coordinates":[-0.3286777,51.2539847]},"properties":{"name":"Box Hill & Westhumble","network":"National Rail","railway":"station","ref:crs":"BXW","wikidata":"Q4951526","wikipedia":"en:Box Hill & Westhumble railway station","ref:stanox":"87686","wheelchair":"limited","addr:street":"Westhumble Street","postal_code":"RH5 6BT","naptan:AtcoCode":"9100BOXHAWH","public_transport":"station","wheelchair:description":"Unstaffed station. Step-free to southbound Platform 2. Footbridge only access to northbound Platform 1 towards London. One Dedicated Blue Badge space in free parking area."}},
{"type":"Feature","geometry":{"type":"Point","coordinates":[-0.3425203,51.4020159]},"properties":{"name":"Hampton Court","network":"National Rail","railway":"station","ref:crs":"HMC","website":"https://www.nationalrail.co.uk/stations/THD/details.html","operator":"South Western Railway","wikidata":"Q2313444","addr:city":"East Molesey","wikipedia":"en:Hampton Court railway station","wheelchair":"yes","addr:street":"Hampton Court Way","baby_feeding":"no","addr:postcode":"KT8 9AE","internet_access":"wlan","naptan:AtcoCode":"9100HCRT","public_transport":"station","wikimedia_commons":"https://commons.wikimedia.org/wiki/File:Hampton_Court_railway_station_14.jpg","wheelchair:description":"Step-free between platforms & to Hampton Court via east side of bridge. Nearest controlled crossing by station entrance NOT step-free. WC not checked today."}},
{"type":"Feature","geometry":{"type":"Point","coordinates":[-0.2358629,51.2914245]},"properties":{"name":"Tadworth","network":"National Rail","railway":"station","ref:crs":"TAD","wikidata":"Q2516420","wikipedia":"en:Tadworth railway station","naptan:AtcoCode":"9100TADWTH","public_transport":"station"}},
{"type":"Feature","geometry":{"type":"Point","coordinates":[-0.0783882,51.2822065]},"properties":{"name":"Caterham","network":"National Rail","railway":"station","ref:crs":"CAT","wikidata":"Q2581686","wikipedia":"en:Caterham railway station","naptan:AtcoCode":"9100CATERHM","public_transport":"station"}},
{"type":"Feature","geometry":{"type":"Point","coordinates":[-0.0772314,51.3037508]},"properties":{"name":"Whyteleafe South","network":"National Rail","railway":"station","ref:crs":"WHS","wikidata":"Q2674703","wikipedia":"en:Whyteleafe South railway station","postal_code":"CR3 0BD","naptan:AtcoCode":"9100WHYTLFS","public_transport":"station"}},
{"type":"Feature","geometry":{"type":"Point","coordinates":[-0.0810163,51.3099209]},"properties":{"name":"Whyteleafe","network":"National Rail","railway":"station","ref:crs":"WHY","wikidata":"Q2790454","wikipedia":"en:Whyteleafe railway station","postal_code":"CR3 0AD","naptan:AtcoCode":"9100WHYTELF","public_transport":"station"}},
{"type":"Feature","geometry":{"type":"Point","coordinates":[-0.0778344,51.3085512]},"properties":{"name":"Upper Warlingham","naptan:AtcoCode":"9100UWRLNGH","network":"National Rail","network:train":"National Rail","operator":"Southern","postal_code":"CR3 0EP","public_transport":"station","railway":"station","ref:crs":"UWL","wikidata":"Q2326673","wikipedia":"en:Upper Warlingham railway station"}},
{"type":"Feature","geometry":{"type":"Point","coordinates":[-0.0516667,51.2896975]},"properties":{"name":"Woldingham","naptan:AtcoCode":"9100WLDNGHM","network":"National Rail","network:train":"National Rail","operator":"Southern","postal_code":"CR3 7LT","public_transport":"station","railway":"station","ref:crs":"WOH","wikidata":"Q2043333","wikipedia":"en:Woldingham railway station"}},
{"type":"Feature","geometry":{"type":"Point","coordinates":[-0.77289,51.1822944]},"properties":{"name":"Reeds Road","usage":"tourism","railway":"station","operator":"OKLR"}},
{"type":"Feature","geometry":{"type":"Point","coordinates":[-0.7746116,51.1836582]},"properties":{"name":"Old Kiln Halt","usage":"tourism","railway":"station","operator":"OKLR","wikidata":"Q12064739"}},
{"type":"Feature","geometry":{"type":"Point","coordinates":[-0.7741221,51.184318]},"properties":{"name":"Oatlands","usage":"tourism","railway":"station","operator":"OKLR","public_transport":"station"}},
{"type":"Feature","geometry":{"type":"Point","coordinates":[-0.3838753,51.2888353]},"properties":{"name":"Bookham","naptan:AtcoCode":"9100BOOKHAM","network":"National Rail","network:train":"National Rail","operator":"South Western Railway","public_transport":"station","railway":"station","ref:crs":"BKA","source":"Landsat","wikidata":"Q2833951","wikipedia":"en:Bookham railway station"}},
{"type":"Feature","geometry":{"type":"Point","coordinates":[-0.6359925,51.3035819]},"properties":{"name":"Brookwood","network":"National Rail","railway":"station","ref:crs":"BKO","wikidata":"Q2184630","wikipedia":"en:Brookwood railway station","wheelchair":"limited","naptan:AtcoCode":"9100BRKWOOD","public_transport":"station"}},
{"type":"Feature","geometry":{"type":"Point","coordinates":[-0.3895797,51.3769063]},"properties":{"name":"Hersham","network":"National Rail","railway":"station","ref:crs":"HER","operator":"South Western Railway","wikidata":"Q13528629","wikipedia":"en:Hersham railway station","naptan:AtcoCode":"9100HERSHAM","public_transport":"station"}},
{"type":"Feature","geometry":{"type":"Point","coordinates":[-0.2479641,51.3638988]},"properties":{"addr:city":"Epsom and Ewell","addr:postcode":"KT17 2HU","addr:street":"Station Approach","name":"Stoneleigh","naptan:AtcoCode":"National Rail","network":"National Rail","operator":"Southern Western Railway","postal_code":"KT17 2JA","public_transport":"station","railway":"station","ref:crs":"SNL","ref:stanox":"87303","train":"yes","wheelchair":"no","wikidata":"Q4596714","wikipedia":"en:Stoneleigh railway station"}},
{"type":"Feature","geometry":{"type":"Point","coordinates":[-0.3330413,51.2991137]},"properties":{"name":"Leatherhead","network":"National Rail","railway":"station","ref:crs":"LHD","operator":"Southern","wikidata":"Q2309556","addr:city":"Leatherhead","wikipedia":"en:Leatherhead railway station","ref:stanox":"87685","wheelchair":"limited","postal_code":"KT22 7SQ","naptan:AtcoCode":"9100LETHRHD","public_transport":"station","toilets:wheelchair":"yes","wheelchair:description":"Ramp to Booking Office entrance west side, for London, manual doors. Accessible toilet (key). Long roadside ramps to east side platform. Hearing Loop."}},
{"type":"Feature","geometry":{"type":"Point","coordinates":[-0.4352969,51.2795154]},"properties":{"name":"Horsley","source":"Landsat","network":"National Rail","railway":"station","ref:crs":"HSY","wikidata":"Q2069708","wikipedia":"en:Horsley railway station","naptan:AtcoCode":"9100HRSLEY","public_transport":"station"}},
{"type":"Feature","geometry":{"type":"Point","coordinates":[-0.5028629,51.2640346]},"properties":{"name":"Clandon","network":"National Rail","railway":"station","ref:crs":"CLA","operator":"South Western Railway","wikidata":"Q2930928","wikipedia":"en:Clandon railway station","source:name":"OS_OpenData_VectorMapDistrict","naptan:AtcoCode":"9100CLANDON","public_transport":"station"}},
{"type":"Feature","geometry":{"type":"Point","coordinates":[-0.565161,51.2407385]},"properties":{"name":"London Road (Guildford)","network":"National Rail","railway":"station","ref:crs":"LRD","operator":"South Western Railway","wikidata":"Q1831712","platforms":"2","wikipedia":"en:London Road (Guildford) railway station","wheelchair":"no","postal_code":"GU1 4DQ","naptan:AtcoCode":"9100LRDGFD","public_transport":"station"}},
{"type":"Feature","geometry":{"type":"Point","coordinates":[-0.5811391,51.2372003]},"properties":{"name":"Guildford","name:lt":"Gilfordas","network":"National Rail","railway":"station","ref:crs":"GLD","website":"http://www.nationalrail.co.uk/stations-and-destinations/stations-made-easy/guildford-station-plan","alt_name":"Guildford Station","old_name":"Guildford Rail Station","operator":"Network Rail","wikidata":"Q604078","addr:city":"Guildford","platforms":"8","wikipedia":"en:Guildford railway station","wheelchair":"yes","addr:street":"Station Approach","source:name":"Local knowledge","addr:postcode":"GU1 4UT","naptan:AtcoCode":"9100GUILDFD","public_transport":"station","toilets:wheelchair":"yes","wheelchair:description":"NOT Step-free from west side. One low counter at booking office, but seen shut on several visits. Ramped route to all platforms. Accessible toilet on platform 2B, near ramp."}},
{"type":"Feature","geometry":{"type":"Point","coordinates":[-0.2412882,51.3452926]},"properties":{"name":"Ewell East","network":"National Rail","railway":"station","ref:crs":"EWE","wikidata":"Q2618113","wikipedia":"en:Ewell East railway station","ref:stanox":"87679","source_ref":"http://en.wikipedia.org/wiki/List_of_London_railway_stations","postal_code":"KT17 1QR","naptan:AtcoCode":"9100EWELLE","public_transport":"station"}},
{"type":"Feature","geometry":{"type":"Point","coordinates":[-0.320874,51.1811282]},"properties":{"name":"Holmwood","source":"Landsat photo","network":"National Rail","railway":"station","ref:crs":"HLM","wikidata":"Q2049680","wikipedia":"en:Holmwood railway station","naptan:AtcoCode":"9100HLMW","public_transport":"station"}},
{"type":"Feature","geometry":{"type":"Point","coordinates":[-0.3361686,51.1515691]},"properties":{"name":"Ockley","network":"National Rail","railway":"station","ref:crs":"OLY","operator":"Southern","wikidata":"Q4490156","wikipedia":"en:Ockley railway station","naptan:AtcoCode":"9100OCKLYAC","public_transport":"station"}},
{"type":"Feature","geometry":{"type":"Point","coordinates":[0.0042319,51.2442817]},"properties":{"name":"Hurst Green","naptan:AtcoCode":"9100HRSTGRN","network":"National Rail","network:train":"National Rail","operator":"Southern","postal_code":"RH8 0LL","public_transport":"station","railway":"station","ref:crs":"HUR","wheelchair":"limited","wikidata":"Q2798051","wikipedia":"en:Hurst Green railway station"}},
{"type":"Feature","geometry":{"type":"Point","coordinates":[-0.0045745,51.2578327]},"properties":{"name":"Oxted","naptan:AtcoCode":"9100OXTED","network":"National Rail","network:train":"National Rail","operator":"Southern","postal_code":"RH8 9EU","public_transport":"station","railway":"station","ref:crs":"OXT","wheelchair":"yes","wikidata":"Q2601068","wikipedia":"en:Oxted railway station"}},
{"type":"Feature","geometry":{"type":"Point","coordinates":[-0.0042265,51.1558675]},"properties":{"addr:postcode":"RH7 6NL","name":"Dormans","naptan:AtcoCode":"9100DORMANS","network":"National Rail","network:train":"National Rail","operator":"Southern","public_transport":"station","railway":"station","ref:crs":"DMS","wikidata":"Q2626558","wikipedia":"en:Dormans railway station"}},
{"type":"Feature","geometry":{"type":"Point","coordinates":[-0.7216468,51.2723368]},"properties":{"name":"Ash Vale","naptan:AtcoCode":"9100ASHVALE","network":"National Rail","operator":"South Western Railway","public_transport":"station","railway":"station","ref:crs":"AHV","wikidata":"Q4774283","wikipedia":"en:Ash Vale railway station"}},
{"type":"Feature","geometry":{"type":"Point","coordinates":[-0.7438865,51.3363364]},"properties":{"name":"Camberley","naptan:AtcoCode":"9100CMBLEY","network":"National Rail","operator":"South Western Railway","public_transport":"station","railway":"station","ref:crs":"CAM","wikidata":"Q5025046","wikipedia":"en:Camberley railway station"}},
{"type":"Feature","geometry":{"type":"Point","coordinates":[-0.6885039,51.3643336]},"properties":{"name":"Bagshot","naptan:AtcoCode":"9100BAGSHOT","network":"National Rail","operator":"South Western Railway","public_transport":"station","railway":"station","ref:crs":"BAG","wikidata":"Q2480873","wikipedia":"en:Bagshot railway station"}},
{"type":"Feature","geometry":{"type":"Point","coordinates":[-0.6368939,51.163179]},"properties":{"name":"Milford","network":"National Rail","railway":"station","ref:crs":"MLF","wikidata":"Q4708340","platforms":"2","wikipedia":"en:Milford railway station","official_name":"Milford (Surrey)","naptan:AtcoCode":"9100MLFORD"}},
{"type":"Feature","geometry":{"type":"Point","coordinates":[-0.6459792,51.1331013]},"properties":{"name":"Witley","source":"Landsat","network":"National Rail","railway":"station","ref:crs":"WTY","operator":"South West Trains","wikidata":"Q1882728","wikipedia":"en:Witley railway station","naptan:AtcoCode":"9100WITLEY"}},
{"type":"Feature","geometry":{"type":"Point","coordinates":[-0.7194871,51.0887757]},"properties":{"name":"Haslemere","naptan:AtcoCode":"9100HASLEMR","network":"National Rail","operator":"South West Trains","public_transport":"station","railway":"station","ref:crs":"HSL","wikidata":"Q1985461","wikipedia":"en:Haslemere railway station"}},
{"type":"Feature","geometry":{"type":"Point","coordinates":[-0.5824209,51.2878849]},"properties":{"name":"Worplesdon","source":"NPE","network":"National Rail","railway":"station","ref:crs":"WPL","operator":"South Western Railway","wikidata":"Q2232031","wikipedia":"en:Worplesdon railway station","postal_code":"GU22 0RN","naptan:AtcoCode":"9100WRPLSDN","public_transport":"station"}},
{"type":"Feature","geometry":{"type":"Point","coordinates":[-0.5465778,51.4294065]},"properties":{"name":"Egham","network":"National Rail","railway":"station","ref:crs":"EGH","operator":"South Western Railway","wikidata":"Q5347948","wikipedia":"en:Egham railway station","wheelchair":"yes","naptan:AtcoCode":"9100EGHAM","public_transport":"station"}},
{"type":"Feature","geometry":{"type":"Point","coordinates":[-0.5029086,51.432328]},"properties":{"name":"Staines","naptan:AtcoCode":"9100STAINES","network":"National Rail","operator":"South Western Railway","public_transport":"station","railway":"station","ref:crs":"SNS","source:name":"npe","start_date":"1848-08-22","wikidata":"Q2106145","wikipedia":"en:Staines railway station"}},
{"type":"Feature","geometry":{"type":"Point","coordinates":[-0.5094641,51.3871309]},"properties":{"name":"Chertsey","source":"OS_OpenData_VectorMapDistrict","network":"National Rail","railway":"station","ref:crs":"CHY","operator":"South Western Railway","wikidata":"Q3538832","wikipedia":"en:Chertsey railway station","naptan:AtcoCode":"9100CHTSEY","public_transport":"station"}},
{"type":"Feature","geometry":{"type":"Point","coordinates":[-0.4845082,51.3731128]},"properties":{"name":"Addlestone","source":"OS_OpenData_VectorMapDistrict","network":"National Rail","railway":"station","ref:crs":"ASN","uic_ref":"7000039","operator":"Southwestern Railway","wikidata":"Q2064098","addr:city":"Addlestone","wikipedia":"en:Addlestone railway station","wheelchair":"yes","addr:street":"Station Road","naptan:AtcoCode":"9100ADLESTN","public_transport":"station","toilets:wheelchair":"no","wheelchair:description":"Both platforms accessible by ramps from street. Only automatic ticket sales. Access to opposite platform via level crossing."}},
{"type":"Feature","geometry":{"type":"Point","coordinates":[-0.2695495,51.3343527]},"properties":{"name":"Epsom","train":"yes","network":"National Rail","railway":"station","ref:crs":"EPS","operator":"Southern","wikidata":"Q1907314","wikipedia":"en:Epsom railway station","public_transport":"station"}},
{"type":"Feature","geometry":{"type":"Point","coordinates":[-0.2421857,51.308624]},"properties":{"name":"Tattenham Corner","network":"National Rail","railway":"station","ref:crs":"TAT","operator":"Southern Rail","wikipedia":"en:Tattenham Corner railway station","internet_access":"no","public_transport":"station"}},
{"type":"Feature","geometry":{"type":"Point","coordinates":[-0.257131,51.3501115]},"properties":{"name":"Ewell West","network":"National Rail","network:train":"National Rail","operator":"South Western Railway","public_transport":"station","railway":"station","ref:crs":"EWW","wikipedia":"en:Ewell West railway station"}},
{"type":"Feature","geometry":{"type":"Point","coordinates":[-0.0514363,51.2181855]},"properties":{"name":"Godstone","source":"NPE","network":"National Rail","railway":"station","ref:crs":"GDN","wikidata":"Q2744322","wikipedia":"en:Godstone railway station","wheelchair":"no","postal_code":"RH9 8EU","naptan:AtcoCode":"9100GODSTON","public_transport":"station"}},
{"type":"Feature","geometry":{"type":"Point","coordinates":[-0.1322636,51.2267445]},"properties":{"name":"Nutfield","network":"National Rail","railway":"station","ref:crs":"NUF","wikidata":"Q2671420","wikipedia":"en:Nutfield railway station","addr:postcode":"RH1 5RR","naptan:AtcoCode":"9100NUTFILD","public_transport":"station"}},
{"type":"Feature","geometry":{"type":"Point","coordinates":[-0.1987852,51.3438964]},"properties":{"name":"Belmont","network":"National Rail","railway":"station","ref:crs":"BLM","operator":"Southern","wikidata":"Q2799373","wikipedia":"en:Belmont railway station (Sutton)","naptan:AtcoCode":"9100BELM","public_transport":"station"}},
{"type":"Feature","geometry":{"type":"Point","coordinates":[-0.7468871,51.3116516]},"properties":{"name":"Frimley","naptan:AtcoCode":"9100FRIMLEY","network":"National Rail","operator":"South Western Railway","public_transport":"station","railway":"station","ref:crs":"FML","wikidata":"Q2593341","wikipedia":"en:Frimley railway station"}},
{"type":"Feature","geometry":{"type":"Point","coordinates":[-0.7307328,51.2753951]},"properties":{"addr:postcode":"GU12 5QA","addr:street":"Lynchford Road","name":"North Camp","naptan:AtcoCode":"9100NTHCAMP","network":"National Rail","operator":"First Great Western","railway":"station","ref:crs":"NCM","wheelchair":"yes","wikidata":"Q2297819","wikipedia":"en:North Camp railway station"}},
{"type":"Feature","geometry":{"type":"Point","coordinates":[-0.4683126,51.436496]},"properties":{"name":"Ashford","network":"National Rail","railway":"station","ref:crs":"AFS","operator":"South Western Railway","wikidata":"Q681232","addr:city":"Ashford","wikipedia":"en:Ashford railway station (Surrey)","wheelchair":"yes","addr:street":"Station Approach","source:name":"npe","addr:country":"GB","addr:postcode":"TW15 2QN","addr:housename":"Ashford Station","naptan:AtcoCode":"9100ASFDMSX","public_transport":"station"}},
{"type":"Feature","geometry":{"type":"Point","coordinates":[-0.2137196,51.3294324]},"properties":{"name":"Banstead","source":"NPE","network":"National Rail","railway":"station","ref:crs":"BAD","operator":"Southern","wikidata":"Q4857160","addr:city":"Banstead","wikipedia":"en:Banstead railway station","addr:street":"Banstead Road","addr:postcode":"SM7 1PZ","naptan:AtcoCode":"9100BANSTED","public_transport":"station"}},
{"type":"Feature","geometry":{"type":"Point","coordinates":[-0.7720564,51.1838357]},"properties":{"name":"Mills Wood","usage":"tourism","railway":"station","public_transport":"station"}}
]}
