{"type":"FeatureCollection","features":[
{"type":"Feature","geometry":{"type":"Point","coordinates":[-1.664932,54.9588888]},"properties":{"name":"MetroCentre","train":"yes","source":"Bing;local knowledge;gps","network":"National Rail","railway":"station","ref:crs":"MCE","alt_name":"Metro Centre","operator":"Northern","wikidata":"Q2781169","addr:city":"Gateshead","wikipedia":"en:MetroCentre railway station","wheelchair":"yes","addr:postcode":"NE11 9GA","naptan:AtcoCode":"9100GTSHDMC","public_transport":"station"}},
{"type":"Feature","geometry":{"type":"Point","coordinates":[-1.4186138,55.001]},"properties":{"usage":"tourism","railway":"station"}},
{"type":"Feature","geometry":{"type":"Point","coordinates":[-1.6131717,54.9740058]},"properties":{"name":"Monument","train":"yes","network":"Tyne and Wear Metro","railway":"station","station":"light_rail","operator":"Nexus","wikidata":"Q6906821","platforms":"4","wikipedia":"en:Monument Metro station","light_rail":"yes","public_transport":"station"}},
{"type":"Feature","geometry":{"type":"Point","coordinates":[-1.6170427,54.9683766]},"properties":{"name":"Newcastle","train":"yes","network":"National Rail","railway":"station","ref:crs":"NCL","wikipedia":"en:Newcastle railway station","start_date":"1850","wheelchair":"yes","naptan:AtcoCode":"9100NWCSTLE","public_transport":"station"}},
{"type":"Feature","geometry":{"type":"Point","coordinates":[-1.3846154,54.902301]},"properties":{"light_rail":"yes","name":"Park Lane","network":"Tyne and Wear Metro","operator":"Nexus","public_transport":"station","railway":"station","station":"light_rail","wikipedia":"en:Park Lane Interchange"}},
{"type":"Feature","geometry":{"type":"Point","coordinates":[-1.6757238,54.9084456]},"properties":{"name":"Andrews House","railway":"station","usage":"tourism","wheelchair":"yes"}},
{"type":"Feature","geometry":{"type":"Point","coordinates":[-1.6753492,54.9201997]},"properties":{"name":"Sunniside","usage":"tourism","railway":"station"}},
{"type":"Feature","geometry":{"type":"Point","coordinates":[-1.6414408,54.9499976]},"properties":{"name":"Dunston","train":"yes","network":"National Rail","railway":"station","ref:crs":"DOT","operator":"Northern","wikidata":"Q678990","addr:city":"Dunston","wikipedia":"en:Dunston railway station","wheelchair":"yes","addr:street":"Ellison Road","addr:postcode":"NE11 9SS","naptan:AtcoCode":"9100DNSN","public_transport":"station"}},
{"type":"Feature","geometry":{"type":"Point","coordinates":[-1.4852346,54.957505]},"properties":{"name":"Fellgate","network":"Tyne and Wear Metro","operator":"Nexus","platforms":"2","public_transport":"station","railway":"station","station":"light_rail","wheelchair":"yes","wikidata":"Q5442459","wikipedia":"en:Fellgate Metro station"}},
{"type":"Feature","geometry":{"type":"Point","coordinates":[-1.6047872,54.9739724]},"properties":{"name":"Manors","network":"Tyne and Wear Metro","railway":"station","station":"light_rail","operator":"Nexus","wikidata":"Q6751440","wikipedia":"en:Manors Metro station","light_rail":"yes","wheelchair":"yes","internet_access":"no","public_transport":"station"}},
{"type":"Feature","geometry":{"type":"Point","coordinates":[-1.6440091,55.0136257]},"properties":{"name":"Fawdon","network":"Tyne and Wear Metro","operator":"Nexus","public_transport":"station","railway":"station","station":"light_rail","wikidata":"Q5438738","wikipedia":"en:Fawdon Metro station"}},
{"type":"Feature","geometry":{"type":"Point","coordinates":[-1.6356886,55.0142915]},"properties":{"name":"Wansbeck Road","network":"Tyne and Wear Metro","operator":"Nexus","public_transport":"station","railway":"station","station":"light_rail","wheelchair":"yes","wikidata":"Q7968068","wikipedia":"en:Wansbeck Road Metro station"}},
{"type":"Feature","geometry":{"type":"Point","coordinates":[-1.5720557,54.9829136]},"properties":{"name":"Chillingham Road","network":"Tyne and Wear Metro","operator":"Nexus","public_transport":"station","railway":"station","station":"light_rail","wikidata":"Q5099070","wikipedia":"en:Chillingham Road Metro station"}},
{"type":"Feature","geometry":{"type":"Point","coordinates":[-1.571771,54.9531464]},"properties":{"name":"Felling","name:lt":"Felingas","network":"Tyne and Wear Metro","operator":"Nexus","public_transport":"station","railway":"station","station":"light_rail","wikidata":"Q5442471","wikipedia":"en:Felling Metro station"}},
{"type":"Feature","geometry":{"type":"Point","coordinates":[-1.5881587,54.9576691]},"properties":{"name":"Gateshead Stadium","network":"Tyne and Wear Metro","operator":"Nexus","public_transport":"station","railway":"station","station":"light_rail","wikidata":"Q5527162","wikipedia":"en:Gateshead Stadium Metro station"}},
{"type":"Feature","geometry":{"type":"Point","coordinates":[-1.6139281,54.9775027]},"properties":{"internet_access":"no","light_rail":"yes","name":"Haymarket","network":"Tyne and Wear Metro","operator":"Nexus","platforms":"2","public_transport":"station","railway":"station","station":"light_rail","wheelchair":"yes","wikipedia":"en:Haymarket Metro station"}},
{"type":"Feature","geometry":{"type":"Point","coordinates":[-1.5560372,54.9515374]},"properties":{"light_rail":"yes","name":"Heworth","network":"Tyne and Wear Metro","operator":"Nexus","public_transport":"station","railway":"station","station":"light_rail","wikidata":"Q2367499","wikipedia":"en:Heworth Interchange"}},
{"type":"Feature","geometry":{"type":"Point","coordinates":[-1.5571558,54.9516098]},"properties":{"name":"Heworth","naptan:AtcoCode":"9100HEWORTH","network":"National Rail","operator":"Northern","public_transport":"station","railway":"station","ref:crs":"HEW","wikidata":"Q2367499","wikipedia":"en:Heworth Interchange"}},
{"type":"Feature","geometry":{"type":"Point","coordinates":[-1.6108627,55.0000112]},"properties":{"internet_access":"no","internet_access:fee":"no","name":"Ilford Road","network":"Tyne and Wear Metro","operator":"Nexus","public_transport":"station","railway":"station","station":"light_rail","wikipedia":"en:Ilford Road Metro station"}},
{"type":"Feature","geometry":{"type":"Point","coordinates":[-1.6056954,54.9828211]},"properties":{"light_rail":"yes","name":"Jesmond","network":"Tyne and Wear Metro","operator":"Nexus","public_transport":"station","railway":"station","station":"light_rail","wheelchair":"yes","wikipedia":"en:Jesmond Metro station"}},
{"type":"Feature","geometry":{"type":"Point","coordinates":[-1.4010132,54.9064665]},"properties":{"name":"Millfield","network":"Tyne and Wear Metro","operator":"Nexus","public_transport":"station","railway":"station","station":"light_rail","wikidata":"Q6859477","wikipedia":"en:Millfield Metro station"}},
{"type":"Feature","geometry":{"type":"Point","coordinates":[-1.6167186,54.9693665]},"properties":{"name":"Central Station","network":"Tyne and Wear Metro","railway":"station","station":"light_rail","loc_name":"Central Station","operator":"Nexus","wikipedia":"en:Central Station Metro station","light_rail":"yes","naptan:AtcoCode":"9400ZZTWCST","public_transport":"station"}},
{"type":"Feature","geometry":{"type":"Point","coordinates":[-1.4178547,54.9127413]},"properties":{"name":"Pallion","network":"Tyne and Wear Metro","operator":"Nexus","public_transport":"station","railway":"station","station":"light_rail","wikidata":"Q7127895","wikipedia":"en:Pallion Metro station"}},
{"type":"Feature","geometry":{"type":"Point","coordinates":[-1.6216284,55.0119539]},"properties":{"name":"Regent Centre","network":"Tyne and Wear Metro","operator":"Nexus","public_transport":"station","railway":"station","station":"light_rail","wikipedia":"en:Regent Centre Interchange"}},
{"type":"Feature","geometry":{"type":"Point","coordinates":[-1.6083021,55.0057849]},"properties":{"name":"South Gosforth","network":"Tyne and Wear Metro","operator":"Nexus","public_transport":"station","railway":"station","station":"light_rail","wikidata":"Q7567374","wikipedia":"en:South Gosforth Metro station"}},
{"type":"Feature","geometry":{"type":"Point","coordinates":[-1.4477521,54.9042608]},"properties":{"name":"South Hylton","network":"Tyne and Wear Metro","railway":"station","station":"light_rail","operator":"Nexus","wikidata":"Q7567520","wikipedia":"en:South Hylton Metro station","public_transport":"station"}},
{"type":"Feature","geometry":{"type":"Point","coordinates":[-1.3837588,54.9110683]},"properties":{"internet_access":"no","internet_access:fee":"no","light_rail":"yes","name":"St Peter's","naptan:AtcoCode":"9100SNDRMNK","network":"Tyne and Wear Metro","operator":"Nexus","public_transport":"station","railway":"station","station":"light_rail","wikidata":"Q7595326","wikipedia":"en:St Peter's Metro station"}},
{"type":"Feature","geometry":{"type":"Point","coordinates":[-1.3829516,54.9181372]},"properties":{"light_rail":"yes","name":"Stadium of Light","network":"Tyne and Wear Metro","operator":"Nexus","public_transport":"station","railway":"station","station":"light_rail","wikidata":"Q7596509","wikipedia":"en:Stadium of Light Metro station"}},
{"type":"Feature","geometry":{"type":"Point","coordinates":[-1.3824404,54.9061115]},"properties":{"name":"Sunderland","train":"yes","network":"National Rail","railway":"station","ref:crs":"SUN","station":"light_rail","operator":"Northern Rail","wikidata":"Q2669414","platforms":"4","wikipedia":"en:Sunderland station","light_rail":"yes","naptan:AtcoCode":"9100SNDRLND","public_transport":"station"}},
{"type":"Feature","geometry":{"type":"Point","coordinates":[-1.6098034,54.993435]},"properties":{"name":"West Jesmond","network":"Tyne and Wear Metro","railway":"station","station":"light_rail","operator":"Nexus","wikidata":"Q7985584","wikipedia":"en:West Jesmond Metro station","public_transport":"station","naptan:PlusbusZoneRef":"NWCSTLE"}},
{"type":"Feature","geometry":{"type":"Point","coordinates":[-1.542051,54.9526638]},"properties":{"name":"Pelaw","network":"Tyne and Wear Metro","operator":"Nexus","public_transport":"station","railway":"station","station":"light_rail","toilets:wheelchair":"no","wheelchair":"yes","wikidata":"Q7161216","wikipedia":"en:Pelaw Metro station"}},
{"type":"Feature","geometry":{"type":"Point","coordinates":[-1.6044065,54.9617219]},"properties":{"light_rail":"yes","name":"Gateshead","network":"Tyne and Wear Metro","operator":"Nexus","public_transport":"station","railway":"station","station":"light_rail","wikipedia":"en:Gateshead Interchange"}},
{"type":"Feature","geometry":{"type":"Point","coordinates":[-1.6780732,55.0139176]},"properties":{"name":"Bank Foot","network":"Tyne and Wear Metro","operator":"Nexus","public_transport":"station","railway":"station","station":"light_rail","wikipedia":"en:Bank Foot Metro station"}},
{"type":"Feature","geometry":{"type":"Point","coordinates":[-1.7034114,55.0277062]},"properties":{"name":"Callerton Parkway","network":"Tyne and Wear Metro","operator":"Nexus","public_transport":"station","railway":"station","station":"light_rail","wikipedia":"en:Callerton Parkway Metro station"}},
{"type":"Feature","geometry":{"type":"Point","coordinates":[-1.7110967,55.0356373]},"properties":{"name":"Airport","network":"Tyne and Wear Metro","operator":"Nexus","public_transport":"station","railway":"station","station":"light_rail","wikipedia":"en:Airport Interchange"}},
{"type":"Feature","geometry":{"type":"Point","coordinates":[-1.5676297,55.0139029]},"properties":{"light_rail":"yes","name":"Benton","network":"Tyne and Wear Metro","operator":"Nexus","public_transport":"station","railway":"station","station":"light_rail","wikidata":"Q4890591","wikipedia":"en:Benton Metro station"}},
{"type":"Feature","geometry":{"type":"Point","coordinates":[-1.4201545,54.946345]},"properties":{"internet_access":"no","internet_access:fee":"no","name":"East Boldon","network":"Tyne and Wear Metro","operator":"Nexus","public_transport":"station","railway":"station","station":"light_rail","wikidata":"Q5327886","wikipedia":"en:East Boldon Metro station"}},
{"type":"Feature","geometry":{"type":"Point","coordinates":[-1.5785049,55.010164]},"properties":{"light_rail":"yes","name":"Four Lane Ends","network":"Tyne and Wear Metro","operator":"Nexus","public_transport":"station","railway":"station","station":"light_rail","wikipedia":"en:Four Lane Ends Interchange"}},
{"type":"Feature","geometry":{"type":"Point","coordinates":[-1.4656764,54.9742849]},"properties":{"internet_access":"no","internet_access:fee":"no","name":"Bede","network":"Tyne and Wear Metro","operator":"Nexus","public_transport":"station","railway":"station","station":"light_rail","wikidata":"Q4879040","wikipedia":"en:Bede Metro station"}},
{"type":"Feature","geometry":{"type":"Point","coordinates":[-1.493592,54.9795929]},"properties":{"name":"Jarrow","network":"Tyne and Wear Metro","operator":"Nexus","public_transport":"station","railway":"station","station":"light_rail","wikidata":"Q6161119","wikipedia":"en:Jarrow Metro station"}},
{"type":"Feature","geometry":{"type":"Point","coordinates":[-1.5212236,54.9752922]},"properties":{"light_rail":"yes","name":"Hebburn","network":"Tyne and Wear Metro","operator":"Nexus","public_transport":"station","railway":"station","station":"light_rail","wikidata":"Q5695378","wikipedia":"en:Hebburn Metro station"}},
{"type":"Feature","geometry":{"type":"Point","coordinates":[-1.460684,54.9595193]},"properties":{"internet_access":"no","internet_access:fee":"no","name":"Brockley Whins","network":"Tyne and Wear Metro","operator":"Nexus","public_transport":"station","railway":"station","station":"light_rail","wikidata":"Q4972838","wikipedia":"en:Brockley Whins Metro station"}},
{"type":"Feature","geometry":{"type":"Point","coordinates":[-1.3865039,54.9295618]},"properties":{"name":"Seaburn","network":"Tyne and Wear Metro","operator":"Nexus","public_transport":"station","railway":"station","station":"light_rail","wikidata":"Q7440231","wikipedia":"en:Seaburn Metro station"}},
{"type":"Feature","geometry":{"type":"Point","coordinates":[-1.392096,54.9027916]},"properties":{"light_rail":"yes","name":"University","network":"Tyne and Wear Metro","operator":"Nexus","public_transport":"station","railway":"station","station":"light_rail","wikipedia":"en:University Metro station"}},
{"type":"Feature","geometry":{"type":"Point","coordinates":[-1.6210905,54.974347]},"properties":{"light_rail":"yes","name":"St James","network":"Tyne and Wear Metro","operator":"Nexus","public_transport":"station","railway":"station","station":"light_rail","wikipedia":"en:St James Metro station"}},
{"type":"Feature","geometry":{"type":"Point","coordinates":[-1.6056318,54.972671]},"properties":{"internet_access":"no","name":"Manors","naptan:AtcoCode":"9100MANORS","network":"National Rail","operator":"Northern Rail","public_transport":"station","railway":"station","ref:crs":"MAS","train":"yes","wheelchair":"no","wikidata":"Q2772409","wikipedia":"en:Manors railway station"}},
{"type":"Feature","geometry":{"type":"Point","coordinates":[-1.5594732,54.9853512]},"properties":{"name":"Walkergate","network":"Tyne and Wear Metro","operator":"Nexus","public_transport":"station","railway":"station","station":"light_rail","wikipedia":"en:Walkergate Metro station"}},
{"type":"Feature","geometry":{"type":"Point","coordinates":[-1.580344,54.9760388]},"properties":{"light_rail":"yes","name":"Byker","network":"Tyne and Wear Metro","operator":"Nexus","public_transport":"station","railway":"station","station":"light_rail","wikipedia":"en:Byker Metro station"}},
{"type":"Feature","geometry":{"type":"Point","coordinates":[-1.5327361,54.9895984]},"properties":{"light_rail":"yes","name":"Wallsend","network":"Tyne and Wear Metro","operator":"Nexus","public_transport":"station","railway":"station","station":"light_rail","wikidata":"Q7963252","wikipedia":"en:Wallsend Metro station"}},
{"type":"Feature","geometry":{"type":"Point","coordinates":[-1.5159676,54.9922694]},"properties":{"name":"Hadrian Road","network":"Tyne and Wear Metro","operator":"Nexus","public_transport":"station","railway":"station","station":"light_rail","wheelchair":"yes","wikidata":"Q5638057","wikipedia":"en:Hadrian Road Metro station"}},
{"type":"Feature","geometry":{"type":"Point","coordinates":[-1.4941598,54.9959066]},"properties":{"light_rail":"yes","name":"Howdon","network":"Tyne and Wear Metro","operator":"Nexus","public_transport":"station","railway":"station","station":"light_rail","wikidata":"Q5921466","wikipedia":"en:Howdon Metro station"}},
{"type":"Feature","geometry":{"type":"Point","coordinates":[-1.4746255,54.9995678]},"properties":{"light_rail":"yes","name":"Percy Main","network":"Tyne and Wear Metro","operator":"Nexus","public_transport":"station","railway":"station","station":"light_rail","wikipedia":"en:Percy Main Metro station"}},
{"type":"Feature","geometry":{"type":"Point","coordinates":[-1.4656759,55.001562]},"properties":{"name":"Meadow Well","network":"Tyne and Wear Metro","old_name":"Smith's Park","operator":"Nexus","public_transport":"station","railway":"station","station":"light_rail","wikidata":"Q6803296","wikipedia":"en:Meadow Well Metro station"}},
{"type":"Feature","geometry":{"type":"Point","coordinates":[-1.5054224,55.0369588]},"properties":{"internet_access":"no","light_rail":"yes","name":"Shiremoor","network":"Tyne and Wear Metro","operator":"Nexus","public_transport":"station","railway":"station","station":"light_rail","wikidata":"Q7498547","wikipedia":"en:Shiremoor Metro station"}},
{"type":"Feature","geometry":{"type":"Point","coordinates":[-1.5198212,55.0331107]},"properties":{"light_rail":"yes","name":"Northumberland Park","network":"Tyne and Wear Metro","operator":"Nexus","public_transport":"station","railway":"station","station":"light_rail","wikidata":"Q7059817","wikipedia":"en:Northumberland Park Metro station"}},
{"type":"Feature","geometry":{"type":"Point","coordinates":[-1.5916006,55.0089239]},"properties":{"name":"Longbenton","network":"Tyne and Wear Metro","operator":"Nexus","public_transport":"station","railway":"station","station":"light_rail","wikipedia":"en:Longbenton Metro station"}},
{"type":"Feature","geometry":{"type":"Point","coordinates":[-1.5411852,55.0236937]},"properties":{"name":"Palmersville","network":"Tyne and Wear Metro","railway":"station","station":"light_rail","operator":"Nexus","wikidata":"Q7128339","wikipedia":"en:Palmersville Metro station","light_rail":"yes","internet_access":"no","public_transport":"station"}},
{"type":"Feature","geometry":{"type":"Point","coordinates":[-1.6661176,55.0144117]},"properties":{"light_rail":"yes","name":"Kingston Park","network":"Tyne and Wear Metro","operator":"Nexus","public_transport":"station","railway":"station","station":"light_rail","wikipedia":"en:Kingston Park Metro station"}},
{"type":"Feature","geometry":{"type":"Point","coordinates":[-1.7128813,54.9659633]},"properties":{"name":"Blaydon","source":"NPE;Bing","network":"National Rail","railway":"station","ref:crs":"BLO","wikidata":"Q2155219","addr:city":"Blaydon on Tyne","wikipedia":"en:Blaydon railway station","wheelchair":"yes","addr:street":"Tyne Street","addr:postcode":"NE21 4JB","naptan:AtcoCode":"9100BLAYDON","public_transport":"station"}},
{"type":"Feature","geometry":{"type":"Point","coordinates":[-1.4780506,54.9977941]},"properties":{"name":"Percy Main","train":"yes","usage":"tourism","railway":"station","operator":"NTSR","internet_access":"no","public_transport":"station","internet_access:fee":"no"}},
{"type":"Feature","geometry":{"type":"Point","coordinates":[-1.442273,55.0397265]},"properties":{"internet_access":"no","light_rail":"yes","name":"Whitley Bay","network":"Tyne and Wear Metro","operator":"Nexus","public_transport":"station","railway":"station","station":"light_rail","wikidata":"Q7996558","wikipedia":"en:Whitley Bay Metro station"}},
{"type":"Feature","geometry":{"type":"Point","coordinates":[-1.4288662,55.0170464]},"properties":{"internet_access":"no","light_rail":"yes","name":"Tynemouth","network":"Tyne and Wear Metro","operator":"Nexus","public_transport":"station","railway":"station","source":"Bing","station":"light_rail","wikidata":"Q7860525","wikipedia":"en:Tynemouth Metro station"}},
{"type":"Feature","geometry":{"type":"Point","coordinates":[-1.4320588,54.986499]},"properties":{"internet_access":"no","name":"Chichester","network":"Tyne and Wear Metro","operator":"Nexus","public_transport":"station","railway":"station","station":"light_rail","train":"yes","wikidata":"Q5096006","wikipedia":"en:Chichester Metro station"}},
{"type":"Feature","geometry":{"type":"Point","coordinates":[-1.4363669,55.034999]},"properties":{"internet_access":"no","light_rail":"yes","name":"Cullercoats","network":"Tyne and Wear Metro","operator":"Nexus","public_transport":"station","railway":"station","source":"Bing","station":"light_rail","wikipedia":"en:Cullercoats Metro station"}},
{"type":"Feature","geometry":{"type":"Point","coordinates":[-1.4584698,55.042298]},"properties":{"light_rail":"yes","local_ref":"SE;NW","name":"Monkseaton","naptan:AtcoCode":"9400ZZTWMST","naptan:verified":"no","network":"Tyne and Wear Metro","operator":"Nexus","public_transport":"station","railway":"station","source":"naptan_import","station":"light_rail","wikidata":"Q6900966","wikipedia":"en:Monkseaton Metro station"}},
{"type":"Feature","geometry":{"type":"Point","coordinates":[-1.4759796,55.0405469]},"properties":{"internet_access":"no","light_rail":"yes","name":"West Monkseaton","network":"Tyne and Wear Metro","operator":"Nexus","public_transport":"station","railway":"station","station":"light_rail","wheelchair":"yes","wikidata":"Q7986013","wikipedia":"en:West Monkseaton Metro station"}},
{"type":"Feature","geometry":{"type":"Point","coordinates":[-1.4489628,55.0081382]},"properties":{"internet_access":"no","light_rail":"yes","name":"North Shields","network":"Tyne and Wear Metro","operator":"Nexus","public_transport":"station","railway":"station","source":"Bing","station":"light_rail","wikidata":"Q7056635","wikipedia":"en:North Shields Metro station"}},
{"type":"Feature","geometry":{"type":"Point","coordinates":[-1.4330314,54.9971852]},"properties":{"light_rail":"yes","name":"South Shields","network":"Tyne and Wear Metro","operator":"Nexus","public_transport":"station","railway":"station","station":"light_rail","wheelchair":"yes","wikipedia":"en:South Shields Interchange"}},
{"type":"Feature","geometry":{"type":"Point","coordinates":[-1.4416187,54.9761432]},"properties":{"internet_access":"no","name":"Tyne Dock","network":"Tyne and Wear Metro","operator":"Nexus","public_transport":"station","railway":"station","station":"light_rail","wikidata":"Q7860483","wikipedia":"en:Tyne Dock Metro station"}},
{"type":"Feature","geometry":{"type":"Point","coordinates":[-1.4554849,54.971707]},"properties":{"internet_access":"no","name":"Simonside","network":"Tyne and Wear Metro","operator":"Nexus","public_transport":"station","railway":"station","station":"light_rail","wheelchair":"yes","wikidata":"Q7520496","wikipedia":"en:Simonside Metro station"}}
]}
