{"type":"FeatureCollection","features":[
{"type":"Feature","geometry":{"type":"Point","coordinates":[-1.743655,52.5185309]},"properties":{"name":"Water Orton","naptan:AtcoCode":"9100WTRORTN","network":"National Rail","public_transport":"station","railway":"station","ref:crs":"WTO","wikidata":"Q2674112","wikipedia":"en:Water Orton railway station"}},
{"type":"Feature","geometry":{"type":"Point","coordinates":[-1.6729068,52.2952126]},"properties":{"addr:city":"Hatton","addr:postcode":"CV35 7LE","addr:street":"Station Road","name":"Hatton","naptan:AtcoCode":"9100HATTON","network":"National Rail","old_name":"Hatton Junction","public_transport":"station","railway":"station","ref:crs":"HTN","wikidata":"Q13528205","wikipedia":"en:Hatton railway station (England)"}},
{"type":"Feature","geometry":{"type":"Point","coordinates":[-1.7257883,52.3417839]},"properties":{"name":"Lapworth","naptan:AtcoCode":"9100LAPWRTH","network":"National Rail","public_transport":"station","railway":"station","ref:crs":"LPW","wikidata":"Q1904720","wikipedia":"en:Lapworth railway station"}},
{"type":"Feature","geometry":{"type":"Point","coordinates":[-1.2497958,52.3788323]},"properties":{"name":"Rugby","source":"NPE","network":"National Rail","railway":"station","ref:crs":"RUG","wikidata":"Q3250380","wikipedia":"en:Rugby railway station","wheelchair":"yes","naptan:AtcoCode":"9100RUGBY","toilets:wheelchair":"yes"}},
{"type":"Feature","geometry":{"type":"Point","coordinates":[-1.8444546,52.3443845]},"properties":{"name":"Wood End","source":"NPE","network":"National Rail","railway":"station","ref:crs":"WDE","wikidata":"Q2519103","wikipedia":"en:Wood End railway station","request_stop":"yes","naptan:AtcoCode":"9100WDND"}},
{"type":"Feature","geometry":{"type":"Point","coordinates":[-1.7163221,52.1944695]},"properties":{"name":"Stratford-upon-Avon","naptan:AtcoCode":"9100SOAV","network":"National Rail","public_transport":"station","railway":"station","ref:crs":"SAV","wikidata":"Q1941516","wikipedia":"en:Stratford-upon-Avon railway station"}},
{"type":"Feature","geometry":{"type":"Point","coordinates":[-1.7557751,52.222569]},"properties":{"name":"Wilmcote","naptan:AtcoCode":"9100WILMCOT","network":"National Rail","public_transport":"station","railway":"station","ref:crs":"WMC","wikidata":"Q1966621","wikipedia":"en:Wilmcote railway station"}},
{"type":"Feature","geometry":{"type":"Point","coordinates":[-1.783972,52.2914336]},"properties":{"name":"Henley-in-Arden","naptan:AtcoCode":"9100HENLYIA","network":"National Rail","public_transport":"station","railway":"station","ref:crs":"HNL","wikidata":"Q2185706","wikipedia":"en:Henley-in-Arden railway station"}},
{"type":"Feature","geometry":{"type":"Point","coordinates":[-1.7309183,52.2068458]},"properties":{"name":"Stratford-upon-Avon Parkway","naptan:AtcoCode":"9100SOAVPWY","network":"National Rail","platforms":"2","public_transport":"station","railway":"station","ref:crs":"STY","wikidata":"Q7621977","wikipedia":"en:Stratford-upon-Avon Parkway railway station"}},
{"type":"Feature","geometry":{"type":"Point","coordinates":[-1.7498208,52.2449172]},"properties":{"name":"Bearley","naptan:AtcoCode":"9100BEARLEY","network":"National Rail","public_transport":"station","railway":"station","ref:crs":"BER","request_stop":"yes","source":"NPE","wikidata":"Q2235875","wikipedia":"en:Bearley railway station"}},
{"type":"Feature","geometry":{"type":"Point","coordinates":[-1.6963369,52.2772189]},"properties":{"name":"Claverdon","naptan:AtcoCode":"9100CLAVRDN","network":"National Rail","public_transport":"station","railway":"station","ref:crs":"CLV","request_stop":"yes","source":"NPE","wikidata":"Q4349134","wikipedia":"en:Claverdon railway station"}},
{"type":"Feature","geometry":{"type":"Point","coordinates":[-1.6990466,52.5615629]},"properties":{"name":"Harvesters","usage":"tourism","railway":"station"}},
{"type":"Feature","geometry":{"type":"Point","coordinates":[-1.6934055,52.5657715]},"properties":{"name":"Far Leys Station","notes":"Officially opened 15 May 2010","usage":"tourism","railway":"station"}},
{"type":"Feature","geometry":{"type":"Point","coordinates":[-1.9035605,52.1834767]},"properties":{"name":"Avonvale MES","usage":"tourism","source":"Bing","railway":"station","website":"http://www.avonvale.me.uk/"}},
{"type":"Feature","geometry":{"type":"Point","coordinates":[-1.4674675,52.4793285]},"properties":{"name":"Bedworth","source":"NPE","name:lt":"Bedvertas","network":"National Rail","railway":"station","ref:crs":"BEH","wikidata":"Q2201463","wikipedia":"en:Bedworth railway station","naptan:AtcoCode":"9100BEDWRTH"}},
{"type":"Feature","geometry":{"type":"Point","coordinates":[-1.6107049,52.6258348]},"properties":{"name":"Polesworth","source":"NPE","network":"National Rail","railway":"station","ref:crs":"PSW","wikidata":"Q2749317","wikipedia":"en:Polesworth railway station","naptan:AtcoCode":"9100PWTH"}},
{"type":"Feature","geometry":{"type":"Point","coordinates":[-1.5522587,52.5784071]},"properties":{"name":"Atherstone","naptan:AtcoCode":"9100ATHRSTN","network":"National Rail","public_transport":"station","railway":"station","ref:crs":"ATH","source":"NPE","wikidata":"Q604337","wikipedia":"en:Atherstone railway station"}},
{"type":"Feature","geometry":{"type":"Point","coordinates":[-1.4725898,52.5033421]},"properties":{"addr:city":"Nuneaton","addr:postcode":"CV10 7JR","addr:street":"St Davids Way","name":"Bermuda Park","naptan:AtcoCode":"9100NNTN","network":"National Rail","operator":"London Midland","platforms":"2","railway":"station","ref:crs":"BEP","source":"local_Knowledge","toilets:wheelchair":"no","wheelchair":"yes","wheelchair:description":"Just an unattended Train Platform. No toilets of any kind here.","wikidata":"Q4892644","wikipedia":"en:Bermuda Park railway station"}},
{"type":"Feature","geometry":{"type":"Point","coordinates":[-1.5724185,52.3428168]},"properties":{"name":"Kenilworth","train":"yes","network":"National Rail","railway":"station","ref:crs":"KNW","wikidata":"Q6389304","addr:city":"Kenilworth","wikipedia":"en:Kenilworth railway station","addr:street":"Waverley Road","addr:postcode":"CV8 1JJ","naptan:AtcoCode":"9100KENLSTN","public_transport":"station"}},
{"type":"Feature","geometry":{"type":"Point","coordinates":[-1.6122733,52.2860143]},"properties":{"name":"Warwick Parkway","naptan:AtcoCode":"9100WARWPWY","network":"National Rail","public_transport":"station","railway":"station","ref:crs":"WRP","wikidata":"Q372014","wikipedia":"en:Warwick Parkway railway station"}},
{"type":"Feature","geometry":{"type":"Point","coordinates":[-1.5358026,52.28461]},"properties":{"alt_name":"Leamington Spa railway station","name":"Leamington Spa","naptan:AtcoCode":"9100LMNGTNS","network":"National Rail","public_transport":"station","railway":"station","ref:crs":"LMS","wheelchair":"yes","wikidata":"Q1971430","wikipedia":"en:Leamington Spa railway station"}},
{"type":"Feature","geometry":{"type":"Point","coordinates":[-1.7077717,52.5165155]},"properties":{"name":"Coleshill Parkway","network":"National Rail","railway":"station","ref:crs":"CEH","wikidata":"Q5144669","wikipedia":"en:Coleshill Parkway railway station","former_name":"Forge Mills","naptan:AtcoCode":"9100COLESHL"}},
{"type":"Feature","geometry":{"type":"Point","coordinates":[-1.4641837,52.5267605]},"properties":{"name":"Nuneaton","network":"National Rail","railway":"station","ref:crs":"NUN","wikidata":"Q2018434","wikipedia":"en:Nuneaton railway station","naptan:AtcoCode":"9100NNTN","public_transport":"station"}},
{"type":"Feature","geometry":{"type":"Point","coordinates":[-1.5817112,52.28662]},"properties":{"alt_name":"Warwick Rail Station","name":"Warwick","naptan:AtcoCode":"9100WARWICK","network":"National Rail","public_transport":"station","railway":"station","ref:crs":"WRW","wikidata":"Q2693935","wikipedia":"en:Warwick railway station"}},
{"type":"Feature","geometry":{"type":"Point","coordinates":[-1.8208699,52.3246044]},"properties":{"name":"Danzey","source":"NPE","network":"National Rail","railway":"station","ref:crs":"DZY","old_name":"Danzey for Tanworth","wikidata":"Q941715","wikipedia":"en:Danzey railway station","request_stop":"yes","naptan:AtcoCode":"9100DANZEY"}},
{"type":"Feature","geometry":{"type":"Point","coordinates":[-1.8614034,52.3665989]},"properties":{"name":"Earlswood","source":"NPE","network":"National Rail","railway":"station","ref:crs":"EWD","wikidata":"Q2243841","wikipedia":"en:Earlswood railway station (West Midlands)","naptan:AtcoCode":"9100ELWD","west_midlands_fare_zone":"5"}},
{"type":"Feature","geometry":{"type":"Point","coordinates":[-1.8446544,52.3590972]},"properties":{"name":"The Lakes","source":"NPE","network":"National Rail","railway":"station","ref:crs":"TLK","wikidata":"Q2683977","wikipedia":"en:The Lakes railway station","request_stop":"yes","naptan:AtcoCode":"9100THELAKS"}},
{"type":"Feature","geometry":{"type":"Point","coordinates":[-1.7845997,52.2658372]},"properties":{"name":"Wootton Wawen","naptan:AtcoCode":"9100WOTONWN","network":"National Rail","railway":"station","ref:crs":"WWW","request_stop":"yes","source":"NPE","wikidata":"Q4350946","wikipedia":"en:Wootton Wawen railway station"}}
]}
