{"type":"FeatureCollection","features":[
{"type":"Feature","geometry":{"type":"Point","coordinates":[-1.5475333,52.3993806]},"properties":{"name":"Canley","naptan:AtcoCode":"9100CANLEY","network":"National Rail","public_transport":"station","railway":"station","ref:crs":"CNL","source":"NPE","west_midlands_fare_zone":"5","wikidata":"Q2317360","wikipedia":"en:Canley railway station"}},
{"type":"Feature","geometry":{"type":"Point","coordinates":[-1.8392253,52.5285663]},"properties":{"name":"Erdington","network":"National Rail","railway":"station","ref:crs":"ERD","wikidata":"Q2415516","wikipedia":"en:Erdington railway station","naptan:AtcoCode":"9100ERDNGTN","west_midlands_fare_zone":"3"}},
{"type":"Feature","geometry":{"type":"Point","coordinates":[-1.8324576,52.5357946]},"properties":{"name":"Chester Road","network":"National Rail","railway":"station","ref:crs":"CRD","wikidata":"Q2405727","wikipedia":"en:Chester Road railway station","wheelchair":"yes","naptan:AtcoCode":"9100CHSRD","west_midlands_fare_zone":"3"}},
{"type":"Feature","geometry":{"type":"Point","coordinates":[-1.8252548,52.5647207]},"properties":{"name":"Sutton Coldfield","network":"National Rail","railway":"station","ref:crs":"SUT","wikidata":"Q525739","wikipedia":"en:Sutton Coldfield railway station","naptan:AtcoCode":"9100SUTCO","west_midlands_fare_zone":"4"}},
{"type":"Feature","geometry":{"type":"Point","coordinates":[-1.8527077,52.5153876]},"properties":{"name":"Gravelly Hill","network":"National Rail","railway":"station","ref:crs":"GVH","wikidata":"Q2098592","wikipedia":"en:Gravelly Hill railway station","naptan:AtcoCode":"9100GRAVLYH","west_midlands_fare_zone":"2"}},
{"type":"Feature","geometry":{"type":"Point","coordinates":[-1.8383384,52.5925882]},"properties":{"name":"Butlers Lane","network":"National Rail","railway":"station","ref:crs":"BUL","wikidata":"Q5002705","wikipedia":"en:Butlers Lane railway station","naptan:AtcoCode":"9100BTLRSLA","west_midlands_fare_zone":"5"}},
{"type":"Feature","geometry":{"type":"Point","coordinates":[-1.7257883,52.3417839]},"properties":{"name":"Lapworth","naptan:AtcoCode":"9100LAPWRTH","network":"National Rail","public_transport":"station","railway":"station","ref:crs":"LPW","wikidata":"Q1904720","wikipedia":"en:Lapworth railway station"}},
{"type":"Feature","geometry":{"type":"Point","coordinates":[-1.7527829,52.3718817]},"properties":{"name":"Dorridge","source":"NPE","network":"National Rail","railway":"station","ref:crs":"DDG","wikidata":"Q2512506","wikipedia":"en:Dorridge railway station","naptan:AtcoCode":"9100DORIDGE","public_transport":"station","west_midlands_fare_zone":"5"}},
{"type":"Feature","geometry":{"type":"Point","coordinates":[-1.7743426,52.3962802]},"properties":{"name":"Widney Manor","network":"National Rail","railway":"station","ref:crs":"WMR","wikidata":"Q2079928","wikipedia":"en:Widney Manor railway station","naptan:AtcoCode":"9100WDNYMNR","west_midlands_fare_zone":"4"}},
{"type":"Feature","geometry":{"type":"Point","coordinates":[-1.7888672,52.4146286]},"properties":{"name":"Solihull","naptan:AtcoCode":"9100SOLIHUL","network":"National Rail","public_transport":"station","railway":"station","ref:crs":"SOL","west_midlands_fare_zone":"4","wikidata":"Q7558107","wikipedia":"en:Solihull railway station"}},
{"type":"Feature","geometry":{"type":"Point","coordinates":[-1.877661,52.4722127]},"properties":{"name":"Bordesley","naptan:AtcoCode":"9100BRDS","network":"National Rail","note":"only open on BCFC match days","public_transport":"station","railway":"station","ref:crs":"BBS","source":"NPE;survey","west_midlands_fare_zone":"2","wikidata":"Q3333114","wikipedia":"en:Bordesley railway station"}},
{"type":"Feature","geometry":{"type":"Point","coordinates":[-1.8994682,52.4836264]},"properties":{"name":"Birmingham Snow Hill","naptan:AtcoCode":"9100BHAMSNH","network":"National Rail","operator":"London Midland","public_transport":"station","railway":"station","ref:crs":"BSW","source":"knowledge","west_midlands_fare_zone":"1","wheelchair":"yes","wikidata":"Q3280363","wikipedia":"en:Birmingham Snow Hill railway station"}},
{"type":"Feature","geometry":{"type":"Point","coordinates":[-2.0658008,52.5305385]},"properties":{"name":"Tipton","source":"NPE","network":"National Rail","railway":"station","ref:crs":"TIP","wikidata":"Q2660685","wikipedia":"en:Tipton railway station","naptan:AtcoCode":"9100TIPTON","west_midlands_fare_zone":"5"}},
{"type":"Feature","geometry":{"type":"Point","coordinates":[-1.9701934,52.4964344]},"properties":{"name":"Smethwick Rolfe Street","network":"National Rail","railway":"station","ref:crs":"SMR","wikidata":"Q2274385","wikipedia":"en:Smethwick Rolfe Street railway station","naptan:AtcoCode":"9100SMTHKRS","west_midlands_fare_zone":"2"}},
{"type":"Feature","geometry":{"type":"Point","coordinates":[-1.9909844,52.5630075]},"properties":{"name":"Bescot Stadium","source":"NPE","network":"National Rail","railway":"station","ref:crs":"BSC","wikidata":"Q4896204","wikipedia":"en:Bescot Stadium railway station","naptan:AtcoCode":"9100BSCTSTA","west_midlands_fare_zone":"4"}},
{"type":"Feature","geometry":{"type":"Point","coordinates":[-1.9759632,52.5522427]},"properties":{"name":"Tame Bridge Parkway","network":"National Rail","railway":"station","ref:crs":"TAB","wikidata":"Q1881868","wikipedia":"en:Tame Bridge Parkway railway station","naptan:AtcoCode":"9100TAMEBDG","west_midlands_fare_zone":"4"}},
{"type":"Feature","geometry":{"type":"Point","coordinates":[-1.9020795,52.5163777]},"properties":{"name":"Perry Barr","train":"yes","network":"National Rail","railway":"station","ref:crs":"PRY","wikidata":"Q2113907","wikipedia":"en:Perry Barr railway station","naptan:AtcoCode":"9100PRYBR","public_transport":"station","wikimedia_commons":"Category:Perry Barr railway station","west_midlands_fare_zone":"2"}},
{"type":"Feature","geometry":{"type":"Point","coordinates":[-2.1340314,52.4476157]},"properties":{"name":"Stourbridge Junction","naptan:AtcoCode":"9100STRBDGJ","network":"National Rail","public_transport":"station","railway":"station","ref:crs":"SBJ","source":"NPE","west_midlands_fare_zone":"5","wikidata":"Q2045806","wikipedia":"en:Stourbridge Junction railway station"}},
{"type":"Feature","geometry":{"type":"Point","coordinates":[-2.1419647,52.4556424]},"properties":{"name":"Stourbridge Town","source":"NPE","network":"National Rail","railway":"station","ref:crs":"SBT","wikidata":"Q2746016","wikipedia":"en:Stourbridge Town railway station","naptan:AtcoCode":"9100STRBDGT","west_midlands_fare_zone":"5"}},
{"type":"Feature","geometry":{"type":"Point","coordinates":[-2.1160497,52.4599417]},"properties":{"name":"Lye","source":"NPE","network":"National Rail","railway":"station","ref:crs":"LYE","wikidata":"Q2044178","wikipedia":"en:Lye railway station","naptan:AtcoCode":"9100LYEE","west_midlands_fare_zone":"5"}},
{"type":"Feature","geometry":{"type":"Point","coordinates":[-2.0906252,52.4694408]},"properties":{"name":"Cradley Heath","source":"NPE","network":"National Rail","railway":"station","ref:crs":"CRA","wikidata":"Q1924927","wikipedia":"en:Cradley Heath railway station","naptan:AtcoCode":"9100CRADLYH","west_midlands_fare_zone":"5"}},
{"type":"Feature","geometry":{"type":"Point","coordinates":[-2.0308221,52.4774198]},"properties":{"name":"Rowley Regis","naptan:AtcoCode":"9100ROWLEYR","network":"National Rail","operator":"London Midland","railway":"station","ref:crs":"ROW","source":"NPE","west_midlands_fare_zone":"3","wikidata":"Q2497234","wikipedia":"en:Rowley Regis railway station"}},
{"type":"Feature","geometry":{"type":"Point","coordinates":[-2.0054314,52.4934857]},"properties":{"name":"Langley Green","source":"NPE","network":"National Rail","railway":"station","ref:crs":"LGG","wikidata":"Q2390772","wikipedia":"en:Langley Green railway station","naptan:AtcoCode":"9100LGRN","west_midlands_fare_zone":"3"}},
{"type":"Feature","geometry":{"type":"Point","coordinates":[-1.8110345,52.4851563]},"properties":{"name":"Stechford","source":"NPE","network":"National Rail","railway":"station","ref:crs":"SCF","wikidata":"Q2419238","wikipedia":"en:Stechford railway station","naptan:AtcoCode":"9100STECHFD","west_midlands_fare_zone":"3"}},
{"type":"Feature","geometry":{"type":"Point","coordinates":[-1.786031,52.4805217]},"properties":{"name":"Lea Hall","naptan:AtcoCode":"9100LEAHALL","network":"National Rail","railway":"station","ref:crs":"LEH","west_midlands_fare_zone":"3","wikidata":"Q2499943","wikipedia":"en:Lea Hall railway station"}},
{"type":"Feature","geometry":{"type":"Point","coordinates":[-1.6997231,52.4286358]},"properties":{"name":"Hampton-in-Arden","naptan:AtcoCode":"9100HMPTNIA","network":"National Rail","public_transport":"station","railway":"station","ref:crs":"HIA","source":"NPE","west_midlands_fare_zone":"5","wikidata":"Q2728174","wikipedia":"en:Hampton-in-Arden railway station"}},
{"type":"Feature","geometry":{"type":"Point","coordinates":[-1.8545892,52.4210127]},"properties":{"name":"Yardley Wood","source":"NPE","network":"National Rail","railway":"station","ref:crs":"YRD","wikidata":"Q2248035","wikipedia":"en:Yardley Wood railway station","naptan:AtcoCode":"9100YRDLYWD","west_midlands_fare_zone":"3"}},
{"type":"Feature","geometry":{"type":"Point","coordinates":[-1.8314247,52.545628]},"properties":{"name":"Wylde Green","network":"National Rail","railway":"station","ref:crs":"WYL","wikidata":"Q1840659","wikipedia":"en:Wylde Green railway station","wheelchair":"yes","naptan:AtcoCode":"9100WYGN","wheelchair:description":"Book ramps before travelling.","west_midlands_fare_zone":"4"}},
{"type":"Feature","geometry":{"type":"Point","coordinates":[-1.9848978,52.5845601]},"properties":{"name":"Walsall","naptan:AtcoCode":"9100WALSALL","network":"National Rail","public_transport":"station","railway":"station","ref:crs":"WSL","source":"NPE","west_midlands_fare_zone":"4","wikidata":"Q2586719","wikipedia":"en:Walsall railway station"}},
{"type":"Feature","geometry":{"type":"Point","coordinates":[-1.8451595,52.4035314]},"properties":{"name":"Shirley","source":"survey","network":"National Rail","railway":"station","ref:crs":"SRL","wikidata":"Q1815915","wikipedia":"en:Shirley railway station (England)","naptan:AtcoCode":"9100SHIRLEY","west_midlands_fare_zone":"4"}},
{"type":"Feature","geometry":{"type":"Point","coordinates":[-1.8444546,52.3443845]},"properties":{"name":"Wood End","source":"NPE","network":"National Rail","railway":"station","ref:crs":"WDE","wikidata":"Q2519103","wikipedia":"en:Wood End railway station","request_stop":"yes","naptan:AtcoCode":"9100WDND"}},
{"type":"Feature","geometry":{"type":"Point","coordinates":[-1.8514322,52.3918816]},"properties":{"name":"Whitlocks End","source":"NPE","network":"National Rail","railway":"station","ref:crs":"WTE","wikidata":"Q2133242","wikipedia":"en:Whitlocks End railway station","naptan:AtcoCode":"9100WHLE","west_midlands_fare_zone":"4"}},
{"type":"Feature","geometry":{"type":"Point","coordinates":[-2.0495079,52.524465]},"properties":{"name":"Dudley Port","source":"Survey","network":"National Rail","railway":"station","ref:crs":"DDP","wikidata":"Q1980286","wikipedia":"en:Dudley Port railway station","naptan:AtcoCode":"9100DUDLPT","west_midlands_fare_zone":"4"}},
{"type":"Feature","geometry":{"type":"Point","coordinates":[-1.9140956,52.4897513]},"properties":{"name":"Jewellery Quarter","network":"National Rail","railway":"station","ref:crs":"JEQ","wikidata":"Q1893132","wikipedia":"en:Jewellery Quarter station","naptan:AtcoCode":"9100BHAMJEW","public_transport":"station","west_midlands_fare_zone":"1"}},
{"type":"Feature","geometry":{"type":"Point","coordinates":[-2.01168,52.5085779]},"properties":{"name":"Sandwell and Dudley","network":"National Rail","railway":"station","ref:crs":"SAD","wikidata":"Q3404216","wikipedia":"en:Sandwell and Dudley railway station","naptan:AtcoCode":"9100SNDWDUD","west_midlands_fare_zone":"4"}},
{"type":"Feature","geometry":{"type":"Point","coordinates":[-1.964545,52.5055248]},"properties":{"name":"The Hawthorns","network":"National Rail","railway":"station","ref:crs":"THW","wikidata":"Q2130925","wikipedia":"en:The Hawthorns station","naptan:AtcoCode":"9100HNDSHWT","west_midlands_fare_zone":"2"}},
{"type":"Feature","geometry":{"type":"Point","coordinates":[-2.0175675,52.6253158]},"properties":{"name":"Bloxwich North","network":"National Rail","railway":"station","ref:crs":"BWN","wikidata":"Q2570127","wikipedia":"en:Bloxwich North railway station","naptan:AtcoCode":"9100BLOXN","west_midlands_fare_zone":"5"}},
{"type":"Feature","geometry":{"type":"Point","coordinates":[-1.4947943,52.4468669]},"properties":{"name":"Coventry Arena","naptan:AtcoCode":"9100COVAREN","network":"National Rail","platforms":"2","public_transport":"station","railway":"station","ref:crs":"CAA","wikidata":"Q5179044","wikipedia":"en:Coventry Arena railway station"}},
{"type":"Feature","geometry":{"type":"Point","coordinates":[-2.0116594,52.6184313]},"properties":{"name":"Bloxwich","network":"National Rail","railway":"station","ref:crs":"BLX","wikidata":"Q1993493","wikipedia":"en:Bloxwich railway station","naptan:AtcoCode":"9100BLOXWCH","west_midlands_fare_zone":"5"}},
{"type":"Feature","geometry":{"type":"Point","coordinates":[-1.8720459,52.5044169]},"properties":{"name":"Aston","network":"National Rail","railway":"station","ref:crs":"AST","wikidata":"Q1978485","wikipedia":"en:Aston railway station","naptan:AtcoCode":"9100ASTON","west_midlands_fare_zone":"2"}},
{"type":"Feature","geometry":{"type":"Point","coordinates":[-1.9529961,52.66269]},"properties":{"name":"Brownhills West","usage":"tourism","railway":"station","wikidata":"Q4976519"}},
{"type":"Feature","geometry":{"type":"Point","coordinates":[-1.932615,52.4142407]},"properties":{"name":"Kings Norton","network":"National Rail","railway":"station","ref:crs":"KNN","wikidata":"Q2192189","wikipedia":"en:Kings Norton railway station","wheelchair":"yes","naptan:AtcoCode":"9100KNORTON","west_midlands_fare_zone":"3"}},
{"type":"Feature","geometry":{"type":"Point","coordinates":[-2.1199751,52.5876728]},"properties":{"name":"Wolverhampton","naptan:AtcoCode":"9100WVRMPTN","network":"National Rail","old_name":"Wolverhampton High Level","public_transport":"station","railway":"station","ref:crs":"WVH","west_midlands_fare_zone":"5","wheelchair":"yes","wikidata":"Q2361188","wikipedia":"en:Wolverhampton railway station"}},
{"type":"Feature","geometry":{"type":"Point","coordinates":[-1.9366088,52.451179]},"properties":{"name":"University","naptan:AtcoCode":"9100UNVRSYB","network":"National Rail","public_transport":"station","railway":"station","ref:crs":"UNI","source":"knowledge","west_midlands_fare_zone":"2","wikidata":"Q2158861","wikipedia":"en:University railway station (England)"}},
{"type":"Feature","geometry":{"type":"Point","coordinates":[-1.9651246,52.4082951]},"properties":{"name":"Northfield","network":"National Rail","railway":"station","ref:crs":"NFD","wikidata":"Q2297133","wikipedia":"en:Northfield railway station","wheelchair":"yes","naptan:AtcoCode":"9100NRTF","public_transport":"station","west_midlands_fare_zone":"4"}},
{"type":"Feature","geometry":{"type":"Point","coordinates":[-1.5135474,52.400739]},"properties":{"addr:city":"Coventry","addr:postcode":"CV1 2GT","addr:street":"Station Square","name":"Coventry","naptan:AtcoCode":"9100COVNTRY","network":"National Rail","operator":"Virgin Trains","platforms":"4","public_transport":"station","railway":"station","ref:crs":"COV","start_date":"1962","west_midlands_fare_zone":"5","wheelchair":"5","wikidata":"Q2058701","wikipedia":"en:Coventry railway station"}},
{"type":"Feature","geometry":{"type":"Point","coordinates":[-1.7253357,52.4508239]},"properties":{"name":"Birmingham International","train":"yes","network":"National Rail","railway":"station","ref:crs":"BHI","wikidata":"Q579308","wikipedia":"en:Birmingham International railway station","wheelchair":"yes","naptan:AtcoCode":"9100BHAMINT","public_transport":"station"}},
{"type":"Feature","geometry":{"type":"Point","coordinates":[-1.898694,52.4776459]},"properties":{"name":"Birmingham New Street","naptan:AtcoCode":"9100BHAMNWS","network":"National Rail","operator":"Network Rail","public_transport":"station","railway":"station","ref:crs":"BHM","train":"yes","west_midlands_fare_zone":"1","wheelchair":"yes","wikidata":"Q683063","wikipedia":"en:Birmingham New Street railway station"}},
{"type":"Feature","geometry":{"type":"Point","coordinates":[-1.6417904,52.3960838]},"properties":{"name":"Berkswell","naptan:AtcoCode":"9100BKSWELL","network":"National Rail","public_transport":"station","railway":"station","ref:crs":"BKW","wikipedia":"en:Berkswell railway station"}},
{"type":"Feature","geometry":{"type":"Point","coordinates":[-1.9807611,52.3970107]},"properties":{"name":"Longbridge","train":"yes","network":"National Rail","railway":"station","ref:crs":"LOB","wikidata":"Q2257761","addr:city":"Birmingham","wikipedia":"en:Longbridge railway station","addr:street":"Longbridge Lane","naptan:AtcoCode":"9100LONB","public_transport":"station","west_midlands_fare_zone":"4"}},
{"type":"Feature","geometry":{"type":"Point","coordinates":[-1.5972825,52.3951906]},"properties":{"name":"Tile Hill","naptan:AtcoCode":"9100TILEH","network":"National Rail","note":"NPE says the station is to the East of the bridge. It isn't.","public_transport":"station","railway":"station","ref:crs":"THL","source":"survey","west_midlands_fare_zone":"5","wikidata":"Q5493001","wikipedia":"en:Tile Hill railway station"}},
{"type":"Feature","geometry":{"type":"Point","coordinates":[-1.9804372,52.5021195]},"properties":{"name":"Smethwick Galton Bridge","source":"NPE","network":"National Rail","railway":"station","ref:crs":"SGB","wikidata":"Q2450549","wikipedia":"en:Smethwick Galton Bridge railway station","naptan:AtcoCode":"9100GALTILL","west_midlands_fare_zone":"2"}},
{"type":"Feature","geometry":{"type":"Point","coordinates":[-1.9355913,52.4418625]},"properties":{"name":"Selly Oak","source":"NPE","network":"National Rail","railway":"station","ref:crs":"SLY","wikidata":"Q2655588","wikipedia":"en:Selly Oak railway station","naptan:AtcoCode":"9100SELYOAK","west_midlands_fare_zone":"2"}},
{"type":"Feature","geometry":{"type":"Point","coordinates":[-1.9266683,52.4273889]},"properties":{"name":"Bournville","source":"NPE","network":"National Rail","railway":"station","ref:crs":"BRV","wikidata":"Q2072620","wikipedia":"en:Bournville railway station","wheelchair":"yes","naptan:AtcoCode":"9100BOURNVL","west_midlands_fare_zone":"3"}},
{"type":"Feature","geometry":{"type":"Point","coordinates":[-1.9130708,52.4710941]},"properties":{"name":"Five Ways","network":"National Rail","railway":"station","ref:crs":"FWY","wikidata":"Q2209211","wikipedia":"en:Five Ways railway station","wheelchair":"yes","naptan:AtcoCode":"9100FIVEWYS","west_midlands_fare_zone":"1"}},
{"type":"Feature","geometry":{"type":"Point","coordinates":[-1.8593194,52.4636809]},"properties":{"name":"Small Heath","source":"survey 2013","network":"National Rail","railway":"station","ref:crs":"SMA","wikidata":"Q1986238","wikipedia":"en:Small Heath railway station","wheelchair":"no","naptan:AtcoCode":"9100SMLHTH","west_midlands_fare_zone":"2"}},
{"type":"Feature","geometry":{"type":"Point","coordinates":[-1.8385604,52.4539238]},"properties":{"name":"Tyseley","network":"National Rail","railway":"station","ref:crs":"TYS","wikidata":"Q7861740","wikipedia":"en:Tyseley railway station","naptan:AtcoCode":"9100TYSL","public_transport":"station","west_midlands_fare_zone":"2"}},
{"type":"Feature","geometry":{"type":"Point","coordinates":[-1.8192378,52.4495299]},"properties":{"name":"Acocks Green","network":"National Rail","railway":"station","ref:crs":"ACG","uic_ref":"7000027","not:name":"Acock's Green","wikidata":"Q2136949","wikipedia":"en:Acocks Green railway station","naptan:AtcoCode":"9100ACOCKSG","public_transport":"station","west_midlands_fare_zone":"3"}},
{"type":"Feature","geometry":{"type":"Point","coordinates":[-1.9288687,52.5309945]},"properties":{"name":"Hamstead","naptan:AtcoCode":"9100HAMSTED","network":"National Rail","old_name":"Great Barr Railway Station","public_transport":"station","railway":"station","ref:crs":"HSD","source":"NPE","west_midlands_fare_zone":"3","wheelchair":"yes","wikidata":"Q2382124","wikipedia":"en:Hamstead railway station"}},
{"type":"Feature","geometry":{"type":"Point","coordinates":[-1.8712807,52.4884888]},"properties":{"name":"Duddeston","naptan:AtcoCode":"9100DUDESTN","network":"National Rail","public_transport":"station","railway":"station","ref:crs":"DUD","source":"NPE","west_midlands_fare_zone":"2","wikidata":"Q3100763","wikipedia":"en:Duddeston railway station"}},
{"type":"Feature","geometry":{"type":"Point","coordinates":[-1.8436873,52.454433]},"properties":{"name":"Warwick Road","train":"yes","usage":"tourism","railway":"station","public_transport":"station"}},
{"type":"Feature","geometry":{"type":"Point","coordinates":[-1.8839327,52.512194]},"properties":{"name":"Witton","source":"NPE","network":"National Rail","railway":"station","ref:crs":"WTT","wikidata":"Q2791793","wikipedia":"en:Witton railway station","wheelchair":"yes","naptan:AtcoCode":"9100WITTON","west_midlands_fare_zone":"2"}},
{"type":"Feature","geometry":{"type":"Point","coordinates":[-1.8614034,52.3665989]},"properties":{"name":"Earlswood","source":"NPE","network":"National Rail","railway":"station","ref:crs":"EWD","wikidata":"Q2243841","wikipedia":"en:Earlswood railway station (West Midlands)","naptan:AtcoCode":"9100ELWD","west_midlands_fare_zone":"5"}},
{"type":"Feature","geometry":{"type":"Point","coordinates":[-1.8446597,52.6043776]},"properties":{"name":"Blake Street","naptan:AtcoCode":"9100BLKST","network":"National Rail","railway":"station","ref:crs":"BKT","west_midlands_fare_zone":"5","wikidata":"Q2454578","wikipedia":"en:Blake Street railway station"}},
{"type":"Feature","geometry":{"type":"Point","coordinates":[-2.0561814,52.4707939]},"properties":{"name":"Old Hill","naptan:AtcoCode":"9100OLHL","network":"National Rail","railway":"station","ref:crs":"OHL","source":"NPE","west_midlands_fare_zone":"4","wikidata":"Q280399","wikipedia":"en:Old Hill railway station"}},
{"type":"Feature","geometry":{"type":"Point","coordinates":[-2.0858098,52.5453191]},"properties":{"name":"Coseley","naptan:AtcoCode":"9100COSELEY","network":"National Rail","public_transport":"station","railway":"station","ref:crs":"CSY","west_midlands_fare_zone":"5","wikidata":"Q2239840","wikipedia":"en:Coseley railway station"}},
{"type":"Feature","geometry":{"type":"Point","coordinates":[-1.8362585,52.444262]},"properties":{"name":"Spring Road","naptan:AtcoCode":"9100SPRD","network":"National Rail","railway":"station","ref:crs":"SRI","source":"NPE; survey 2013","west_midlands_fare_zone":"3","wikidata":"Q2358217","wikipedia":"en:Spring Road railway station"}},
{"type":"Feature","geometry":{"type":"Point","coordinates":[-1.8551418,52.4830865]},"properties":{"name":"Adderley Park","naptan:AtcoCode":"9100ADERLYP","network":"National Rail","railway":"station","ref:crs":"ADD","source":"NPE","uic_ref":"7000038","west_midlands_fare_zone":"2","wheelchair":"no","wikidata":"Q2914146","wikipedia":"en:Adderley Park railway station"}},
{"type":"Feature","geometry":{"type":"Point","coordinates":[-1.8455704,52.4369843]},"properties":{"name":"Hall Green","naptan:AtcoCode":"9100HLGN","network":"National Rail","railway":"station","ref:crs":"HLG","source":"NPE; survey 2013","west_midlands_fare_zone":"3","wikidata":"Q3543527","wikipedia":"en:Hall Green railway station"}},
{"type":"Feature","geometry":{"type":"Point","coordinates":[-1.804385,52.4384167]},"properties":{"name":"Olton","naptan:AtcoCode":"9100OLTON","network":"National Rail","platforms":"2","public_transport":"station","railway":"station","ref:crs":"OLT","west_midlands_fare_zone":"4","wikidata":"Q4314461","wikipedia":"en:Olton railway station"}},
{"type":"Feature","geometry":{"type":"Point","coordinates":[-1.8919518,52.4789357]},"properties":{"name":"Birmingham Moor Street","naptan:AtcoCode":"9100BHAMMRS","network":"National Rail","operator":"Chiltern Railways","public_transport":"station","railway":"station","ref:crs":"BMO","source":"knowledge;survey 2013","start_date":"1909","west_midlands_fare_zone":"1","wheelchair":"yes","wikidata":"Q800533","wikipedia":"en:Birmingham Moor Street railway station"}},
{"type":"Feature","geometry":{"type":"Point","coordinates":[-1.7550948,52.4668809]},"properties":{"name":"Marston Green","naptan:AtcoCode":"9100MRSTNGR","network":"National Rail","public_transport":"station","railway":"station","ref:crs":"MGN","source":"NPE","train":"yes","west_midlands_fare_zone":"4","wikidata":"Q2856492","wikipedia":"en:Marston Green railway station"}},
{"type":"Feature","geometry":{"type":"Point","coordinates":[-1.8280314,52.5795454]},"properties":{"name":"Four Oaks","naptan:AtcoCode":"9100FOUROKS","network":"National Rail","railway":"station","ref:crs":"FOK","west_midlands_fare_zone":"5","wikidata":"Q2230176","wikipedia":"en:Four Oaks railway station"}}
]}
