{"type":"FeatureCollection","features":[
{"type":"Feature","geometry":{"type":"Point","coordinates":[-1.480623,53.6628109]},"properties":{"name":"Sandal and Agbrigg","naptan:AtcoCode":"9100SABR","network":"National Rail","public_transport":"station","railway":"station","ref:crs":"SNA","wikidata":"Q2018294","wikipedia":"en:Sandal and Agbrigg railway station"}},
{"type":"Feature","geometry":{"type":"Point","coordinates":[-1.9524816,53.8149218]},"properties":{"name":"Oxenhope","public_transport":"station","railway":"station","usage":"tourism","wikidata":"Q7115190","wikipedia":"en:Oxenhope railway station"}},
{"type":"Feature","geometry":{"type":"Point","coordinates":[-1.5779212,53.8121567]},"properties":{"name":"Burley Park","network":"National Rail","railway":"station","ref:crs":"BUY","wikidata":"Q3298380","platforms":"2","wikipedia":"en:Burley Park railway station","naptan:AtcoCode":"9100BRLEYPK","public_transport":"station"}},
{"type":"Feature","geometry":{"type":"Point","coordinates":[-1.8007743,53.6348054]},"properties":{"name":"Lockwood","naptan:AtcoCode":"9100LKWD","network":"National Rail","railway":"station","ref:crs":"LCK","source":"npe","wikipedia":"en:Lockwood railway station"}},
{"type":"Feature","geometry":{"type":"Point","coordinates":[-1.7935857,53.6210459]},"properties":{"name":"Berry Brow","naptan:AtcoCode":"9100BERRYB","network":"National Rail","operator":"Northern","railway":"station","ref:crs":"BBW","source":"npe","wikipedia":"en:Berry Brow railway station"}},
{"type":"Feature","geometry":{"type":"Point","coordinates":[-1.780828,53.6082445]},"properties":{"name":"Honley","naptan:AtcoCode":"9100HONLEY","network":"National Rail","railway":"station","ref:crs":"HOY","source":"npe","wikipedia":"en:Honley railway station"}},
{"type":"Feature","geometry":{"type":"Point","coordinates":[-1.769846,53.5970891]},"properties":{"name":"Brockholes","naptan:AtcoCode":"9100BKHLS","network":"National Rail","railway":"station","ref:crs":"BHS","source":"npe","wikipedia":"en:Brockholes railway station"}},
{"type":"Feature","geometry":{"type":"Point","coordinates":[-1.663204,53.5728721]},"properties":{"name":"Denby Dale","naptan:AtcoCode":"9100DNDL","network":"National Rail","public_transport":"station","railway":"station","ref:crs":"DBD","wikipedia":"en:Denby Dale railway station"}},
{"type":"Feature","geometry":{"type":"Point","coordinates":[-1.9488416,53.8313183]},"properties":{"name":"Haworth","public_transport":"station","railway":"station","usage":"tourism","wikidata":"Q5685412","wikipedia":"en:Haworth railway station"}},
{"type":"Feature","geometry":{"type":"Point","coordinates":[-1.9419575,53.8413266]},"properties":{"name":"Oakworth","public_transport":"station","railway":"station","source":"OS 1:25k","usage":"tourism","wikidata":"Q7074337","wikipedia":"en:Oakworth railway station"}},
{"type":"Feature","geometry":{"type":"Point","coordinates":[-1.924448,53.8459194]},"properties":{"name":"Damems","railway":"station","usage":"tourism","wikidata":"Q5212155","wikipedia":"en:Damems railway station"}},
{"type":"Feature","geometry":{"type":"Point","coordinates":[-1.9151443,53.8536646]},"properties":{"name":"Ingrow (West)","public_transport":"station","railway":"station","usage":"tourism","wikidata":"Q6033350","wikipedia":"en:Ingrow (West) railway station"}},
{"type":"Feature","geometry":{"type":"Point","coordinates":[-1.7536925,53.8501789]},"properties":{"name":"Baildon","source":"NPE","network":"National Rail","railway":"station","ref:crs":"BLD","wikidata":"Q4475770","wikipedia":"en:Baildon railway station","naptan:AtcoCode":"9100BAILDON"}},
{"type":"Feature","geometry":{"type":"Point","coordinates":[-1.5915827,53.7496185]},"properties":{"name":"Morley","source":"gpx","network":"National Rail","railway":"station","ref:crs":"MLY","old_name":"Morley Low","wikidata":"Q2079875","platforms":"2","wikipedia":"en:Morley railway station","naptan:AtcoCode":"9100MRLY"}},
{"type":"Feature","geometry":{"type":"Point","coordinates":[-1.6557662,53.6755716]},"properties":{"name":"Ravensthorpe","naptan:AtcoCode":"9100RTHP","network":"National Rail","railway":"station","ref:crs":"RVN","wikipedia":"en:Ravensthorpe railway station"}},
{"type":"Feature","geometry":{"type":"Point","coordinates":[-1.3189035,53.6940034]},"properties":{"name":"Pontefract Tanshelf","train":"yes","source":"NPE","network":"National Rail","railway":"station","ref:crs":"POT","wikidata":"Q3043294","addr:city":"Pontefract","wikipedia":"en:Pontefract Tanshelf railway station","addr:street":"Park Road","addr:postcode":"WF8 4PQ","naptan:AtcoCode":"9100PTFTTSF","public_transport":"station"}},
{"type":"Feature","geometry":{"type":"Point","coordinates":[-1.2853495,53.5948393]},"properties":{"name":"South Elmsall","naptan:AtcoCode":"9100SELMSAL","network":"National Rail","public_transport":"station","railway":"station","ref:crs":"SES","source":"NPE","wikidata":"Q2431458","wikipedia":"en:South Elmsall railway station"}},
{"type":"Feature","geometry":{"type":"Point","coordinates":[-1.5877727,53.7680337]},"properties":{"name":"Cottingley","source":"gpx","network":"National Rail","railway":"station","ref:crs":"COT","wikidata":"Q3033284","wikipedia":"en:Cottingley railway station","naptan:AtcoCode":"9100COTNGLY","public_transport":"station"}},
{"type":"Feature","geometry":{"type":"Point","coordinates":[-1.6113061,53.5971303]},"properties":{"name":"Clayton West","network":"Kirklees Light Railway","operator":"Kirklees Light Railway","public_transport":"station","railway":"station","train":"yes","usage":"tourism"}},
{"type":"Feature","geometry":{"type":"Point","coordinates":[-1.6528756,53.5954363]},"properties":{"name":"Skelmanthorpe","network":"Kirklees Light Railway","operator":"Kirklees Light Railway","public_transport":"station","railway":"station","train":"yes","usage":"tourism"}},
{"type":"Feature","geometry":{"type":"Point","coordinates":[-1.6856984,53.5872189]},"properties":{"name":"Shelley","network":"Kirklees Light Railway","operator":"Kirklees Light Railway","public_transport":"station","railway":"station","train":"yes","usage":"tourism"}},
{"type":"Feature","geometry":{"type":"Point","coordinates":[-1.6928646999999999,53.6714301]},"properties":{"name":"Mirfield","naptan:AtcoCode":"9100MIRFILD","network":"National Rail","note":"checkme, the 1852-base mapping doesn't fit too well","operator":"Northern","platforms":"3","railway":"station","ref:crs":"MIR","source":"NPE","wikipedia":"en:Mirfield railway station"}},
{"type":"Feature","geometry":{"type":"Point","coordinates":[-1.7524631,53.6682922]},"properties":{"name":"Deighton","naptan:AtcoCode":"9100DEIGHTN","network":"National Rail","railway":"station","ref:crs":"DHN","wikipedia":"en:Deighton railway station"}},
{"type":"Feature","geometry":{"type":"Point","coordinates":[-1.374636,53.6326086]},"properties":{"name":"Fitzwilliam","naptan:AtcoCode":"9100FITZWLM","network":"National Rail","public_transport":"station","railway":"station","ref:crs":"FZW","toilets:wheelchair":"no","wheelchair":"yes","wikidata":"Q2666065","wikipedia":"en:Fitzwilliam railway station"}},
{"type":"Feature","geometry":{"type":"Point","coordinates":[-1.5121653,53.6763613]},"properties":{"usage":"tourism","railway":"station","public_transport":"station"}},
{"type":"Feature","geometry":{"type":"Point","coordinates":[-1.5364312,53.7614598]},"properties":{"name":"Park Halt","train":"yes","usage":"tourism","network":"Middleton Railway","railway":"station","operator":"The Middleton Railway Trust","wikidata":"Q7137761","wikipedia":"en:Park Halt railway station","source:name":"official_website","public_transport":"station"}},
{"type":"Feature","geometry":{"type":"Point","coordinates":[-1.3997144,53.676165]},"properties":{"name":"Streethouse","naptan:AtcoCode":"9100STHS","network":"National Rail","railway":"station","ref:crs":"SHC","wheelchair":"yes","wikidata":"Q2065164","wikipedia":"en:Streethouse railway station"}},
{"type":"Feature","geometry":{"type":"Point","coordinates":[-1.7736115,53.8335128]},"properties":{"name":"Shipley","naptan:AtcoCode":"9100SHPY","network":"National Rail","railway":"station","ref:crs":"SHY","wikidata":"Q4762414","wikipedia":"en:Shipley railway station"}},
{"type":"Feature","geometry":{"type":"Point","coordinates":[-1.382282,53.7965742]},"properties":{"name":"Garforth","network":"National Rail","railway":"station","ref:crs":"GRF","wikidata":"Q2324929","wikipedia":"en:Garforth railway station","naptan:AtcoCode":"9100GARFRTH","public_transport":"station"}},
{"type":"Feature","geometry":{"type":"Point","coordinates":[-1.3584984,53.6790483]},"properties":{"name":"Featherstone","naptan:AtcoCode":"9100FTHRSTN","network":"National Rail","public_transport":"station","railway":"station","ref:crs":"FEA","source":"NPE","wikidata":"Q5439656","wikipedia":"en:Featherstone railway station"}},
{"type":"Feature","geometry":{"type":"Point","coordinates":[-1.4435652,53.757064]},"properties":{"name":"Woodlesford","network":"National Rail","railway":"station","ref:crs":"WDS","wikidata":"Q2432424","wikipedia":"en:Woodlesford railway station","naptan:AtcoCode":"9100WDLESFD","public_transport":"station"}},
{"type":"Feature","geometry":{"type":"Point","coordinates":[-1.6372217,53.8053522]},"properties":{"name":"Bramley","naptan:AtcoCode":"9100BRMLYSR","network":"National Rail","public_transport":"station","railway":"station","ref:crs":"BLE","ref:tiploc":"BRMLYSR","wikidata":"Q2142080","wikipedia":"en:Bramley railway station (West Yorkshire)"}},
{"type":"Feature","geometry":{"type":"Point","coordinates":[-1.5389272,53.7738227]},"properties":{"name":"Moor Road","train":"yes","usage":"tourism","network":"Middleton Railway","railway":"station","operator":"The Middleton Railway Trust","wikidata":"Q6908054","wikipedia":"en:Moor Road (Leeds) railway station","public_transport":"station"}},
{"type":"Feature","geometry":{"type":"Point","coordinates":[-1.5307774,53.5880123]},"properties":{"name":"Darton","naptan:AtcoCode":"9100DRTN","network":"National Rail","public_transport":"station","railway":"station","ref:crs":"DRT","source":"NPE","wheelchair":"limited","wikidata":"Q1894541","wikipedia":"en:Darton railway station"}},
{"type":"Feature","geometry":{"type":"Point","coordinates":[-1.634293,53.5949206]},"properties":{"name":"Cuckoos Nest","operator":"Kirklees Light Railway","public_transport":"station","railway":"station","train":"yes","usage":"tourism"}},
{"type":"Feature","geometry":{"type":"Point","coordinates":[-1.7974707,53.9257438]},"properties":{"name":"Ben Rhydding","source":"OS 1:25k;Bing","network":"National Rail","railway":"station","ref:crs":"BEY","wikidata":"Q4886351","wikipedia":"en:Ben Rhydding railway station","naptan:AtcoCode":"9100BNRHYDN","public_transport":"station"}},
{"type":"Feature","geometry":{"type":"Point","coordinates":[-1.7531866,53.9079756]},"properties":{"name":"Burley-in-Wharfedale","network":"National Rail","railway":"station","ref:crs":"BUW","wikidata":"Q2144142","wikipedia":"en:Burley-in-Wharfedale railway station","naptan:AtcoCode":"9100BURLYIW"}},
{"type":"Feature","geometry":{"type":"Point","coordinates":[-1.7151179,53.8760658]},"properties":{"name":"Guiseley","name:lt":"Gaislis","network":"National Rail","railway":"station","ref:crs":"GSY","wikidata":"Q2407772","wikipedia":"en:Guiseley railway station","naptan:AtcoCode":"9100GUISELY","public_transport":"station"}},
{"type":"Feature","geometry":{"type":"Point","coordinates":[-1.7354513,53.8923633]},"properties":{"name":"Menston","is_in":"UK, England, West Yorkshire, Menston","network":"National Rail","railway":"station","ref:crs":"MNN","wikidata":"Q2092823","wikipedia":"en:Menston railway station","naptan:AtcoCode":"9100MENSTON"}},
{"type":"Feature","geometry":{"type":"Point","coordinates":[-1.7689584,53.8203108]},"properties":{"name":"Frizinghall","network":"National Rail","railway":"station","ref:crs":"FZH","wikidata":"Q2568587","wikipedia":"en:Frizinghall railway station","naptan:AtcoCode":"9100FRZNGHL"}},
{"type":"Feature","geometry":{"type":"Point","coordinates":[-1.7793363,53.6981649]},"properties":{"name":"Brighouse","name:lt":"Brighausas","naptan:AtcoCode":"9100BRHOUSE","network":"National Rail","public_transport":"station","railway":"station","ref:crs":"BGH","wikipedia":"en:Brighouse railway station"}},
{"type":"Feature","geometry":{"type":"Point","coordinates":[-1.7048254,53.5887533]},"properties":{"name":"Shepley","naptan:AtcoCode":"9100SPLY","network":"National Rail","public_transport":"station","railway":"station","ref:crs":"SPY","source":"NPE","wikipedia":"en:Shepley railway station"}},
{"type":"Feature","geometry":{"type":"Point","coordinates":[-1.7232849,53.5941286]},"properties":{"name":"Stocksmoor","naptan:AtcoCode":"9100STKSMR","network":"National Rail","public_transport":"station","railway":"station","ref:crs":"SSM","source":"NPE","wikipedia":"en:Stocksmoor railway station"}},
{"type":"Feature","geometry":{"type":"Point","coordinates":[-2.1047674,53.6965305]},"properties":{"name":"Walsden","train":"yes","network":"National Rail","railway":"station","ref:crs":"WDN","wikipedia":"en:Walsden railway station","naptan:AtcoCode":"9100WDEN","public_transport":"station"}},
{"type":"Feature","geometry":{"type":"Point","coordinates":[-1.837164,53.8487153]},"properties":{"name":"Bingley","naptan:AtcoCode":"9100BNGY","network":"National Rail","public_transport":"station","railway":"station","ref:crs":"BIY","source":"GPX","wikidata":"Q672653","wikipedia":"en:Bingley railway station"}},
{"type":"Feature","geometry":{"type":"Point","coordinates":[-1.844476,53.858299]},"properties":{"name":"Crossflatts","network":"National Rail","railway":"station","ref:crs":"CFL","wikidata":"Q1856288","wikipedia":"en:Crossflatts railway station","naptan:AtcoCode":"9100CFLATTS"}},
{"type":"Feature","geometry":{"type":"Point","coordinates":[-1.9013628,53.867932]},"properties":{"name":"Keighley","network":"National Rail","railway":"station","ref:crs":"KEI","wikidata":"Q518724","wikipedia":"en:Keighley railway station","wheelchair":"limited","naptan:AtcoCode":"9100KEIGHLY"}},
{"type":"Feature","geometry":{"type":"Point","coordinates":[-1.5944828,53.8180372]},"properties":{"name":"Headingley","source":"NPE","network":"National Rail","railway":"station","ref:crs":"HDY","old_name":"Kirkstall","wikidata":"Q2802879","platforms":"2","wikipedia":"en:Headingley railway station","naptan:AtcoCode":"9100HEDNGLY"}},
{"type":"Feature","geometry":{"type":"Point","coordinates":[-2.0088814,53.7376399]},"properties":{"internet_access":"no","name":"Hebden Bridge","naptan:AtcoCode":"9100HBDNBDG","network":"National Rail","public_transport":"station","railway":"station","ref:crs":"HBD","wheelchair":"yes","wikidata":"Q3273315","wikipedia":"en:Hebden Bridge railway station"}},
{"type":"Feature","geometry":{"type":"Point","coordinates":[-1.6302169,53.8477524]},"properties":{"addr:postcode":"LS18 5NL","name":"Horsforth","naptan:AtcoCode":"9100HSFT","network":"National Rail","public_transport":"station","railway":"station","ref:crs":"HRS","wikidata":"Q2989114","wikipedia":"en:Horsforth railway station"}},
{"type":"Feature","geometry":{"type":"Point","coordinates":[-1.9818986,53.7291686]},"properties":{"layer":"2","name":"Mytholmroyd","naptan:AtcoCode":"9100MYTHLMR","network":"National Rail","public_transport":"station","railway":"station","ref:crs":"MYT","wikipedia":"en:Mytholmroyd railway station"}},
{"type":"Feature","geometry":{"type":"Point","coordinates":[-1.7907973,53.8385598]},"properties":{"name":"Saltaire","source":"NPE","network":"National Rail","railway":"station","ref:crs":"SAE","wikidata":"Q3117450","wikipedia":"en:Saltaire railway station","naptan:AtcoCode":"9100SAIR"}},
{"type":"Feature","geometry":{"type":"Point","coordinates":[-1.9072266,53.7078483]},"properties":{"name":"Sowerby Bridge","naptan:AtcoCode":"9100SWRBBDG","network":"National Rail","operator":"Northern Rail","railway":"station","ref:crs":"SOW","wheelchair":"yes","wikipedia":"en:Sowerby Bridge railway station"}},
{"type":"Feature","geometry":{"type":"Point","coordinates":[-1.9448075,53.9000518]},"properties":{"name":"Steeton and Silsden","source":"NPE","network":"National Rail","railway":"station","ref:crs":"SON","wikidata":"Q2199805","wikipedia":"en:Steeton and Silsden railway station","naptan:AtcoCode":"9100STEETON"}},
{"type":"Feature","geometry":{"type":"Point","coordinates":[-1.509052,53.6536504]},"properties":{"name":"Pugneys Central","operator":"Pugneys Light Railway","public_transport":"station","railway":"station","usage":"tourism","wheelchair":"no"}},
{"type":"Feature","geometry":{"type":"Point","coordinates":[-1.5116242,53.6565339]},"properties":{"name":"Pugneys Lakeside","operator":"Pugneys Light Railway","public_transport":"station","railway":"station","usage":"tourism","wheelchair":"yes"}},
{"type":"Feature","geometry":{"type":"Point","coordinates":[-1.7070712,53.8420442]},"properties":{"name":"Apperley Bridge","naptan:AtcoCode":"9100APERLYB","network":"National Rail","public_transport":"station","railway":"station","ref:crs":"APY","ref:tiploc":"APERLYB","train":"yes","wheelchair":"yes","wikipedia":"en:Apperley Bridge railway station"}},
{"type":"Feature","geometry":{"type":"Point","coordinates":[-1.8536277,53.7208399]},"properties":{"internet_access":"no","name":"Halifax","naptan:AtcoCode":"9100HLFX","network":"National Rail","public_transport":"station","railway":"station","ref:crs":"HFX","source":"NPE","train":"yes","wikipedia":"en:Halifax railway station (England)"}},
{"type":"Feature","geometry":{"type":"Point","coordinates":[-1.7523839,53.7501367]},"properties":{"name":"Low Moor","naptan:AtcoCode":"9100LOWMOOR","network":"National Rail","operator":"Northern","platforms":"2","public_transport":"station","railway":"station","ref:crs":"LMR","wikidata":"Q6692924","wikipedia":"en:Low Moor railway station"}},
{"type":"Feature","geometry":{"type":"Point","coordinates":[-2.0997573,53.713858]},"properties":{"name":"Todmorden","train":"yes","source":"npe","network":"National Rail","railway":"station","ref:crs":"TOD","wikipedia":"en:Todmorden railway station","naptan:AtcoCode":"9100TODMRDN","public_transport":"station"}},
{"type":"Feature","geometry":{"type":"Point","coordinates":[-1.627075,53.8253007]},"properties":{"name":"Kirkstall Forge","naptan:AtcoCode":"9100KRKSLFR","network":"National Rail","operator":"Northern","public_transport":"station","railway":"station","ref:crs":"KLF","ref:tiploc":"KRKSLFR","train":"yes","wheelchair":"yes","wikidata":"Q6415822","wikipedia":"en:Kirkstall Forge railway station"}},
{"type":"Feature","geometry":{"type":"Point","coordinates":[-1.8212877,53.9247929]},"properties":{"name":"Ilkley","network":"National Rail","railway":"station","ref:crs":"ILK","operator":"Northern","wikidata":"Q2295224","wikipedia":"en:Ilkley railway station","naptan:AtcoCode":"9100ILKLEY"}},
{"type":"Feature","geometry":{"type":"Point","coordinates":[-1.7531842,53.7974386]},"properties":{"name":"Bradford Forster Square","network":"National Rail","railway":"station","ref:crs":"BDQ","operator":"Northern","wikidata":"Q2604550","platforms":"3","wikipedia":"en:Bradford Forster Square railway station","naptan:AtcoCode":"9100BRADFS","public_transport":"station"}},
{"type":"Feature","geometry":{"type":"Point","coordinates":[-1.4886398,53.6786558]},"properties":{"name":"Wakefield Kirkgate","network":"National Rail","railway":"station","ref:crs":"WKK","operator":"National Rail","wikidata":"Q2279070","addr:city":"Wakefield","wikipedia":"en:Wakefield Kirkgate railway station","addr:street":"Monk Street","addr:postcode":"WF1 4EL","naptan:AtcoCode":"9100WKFLDKG","public_transport":"station"}},
{"type":"Feature","geometry":{"type":"Point","coordinates":[-1.6805365,53.8046713]},"properties":{"name":"New Pudsey","network":"National Rail","railway":"station","ref:crs":"NPD","wikidata":"Q2197812","wikipedia":"en:New Pudsey railway station","wheelchair":"yes","naptan:AtcoCode":"9100NPUD"}},
{"type":"Feature","geometry":{"type":"Point","coordinates":[-1.3034033,53.6917363]},"properties":{"name":"Pontefract Baghill","train":"yes","source":"NPE","network":"National Rail","railway":"station","ref:crs":"PFR","wikidata":"Q4301181","addr:city":"Pontefract","wikipedia":"en:Pontefract Baghill railway station","addr:street":"Station Lane","addr:postcode":"WF8 1QR","internet_access":"no","naptan:AtcoCode":"9100PTFTBHL","public_transport":"station"}},
{"type":"Feature","geometry":{"type":"Point","coordinates":[-1.3261163,53.7887921]},"properties":{"name":"Micklefield","source":"NPE","network":"National Rail","railway":"station","ref:crs":"MIK","wikidata":"Q3169687","wikipedia":"en:Micklefield railway station","naptan:AtcoCode":"9100MCKLFLD","public_transport":"station"}},
{"type":"Feature","geometry":{"type":"Point","coordinates":[-1.3715945,53.7922376]},"properties":{"name":"East Garforth","network":"National Rail","railway":"station","ref:crs":"EGF","wikidata":"Q2537875","wikipedia":"en:East Garforth railway station","naptan:AtcoCode":"9100EGRFRTH","public_transport":"station"}},
{"type":"Feature","geometry":{"type":"Point","coordinates":[-1.451228,53.8049261]},"properties":{"name":"Cross Gates","train":"yes","source":"NPE","network":"National Rail","railway":"station","ref:crs":"CRG","alt_name":"Crossgates","wikidata":"Q1857460","wikipedia":"en:Cross Gates railway station","naptan:AtcoCode":"9100CSGT","public_transport":"station"}},
{"type":"Feature","geometry":{"type":"Point","coordinates":[-1.8806027,53.6241585]},"properties":{"name":"Slaithwaite","naptan:AtcoCode":"9100SLTHWTE","network":"National Rail","operator":"Northern","public_transport":"station","railway":"station","ref:crs":"SWT","source":"NPE","train":"yes","wikipedia":"en:Slaithwaite railway station"}},
{"type":"Feature","geometry":{"type":"Point","coordinates":[-1.7847509,53.64849]},"properties":{"name":"Huddersfield","naptan:AtcoCode":"9100HDRSFLD","network":"National Rail","public_transport":"station","railway":"station","ref:crs":"HUD","wheelchair":"yes","wikipedia":"en:Huddersfield railway station"}},
{"type":"Feature","geometry":{"type":"Point","coordinates":[-1.6332735,53.692016]},"properties":{"name":"Dewsbury","naptan:AtcoCode":"9100DWBY","network":"National Rail","public_transport":"station","railway":"station","ref:crs":"DEW","wikipedia":"en:Dewsbury railway station"}},
{"type":"Feature","geometry":{"type":"Point","coordinates":[-1.6230114,53.7102081]},"properties":{"name":"Batley","naptan:AtcoCode":"9100BATLEY","network":"National Rail","public_transport":"station","railway":"station","ref:crs":"BTL","source":"gpx","wikipedia":"en:Batley railway station"}},
{"type":"Feature","geometry":{"type":"Point","coordinates":[-1.9302115,53.6032403]},"properties":{"name":"Marsden","network":"National Rail","railway":"station","ref:crs":"MSN","wikipedia":"en:Marsden railway station","naptan:AtcoCode":"9100MRSN"}},
{"type":"Feature","geometry":{"type":"Point","coordinates":[-1.5104273,53.7152957]},"properties":{"name":"Outwood","naptan:AtcoCode":"9100OUTWOOD","network":"National Rail","public_transport":"station","railway":"station","ref:crs":"OUT","wikipedia":"en:Outwood railway station"}},
{"type":"Feature","geometry":{"type":"Point","coordinates":[-1.548621,53.794414]},"properties":{"name":"Leeds","note":"interpolated from river and roads","train":"yes","network":"National Rail","railway":"station","ref:crs":"LDS","alt_name":"Leeds City","operator":"Network Rail","wikidata":"Q1466941","platforms":"17","wikipedia":"en:Leeds railway station","naptan:AtcoCode":"9100LEEDS","public_transport":"station"}},
{"type":"Feature","geometry":{"type":"Point","coordinates":[-1.5055805,53.6822118]},"properties":{"name":"Wakefield Westgate","train":"yes","network":"National Rail","railway":"station","ref:crs":"WKF","operator":"LNER","wikidata":"Q3907323","wikipedia":"en:Wakefield Westgate railway station","naptan:AtcoCode":"9100WKFLDWG","public_transport":"station"}},
{"type":"Feature","geometry":{"type":"Point","coordinates":[-1.7491251,53.790494]},"properties":{"name":"Bradford Interchange","naptan:AtcoCode":"9100BRADIN","network":"National Rail","note":"need to check where the station is, i.e. how far from the junction","public_transport":"station","railway":"station","ref:crs":"BDI","toilets:wheelchair":"yes","wheelchair":"yes","wikipedia":"en:Bradford Interchange"}},
{"type":"Feature","geometry":{"type":"Point","coordinates":[-1.3048115,53.5948943]},"properties":{"name":"Moorthorpe","network":"National Rail","railway":"station","ref:crs":"MRP","wikipedia":"en:Moorthorpe railway station","naptan:AtcoCode":"9100MORTHRP"}},
{"type":"Feature","geometry":{"type":"Point","coordinates":[-1.4235073,53.7004001]},"properties":{"name":"Normanton","naptan:AtcoCode":"9100NORMNTN","network":"National Rail","public_transport":"station","railway":"station","ref:crs":"NOR","wikidata":"Q2384576","wikipedia":"en:Normanton railway station"}},
{"type":"Feature","geometry":{"type":"Point","coordinates":[-1.2592535,53.7064452]},"properties":{"name":"Knottingley","naptan:AtcoCode":"9100KNTNGLY","network":"National Rail","public_transport":"station","railway":"station","ref:crs":"KNO","source":"NPE","wikidata":"Q2426364","wikipedia":"en:Knottingley railway station"}},
{"type":"Feature","geometry":{"type":"Point","coordinates":[-1.3420479,53.7090568]},"properties":{"name":"Glasshoughton","train":"yes","network":"National Rail","railway":"station","ref:crs":"GLH","operator":"Metro","wikidata":"Q4318900","addr:city":"Castleford","wikipedia":"en:Glasshoughton railway station","addr:street":"Colorado Way","addr:postcode":"WF10 4TA","internet_access":"no","naptan:AtcoCode":"9100GLASHTN","public_transport":"station"}},
{"type":"Feature","geometry":{"type":"Point","coordinates":[-1.3041376,53.6988004]},"properties":{"name":"Pontefract Monkhill","naptan:AtcoCode":"9100PTFTMHL","network":"National Rail","operator":"Northern","public_transport":"station","railway":"station","ref:crs":"PFM","source":"NPE","train":"yes","wikidata":"Q2212501","wikipedia":"en:Pontefract Monkhill railway station"}},
{"type":"Feature","geometry":{"type":"Point","coordinates":[-1.3551009,53.7240751]},"properties":{"name":"Castleford","source":"NPE","network":"National Rail","railway":"station","ref:crs":"CFD","wikidata":"Q2482490","wikipedia":"en:Castleford railway station","naptan:AtcoCode":"9100CASTLFD","public_transport":"station"}},
{"type":"Feature","geometry":{"type":"Point","coordinates":[-1.5607643,53.7300054]},"properties":{"railway":"station","usage":"tourism"}}
]}
