{"type":"FeatureCollection","features":[
{"type":"Feature","geometry":{"type":"Point","coordinates":[-0.3084153,51.0794524]},"properties":{"name":"Littlehaven","naptan:AtcoCode":"9100LHVN","network":"National Rail","old_name":"Littlehaven Halt","operator":"Southern","public_transport":"station","railway":"station","ref:crs":"LVN","wikidata":"Q2327144","wikipedia":"en:Littlehaven railway station"}},
{"type":"Feature","geometry":{"type":"Point","coordinates":[-0.263021,51.0959596]},"properties":{"name":"Faygate","source":"NPE","network":"National Rail","railway":"station","ref:crs":"FGT","wikidata":"Q2337132","wikipedia":"en:Faygate railway station","naptan:AtcoCode":"9100FAYGATE"}},
{"type":"Feature","geometry":{"type":"Point","coordinates":[-0.2145586,51.1155367]},"properties":{"name":"Ifield","network":"National Rail","railway":"station","ref:crs":"IFI","operator":"Southern","wikidata":"Q4933252","wikipedia":"en:Ifield railway station","naptan:AtcoCode":"9100IFIELD"}},
{"type":"Feature","geometry":{"type":"Point","coordinates":[-0.1610188,51.1567237]},"properties":{"addr:postcode":"RH6 0RD","name":"Gatwick Airport","naptan:AtcoCode":"9100GTWK","network":"National Rail","old_name":"Gatwick Racecourse","public_transport":"station","railway":"station","ref:crs":"GTW","wheelchair":"yes","wikidata":"Q1495884","wikipedia":"en:Gatwick Airport railway station"}},
{"type":"Feature","geometry":{"type":"Point","coordinates":[-0.1457168,50.9247179]},"properties":{"name":"Hassocks","network":"National Rail","railway":"station","ref:crs":"HSK","operator":"Southern","wikidata":"Q2831648","wikipedia":"en:Hassocks railway station","addr:postcode":"BN6 8JD","naptan:AtcoCode":"9100HASOCKS"}},
{"type":"Feature","geometry":{"type":"Point","coordinates":[-0.1407393,50.8288602]},"properties":{"name":"Brighton","train":"yes","network":"National Rail","railway":"station","ref:crs":"BTN","operator":"Southern","wikidata":"Q800573","addr:city":"Brighton","wikipedia":"en:Brighton railway station","wheelchair":"yes","addr:postcode":"BN1 3XP","naptan:AtcoCode":"9100BRGHTN","public_transport":"station","wheelchair:description":"Level access from buses and taxis. Tactile plan near entrance. Step-free between ends of all platforms. Train access requires ramps, no Harrington Humps discovered."}},
{"type":"Feature","geometry":{"type":"Point","coordinates":[-0.1553443,50.8460091]},"properties":{"addr:postcode":"BN1 6SG","name":"Preston Park","naptan:AtcoCode":"9100PRSP","network":"National Rail","operator":"Southern","public_transport":"station","railway":"station","ref:crs":"PRP","wikidata":"Q2337400","wikipedia":"en:Preston Park railway station"}},
{"type":"Feature","geometry":{"type":"Point","coordinates":[-0.1819376,50.8363826]},"properties":{"name":"Aldrington","network":"National Rail","railway":"station","ref:crs":"AGT","operator":"Southern","wikidata":"Q2802053","wikipedia":"en:Aldrington railway station","naptan:AtcoCode":"9100ALDTON"}},
{"type":"Feature","geometry":{"type":"Point","coordinates":[-0.2053146,50.8357764]},"properties":{"name":"Portslade","network":"National Rail","railway":"station","ref:crs":"PLD","operator":"Southern","wikidata":"Q2795710","wikipedia":"en:Portslade railway station","naptan:AtcoCode":"9100PSLDAWH"}},
{"type":"Feature","geometry":{"type":"Point","coordinates":[-0.907249,50.8482182]},"properties":{"name":"Southbourne","network":"National Rail","railway":"station","ref:crs":"SOB","wikidata":"Q2075322","wikipedia":"en:Southbourne railway station","naptan:AtcoCode":"9100SBOURNE","public_transport":"station"}},
{"type":"Feature","geometry":{"type":"Point","coordinates":[-0.0484174,51.1030936]},"properties":{"name":"Kingscote","operator":"Bluebell Railway","public_transport":"station","railway":"station","railway:preserved":"yes","usage":"tourism","website":"http://www.bluebell-railway.co.uk","wikidata":"Q6413185"}},
{"type":"Feature","geometry":{"type":"Point","coordinates":[-0.0448897,51.0461798]},"properties":{"name":"Horsted Keynes","usage":"tourism","source":"npe","railway":"station","website":"http://www.bluebell-railway.co.uk","operator":"Bluebell Railway","wikidata":"Q15225335","public_transport":"station","railway:preserved":"yes"}},
{"type":"Feature","geometry":{"type":"Point","coordinates":[-0.3761766,50.8186425]},"properties":{"name":"Worthing","train":"yes","network":"National Rail","railway":"station","ref:crs":"WRH","operator":"Southern","wikidata":"Q2161323","wikipedia":"en:Worthing railway station","wheelchair":"yes","naptan:AtcoCode":"9100WORTHNG","public_transport":"station","toilets:wheelchair":"yes"}},
{"type":"Feature","geometry":{"type":"Point","coordinates":[-0.3927544,50.8184444]},"properties":{"name":"West Worthing","train":"yes","network":"National Rail","railway":"station","ref:crs":"WWO","wikidata":"Q2982338","wikipedia":"en:West Worthing railway station","naptan:AtcoCode":"9100WWRTHNG","public_transport":"station"}},
{"type":"Feature","geometry":{"type":"Point","coordinates":[-0.4893149,50.8165367]},"properties":{"name":"Angmering","train":"yes","network":"National Rail","railway":"station","ref:crs":"ANG","operator":"Southern","wikidata":"Q1932910","wikipedia":"en:Angmering railway station","wheelchair":"yes","naptan:AtcoCode":"9100ANGMRNG","public_transport":"station","toilets:wheelchair":"yes"}},
{"type":"Feature","geometry":{"type":"Point","coordinates":[-0.2371971,50.8324943]},"properties":{"name":"Southwick","network":"National Rail","railway":"station","ref:crs":"SWK","operator":"Southern","wikidata":"Q2497816","wikipedia":"en:Southwick railway station","naptan:AtcoCode":"9100STHWICK"}},
{"type":"Feature","geometry":{"type":"Point","coordinates":[-0.8150525,50.8390621]},"properties":{"name":"Fishbourne","network":"National Rail","railway":"station","ref:crs":"FSB","operator":"Southern","wikidata":"Q3245103","wikipedia":"en:Fishbourne railway station","naptan:AtcoCode":"9100FSHBORN","public_transport":"station"}},
{"type":"Feature","geometry":{"type":"Point","coordinates":[-0.4114749,50.8174599]},"properties":{"name":"Durrington-on-Sea","train":"yes","network":"National Rail","railway":"station","ref:crs":"DUR","operator":"Southern","wikidata":"Q2654300","wikipedia":"en:Durrington-on-Sea railway station","wheelchair":"yes","naptan:AtcoCode":"9100DRNGTOS","public_transport":"station","toilets:wheelchair":"no"}},
{"type":"Feature","geometry":{"type":"Point","coordinates":[-0.4331815,50.8177092]},"properties":{"name":"Goring-by-Sea","train":"yes","network":"National Rail","railway":"station","ref:crs":"GBS","operator":"Southern","wikidata":"Q2789351","wikipedia":"en:Goring-by-Sea railway station","wheelchair":"yes","naptan:AtcoCode":"9100GORNGBS","public_transport":"station"}},
{"type":"Feature","geometry":{"type":"Point","coordinates":[-0.3551084,50.821592]},"properties":{"name":"East Worthing","network":"National Rail","railway":"station","ref:crs":"EWR","wikidata":"Q2716006","wikipedia":"en:East Worthing railway station","naptan:AtcoCode":"9100EWRTHNG"}},
{"type":"Feature","geometry":{"type":"Point","coordinates":[-0.323201,50.8270354]},"properties":{"name":"Lancing","network":"National Rail","railway":"station","ref:crs":"LAC","operator":"Southern","wikidata":"Q2308589","wikipedia":"en:Lancing railway station","naptan:AtcoCode":"9100LNCG","public_transport":"station"}},
{"type":"Feature","geometry":{"type":"Point","coordinates":[-0.2718589,50.8344459]},"properties":{"name":"Shoreham-by-Sea","network":"National Rail","railway":"station","ref:crs":"SSE","operator":"Southern","wikidata":"Q2674041","wikipedia":"en:Shoreham-by-Sea railway station","naptan:AtcoCode":"9100SHRHMBS"}},
{"type":"Feature","geometry":{"type":"Point","coordinates":[-0.2194114,50.8343332]},"properties":{"name":"Fishersgate","note":"might only be a halt, needs checking","network":"National Rail","railway":"station","ref:crs":"FSG","operator":"Southern","wikidata":"Q2193586","wikipedia":"en:Fishersgate railway station","naptan:AtcoCode":"9100FSHRSGT"}},
{"type":"Feature","geometry":{"type":"Point","coordinates":[-0.1327187,50.8189252]},"properties":{"name":"Aquarium","train":"yes","usage":"tourism","railway":"station","public_transport":"station"}},
{"type":"Feature","geometry":{"type":"Point","coordinates":[-0.1111525,50.8145348]},"properties":{"name":"Black Rock","public_transport":"station","railway":"station","train":"yes","usage":"tourism","wheelchair":"yes"}},
{"type":"Feature","geometry":{"type":"Point","coordinates":[-0.8471677,50.8428556]},"properties":{"name":"Bosham","source":"NPE","network":"National Rail","railway":"station","ref:crs":"BOH","operator":"Southern","wikidata":"Q2591345","wikipedia":"en:Bosham railway station","naptan:AtcoCode":"9100BOSHAM","public_transport":"station"}},
{"type":"Feature","geometry":{"type":"Point","coordinates":[-0.8836549,50.8461371]},"properties":{"name":"Nutbourne","source":"NPE","network":"National Rail","railway":"station","ref:crs":"NUT","operator":"Southern","wikidata":"Q4404768","wikipedia":"en:Nutbourne railway station","naptan:AtcoCode":"9100NUTBORN","public_transport":"station"}},
{"type":"Feature","geometry":{"type":"Point","coordinates":[-0.7820793,51.057239]},"properties":{"name":"Holycombe Junction","usage":"tourism","railway":"station","public_transport":"station"}},
{"type":"Feature","geometry":{"type":"Point","coordinates":[-0.1703739,50.8352409]},"properties":{"name":"Hove","network":"National Rail","railway":"station","ref:crs":"HOV","operator":"Southern","wikidata":"Q2426316","addr:city":"Hove","wikipedia":"en:Hove railway station","wheelchair":"yes","naptan:AtcoCode":"9100HOVE","toilets:wheelchair":"yes","wheelchair:description":"Ramp to booking hall. Step-free to platform 3 (westbound). Lift to subway for island platforms 1,2 (north & eastbound), and WC. No Humps, portable ramps for trains. [Induction Loop working at ticket window]"}},
{"type":"Feature","geometry":{"type":"Point","coordinates":[-0.5390312,50.8986574]},"properties":{"name":"Amberley","public_transport":"station","railway":"station","source":"visual survey;bing","usage":"tourism","wheelchair":"yes"}},
{"type":"Feature","geometry":{"type":"Point","coordinates":[-0.5345047,50.900274]},"properties":{"name":"Cragside","public_transport":"station","railway":"station","source":"visual survey;bing","usage":"tourism"}},
{"type":"Feature","geometry":{"type":"Point","coordinates":[-0.0204336,51.1246]},"properties":{"name":"East Grinstead (Bluebell)","operator":"Bluebell Railway","public_transport":"station","railway":"station","railway:preserved":"yes","toilets:wheelchair":"yes","usage":"tourism","website":"http://www.bluebell-railway.co.uk","wheelchair":"yes"}},
{"type":"Feature","geometry":{"type":"Point","coordinates":[-0.9225262,50.8844396]},"properties":{"public_transport":"station","railway":"station","usage":"tourism"}},
{"type":"Feature","geometry":{"type":"Point","coordinates":[-0.5356577,50.900947]},"properties":{"name":"Brockham","public_transport":"station","railway":"station","usage":"tourism"}},
{"type":"Feature","geometry":{"type":"Point","coordinates":[-0.4499027,51.0150946]},"properties":{"name":"Billingshurst","naptan:AtcoCode":"9100BILSHST","network":"National Rail","public_transport":"station","railway":"station","ref:crs":"BIG","wikidata":"Q2365559","wikipedia":"en:Billingshurst railway station"}},
{"type":"Feature","geometry":{"type":"Point","coordinates":[-0.1210879,50.8165473]},"properties":{"name":"Halfway Station","train":"yes","usage":"tourism","railway":"station","old_name":"Paston Place","wheelchair":"yes","public_transport":"station","toilets:wheelchair":"no"}},
{"type":"Feature","geometry":{"type":"Point","coordinates":[-0.5303248,50.9547688]},"properties":{"name":"Stopham Road","railway":"station","usage":"tourism","website":"https://www.south-downs-railway.com/"}},
{"type":"Feature","geometry":{"type":"Point","coordinates":[-0.11547,50.9981184]},"properties":{"internet_access":"no","name":"Beech Hurst Miniature Railway Station","railway":"station","usage":"tourism"}},
{"type":"Feature","geometry":{"type":"Point","coordinates":[-0.6761562,50.7869246]},"properties":{"name":"Bognor Regis","source":"NPE tracing","network":"National Rail","railway":"station","ref:crs":"BOG","operator":"Southern","wikidata":"Q2278205","wikipedia":"en:Bognor Regis railway station","naptan:AtcoCode":"9100BOGNORR"}},
{"type":"Feature","geometry":{"type":"Point","coordinates":[-0.5462574,50.8101746]},"properties":{"name":"Littlehampton","train":"yes","network":"National Rail","railway":"station","ref:crs":"LIT","wikidata":"Q2780143","wikipedia":"en:Littlehampton railway station","naptan:AtcoCode":"9100LTLHMPT","public_transport":"station"}},
{"type":"Feature","geometry":{"type":"Point","coordinates":[-0.781845,50.8318805]},"properties":{"name":"Chichester","network":"National Rail","railway":"station","ref:crs":"CCH","operator":"Southern","wikidata":"Q2187759","wikipedia":"en:Chichester railway station","naptan:AtcoCode":"9100CHCHSTR","public_transport":"station"}},
{"type":"Feature","geometry":{"type":"Point","coordinates":[-0.137032,51.0555957]},"properties":{"addr:postcode":"RH17 6QJ","name":"Balcombe","naptan:AtcoCode":"9100BALCOMB","network":"National Rail","operator":"Southern","public_transport":"station","railway":"station","ref:crs":"BAB","source":"NPE","source:addr:postcode":"code-point_open","wheelchair":"limited","wikidata":"Q2864622","wikipedia":"en:Balcombe railway station"}},
{"type":"Feature","geometry":{"type":"Point","coordinates":[-0.3296073,51.0930387]},"properties":{"name":"Warnham","source":"NPE","network":"National Rail","railway":"station","ref:crs":"WNH","operator":"Southern","wikidata":"Q2699878","wikipedia":"en:Warnham railway station","naptan:AtcoCode":"9100WARNHAM","public_transport":"station"}},
{"type":"Feature","geometry":{"type":"Point","coordinates":[-0.3189321,51.0659781]},"properties":{"name":"Horsham","network":"National Rail","railway":"station","ref:crs":"HRH","wikidata":"Q2431903","wikipedia":"en:Horsham railway station","wheelchair":"yes","naptan:AtcoCode":"9100HORSHAM","public_transport":"station"}},
{"type":"Feature","geometry":{"type":"Point","coordinates":[-0.5462831,50.8480149]},"properties":{"name":"Arundel","source":"NPE","network":"National Rail","railway":"station","ref:crs":"ARU","wikidata":"Q2052983","wikipedia":"en:Arundel railway station","naptan:AtcoCode":"9100ARUNDEL","public_transport":"station"}},
{"type":"Feature","geometry":{"type":"Point","coordinates":[-0.5419326,50.8966534]},"properties":{"name":"Amberley","naptan:AtcoCode":"9100AMLY","network":"National Rail","public_transport":"station","railway":"station","ref:crs":"AMY","source":"Landsat","train":"yes","wheelchair":"limited","wikidata":"Q2173107","wikipedia":"en:Amberley railway station"}},
{"type":"Feature","geometry":{"type":"Point","coordinates":[-0.5164713,50.9575905]},"properties":{"name":"Pulborough","naptan:AtcoCode":"9100PULBRO","network":"National Rail","public_transport":"station","railway":"station","ref:crs":"PUL","source":"NPE","wikidata":"Q4759900","wikipedia":"en:Pulborough railway station"}},
{"type":"Feature","geometry":{"type":"Point","coordinates":[-0.3638616,51.0508094]},"properties":{"name":"Christ's Hospital","naptan:AtcoCode":"9100CHRSTSH","network":"National Rail","public_transport":"station","railway":"station","ref:crs":"CHH","source":"Landsat photo","wikidata":"Q3401794","wikipedia":"en:Christ's Hospital railway station"}},
{"type":"Feature","geometry":{"type":"Point","coordinates":[-0.578301,50.8293642]},"properties":{"name":"Ford","network":"National Rail","railway":"station","ref:crs":"FOD","operator":"Southern","wikidata":"Q921886","wikipedia":"en:Ford railway station","naptan:AtcoCode":"9100FORD","public_transport":"station"}},
{"type":"Feature","geometry":{"type":"Point","coordinates":[-0.6402044,50.8307449]},"properties":{"name":"Barnham","network":"National Rail","railway":"station","ref:crs":"BAA","operator":"Southern","wikidata":"Q2059728","wikipedia":"en:Barnham railway station","naptan:AtcoCode":"9100BRHM","public_transport":"station"}},
{"type":"Feature","geometry":{"type":"Point","coordinates":[-0.1610653,51.1174709]},"properties":{"addr:postcode":"RH10 1LY","name":"Three Bridges","naptan:AtcoCode":"9100THBDGS","network":"National Rail","operator":"Southern","public_transport":"station","railway":"station","ref:crs":"TBD","wikidata":"Q2699563","wikipedia":"en:Three Bridges railway station"}},
{"type":"Feature","geometry":{"type":"Point","coordinates":[-0.1870935,51.1120836]},"properties":{"name":"Crawley","note":"As at June 2018 the waiting room on Platform 1 no longer has books.","network":"National Rail","railway":"station","ref:crs":"CRW","operator":"Southern","wikidata":"Q3405380","wikipedia":"en:Crawley railway station","naptan:AtcoCode":"9100CRAWLEY"}},
{"type":"Feature","geometry":{"type":"Point","coordinates":[-0.0178578,51.1264031]},"properties":{"addr:postcode":"RH19 1EB","name":"East Grinstead","naptan:AtcoCode":"9100EGRNSTD","network":"National Rail","network:train":"National Rail","operator":"Southern","public_transport":"station","railway":"station","ref:crs":"EGR","wheelchair":"limited","wikidata":"Q1912304","wikipedia":"en:East Grinstead railway station"}},
{"type":"Feature","geometry":{"type":"Point","coordinates":[-0.1274304,50.9536081]},"properties":{"name":"Burgess Hill","network":"National Rail","railway":"station","ref:crs":"BUG","wikidata":"Q2690165","wikipedia":"en:Burgess Hill railway station","naptan:AtcoCode":"9100BURGESH","public_transport":"station"}},
{"type":"Feature","geometry":{"type":"Point","coordinates":[-0.1363804,50.836813]},"properties":{"name":"London Road (Brighton)","train":"yes","network":"National Rail","railway":"station","ref:crs":"LRB","wikidata":"Q1820227","wikipedia":"en:London Road (Brighton) railway station","addr:postcode":"BN1 4QS","naptan:AtcoCode":"9100BRGHLRD","public_transport":"station"}},
{"type":"Feature","geometry":{"type":"Point","coordinates":[-0.1190654,50.8465383]},"properties":{"name":"Moulsecoomb","train":"yes","network":"National Rail","railway":"station","ref:crs":"MCB","wikidata":"Q2437531","wikipedia":"en:Moulsecoomb railway station","wheelchair":"no","naptan:AtcoCode":"9100MLSECMB","public_transport":"station","toilets:wheelchair":"no"}},
{"type":"Feature","geometry":{"type":"Point","coordinates":[-0.0872899,50.8619409]},"properties":{"name":"Falmer","train":"yes","network":"National Rail","railway":"station","ref:crs":"FMR","wikidata":"Q2435208","wikipedia":"en:Falmer railway station","wheelchair":"yes","naptan:AtcoCode":"9100FAMR","public_transport":"station"}},
{"type":"Feature","geometry":{"type":"Point","coordinates":[-0.1207209,50.9643606]},"properties":{"addr:city":"Burgess Hill","addr:postcode":"RH15 0QF","addr:street":"Leylands Road","name":"Wivelsfield","naptan:AtcoCode":"9100WVLSFLD","network":"National Rail","operator":"Southern","public_transport":"station","railway":"station","ref:crs":"WVF","wikidata":"Q517098","wikipedia":"en:Wivelsfield railway station"}},
{"type":"Feature","geometry":{"type":"Point","coordinates":[-0.1053994,51.0049043]},"properties":{"addr:postcode":"RH16 1DJ","name":"Haywards Heath","naptan:AtcoCode":"9100HYWRDSH","network":"National Rail","operator":"Southern","platforms":"2","public_transport":"station","railway":"station","ref:crs":"HHE","wikidata":"Q5687410","wikipedia":"en:Haywards Heath railway station"}}
]}
