{"type":"FeatureCollection","features":[
{"type":"Feature","geometry":{"type":"Point","coordinates":[-1.7858762,51.5656526]},"properties":{"name":"Swindon","network":"National Rail","railway":"station","ref:crs":"SWI","operator":"First Great Western","wikidata":"Q3244572","platforms":"4","wikipedia":"en:Swindon railway station","wheelchair":"yes","naptan:AtcoCode":"9100SDON","toilets:wheelchair":"yes"}},
{"type":"Feature","geometry":{"type":"Point","coordinates":[-1.634563,51.0424158]},"properties":{"name":"Dean","naptan:AtcoCode":"9100DEAN","network":"National Rail","public_transport":"station","railway":"station","ref:crs":"DEN","wikidata":"Q671580","wikipedia":"en:Dean railway station"}},
{"type":"Feature","geometry":{"type":"Point","coordinates":[-2.2143184,51.3200104]},"properties":{"name":"Trowbridge","naptan:AtcoCode":"9100TRWBRDG","network":"National Rail","public_transport":"station","railway":"station","ref:crs":"TRO","source":"NPE","wikidata":"Q2974092","wikipedia":"en:Trowbridge railway station"}},
{"type":"Feature","geometry":{"type":"Point","coordinates":[-2.3005891,51.3417702]},"properties":{"name":"Freshford","naptan:AtcoCode":"9100FRESHFD","network":"National Rail","public_transport":"station","railway":"station","ref:crs":"FFD","wikidata":"Q1915042","wikipedia":"en:Freshford railway station"}},
{"type":"Feature","geometry":{"type":"Point","coordinates":[-2.1446157,51.3801725]},"properties":{"name":"Melksham","source":"NPE","network":"National Rail","railway":"station","ref:crs":"MKM","operator":"GWR","wikidata":"Q2264906","wikipedia":"en:Melksham railway station","naptan:AtcoCode":"9100MELKSHM","public_transport":"station"}},
{"type":"Feature","geometry":{"type":"Point","coordinates":[-1.619847,51.1703259]},"properties":{"name":"Grateley","source":"NPE","network":"National Rail","railway":"station","ref:crs":"GRT","wikidata":"Q13590986","wikipedia":"en:Grateley railway station","naptan:AtcoCode":"9100GRATELY"}},
{"type":"Feature","geometry":{"type":"Point","coordinates":[-2.2818686,51.3395843]},"properties":{"name":"Avoncliff","source":"NPE","network":"National Rail","railway":"station","ref:crs":"AVF","wikidata":"Q2877190","wikipedia":"en:Avoncliff railway station","naptan:AtcoCode":"9100AVNCLFF","public_transport":"station"}},
{"type":"Feature","geometry":{"type":"Point","coordinates":[-2.2762606,51.1873942]},"properties":{"name":"Longleat","usage":"tourism","railway":"station"}},
{"type":"Feature","geometry":{"type":"Point","coordinates":[-1.843859,51.6073804]},"properties":{"name":"Blunsdon","usage":"tourism","railway":"station","wikidata":"Q4930769"}},
{"type":"Feature","geometry":{"type":"Point","coordinates":[-1.8471715,51.61365]},"properties":{"name":"Hayes Knoll","usage":"tourism","railway":"station","wikidata":"Q15223394"}},
{"type":"Feature","geometry":{"type":"Point","coordinates":[-1.8289729,51.5916289]},"properties":{"name":"Taw Valley Halt","usage":"tourism","railway":"station","wikidata":"Q7689188"}},
{"type":"Feature","geometry":{"type":"Point","coordinates":[-2.2522933,51.3448538]},"properties":{"name":"Bradford-on-Avon","source":"NPE","network":"National Rail","railway":"station","ref:crs":"BOA","wikidata":"Q4954566","wikipedia":"en:Bradford-on-Avon railway station","wheelchair":"limited","naptan:AtcoCode":"9100BRDFDOA","public_transport":"station","toilets:wheelchair":"no"}},
{"type":"Feature","geometry":{"type":"Point","coordinates":[-2.2078698,51.2489573]},"properties":{"name":"Dilton Marsh","train":"yes","network":"National Rail","railway":"station","ref:crs":"DMH","wikidata":"Q2303611","wikipedia":"en:Dilton Marsh railway station","request_stop":"yes","naptan:AtcoCode":"9100DILTONM","public_transport":"station"}},
{"type":"Feature","geometry":{"type":"Point","coordinates":[-2.0787884,51.061005]},"properties":{"name":"Tisbury","network":"National Rail","railway":"station","ref:crs":"TIS","wikipedia":"en:Tisbury railway station","naptan:AtcoCode":"9100TISBURY"}},
{"type":"Feature","geometry":{"type":"Point","coordinates":[-1.8064141,51.0705706]},"properties":{"name":"Salisbury","network":"National Rail","railway":"station","ref:crs":"SAL","wikidata":"Q1976733","wikipedia":"en:Salisbury railway station","naptan:AtcoCode":"9100SLSBRY"}},
{"type":"Feature","geometry":{"type":"Point","coordinates":[-1.5988756,51.3795602]},"properties":{"addr:city":"Great Bedwyn","addr:street":"The Knapp","internet_access":"no","name":"Bedwyn","naptan:AtcoCode":"9100BEDYN","network":"National Rail","operator":"Great Western","public_transport":"station","railway":"station","ref:crs":"BDW","source":"NPE","wheelchair":"yes","wheelchair:description":"Wheelchair ramps available. Step-free between platforms via steep ramp from platform 1 (terminating trains) and narrow bridge. Platform 2 (towards Reading & Paddington) has level access from car park and bus stop.","wikidata":"Q2453952","wikipedia":"en:Bedwyn railway station"}},
{"type":"Feature","geometry":{"type":"Point","coordinates":[-1.7706724,51.3422381]},"properties":{"name":"Pewsey","naptan:AtcoCode":"9100PEWSEY","network":"National Rail","public_transport":"station","railway":"station","ref:crs":"PEW","source":"NPE","wikidata":"Q2028949","wikipedia":"en:Pewsey railway station"}},
{"type":"Feature","geometry":{"type":"Point","coordinates":[-2.1997296,51.2663283]},"properties":{"name":"Westbury","naptan:AtcoCode":"9100WSTBRYW","network":"National Rail","public_transport":"station","railway":"station","ref:crs":"WSB","wikidata":"Q1980683","wikipedia":"en:Westbury railway station"}},
{"type":"Feature","geometry":{"type":"Point","coordinates":[-2.116144,51.4622697]},"properties":{"addr:city":"Chippenham","addr:postcode":"SN15 3QE","addr:street":"Cocklebury Road","name":"Chippenham","name:it":"ÄŒipnamas","naptan:AtcoCode":"9100CHIPNHM","network":"National Rail","public_transport":"station","railway":"station","ref:crs":"CPM","wheelchair":"yes","wikidata":"Q2178517","wikipedia":"en:Chippenham railway station"}},
{"type":"Feature","geometry":{"type":"Point","coordinates":[-2.1769016,51.2069721]},"properties":{"name":"Warminster","source":"Bing","network":"National Rail","railway":"station","ref:crs":"WMN","operator":"Great Western Railway","wikidata":"Q2383286","wikipedia":"en:Warminster railway station","naptan:AtcoCode":"9100WRMNSTR","public_transport":"station"}}
]}
