{"type":"FeatureCollection","features":[
{"type":"Feature","geometry":{"type":"Point","coordinates":[-1.9924997,52.3609702]},"properties":{"name":"Barnt Green","naptan:AtcoCode":"9100BGRN","network":"National Rail","public_transport":"station","railway":"station","ref:crs":"BTG","source":"NPE","wikidata":"Q2658226","wikipedia":"en:Barnt Green railway station"}},
{"type":"Feature","geometry":{"type":"Point","coordinates":[-2.1583391,52.2683805]},"properties":{"name":"Droitwich Spa","train":"yes","network":"National Rail","railway":"station","ref:crs":"DTW","operator":"London Midland","wikidata":"Q2360854","platforms":"2","wikipedia":"en:Droitwich Spa railway station","naptan:AtcoCode":"9100DRTWCHS","public_transport":"station"}},
{"type":"Feature","geometry":{"type":"Point","coordinates":[-2.3195676,52.1258094]},"properties":{"name":"Malvern Link","source":"NPE","network":"National Rail","railway":"station","ref:crs":"MVL","wikidata":"Q2657768","wikipedia":"en:Malvern Link railway station","addr:postcode":"WR14 1SW","naptan:AtcoCode":"9100MLVRNLK"}},
{"type":"Feature","geometry":{"type":"Point","coordinates":[-2.1767711,52.4064788]},"properties":{"name":"Blakedown","train":"yes","source":"NPE","network":"National Rail","railway":"station","ref:crs":"BKD","operator":"London Midland","wikidata":"Q2171050","wikipedia":"en:Blakedown railway station","naptan:AtcoCode":"9100BLAKEDN","public_transport":"station"}},
{"type":"Feature","geometry":{"type":"Point","coordinates":[-2.1465358,52.4224267]},"properties":{"name":"Hagley","source":"NPE","network":"National Rail","railway":"station","ref:crs":"HAG","wikidata":"Q2763246","wikipedia":"en:Hagley railway station","naptan:AtcoCode":"9100HAGLEY"}},
{"type":"Feature","geometry":{"type":"Point","coordinates":[-2.3060829,52.3756008]},"properties":{"name":"Bewdley","platforms":"1","railway":"station","source":"NPE","usage":"tourism","wikidata":"Q4899741"}},
{"type":"Feature","geometry":{"type":"Point","coordinates":[-2.3274107,52.3945523]},"properties":{"name":"Northwood Halt","usage":"tourism","source":"NPE","railway":"station","operator":"Severn Valley Railway","wikidata":"Q7060470","request_stop":"yes"}},
{"type":"Feature","geometry":{"type":"Point","coordinates":[-2.3488657,52.4171608]},"properties":{"name":"Arley","usage":"tourism","source":"NPE","railway":"station"}},
{"type":"Feature","geometry":{"type":"Point","coordinates":[-1.8451595,52.4035314]},"properties":{"name":"Shirley","source":"survey","network":"National Rail","railway":"station","ref:crs":"SRL","wikidata":"Q1815915","wikipedia":"en:Shirley railway station (England)","naptan:AtcoCode":"9100SHIRLEY","west_midlands_fare_zone":"4"}},
{"type":"Feature","geometry":{"type":"Point","coordinates":[-1.8444546,52.3443845]},"properties":{"name":"Wood End","source":"NPE","network":"National Rail","railway":"station","ref:crs":"WDE","wikidata":"Q2519103","wikipedia":"en:Wood End railway station","request_stop":"yes","naptan:AtcoCode":"9100WDND"}},
{"type":"Feature","geometry":{"type":"Point","coordinates":[-1.8514322,52.3918816]},"properties":{"name":"Whitlocks End","source":"NPE","network":"National Rail","railway":"station","ref:crs":"WTE","wikidata":"Q2133242","wikipedia":"en:Whitlocks End railway station","naptan:AtcoCode":"9100WHLE","west_midlands_fare_zone":"4"}},
{"type":"Feature","geometry":{"type":"Point","coordinates":[-1.8654572,52.3800791]},"properties":{"name":"Wythall","source":"NPE","network":"National Rail","railway":"station","ref:crs":"WYT","operator":"West Midlands Railway","wikidata":"Q2171448","wikipedia":"en:Wythall railway station","internet_access":"no","naptan:AtcoCode":"9100WYTH","public_transport":"station","west_midlands_fare_zone":"5"}},
{"type":"Feature","geometry":{"type":"Point","coordinates":[-1.9679618,52.3468403]},"properties":{"name":"Alvechurch","source":"NPE","network":"National Rail","railway":"station","ref:crs":"ALV","wikidata":"Q4355883","wikipedia":"en:Alvechurch railway station","naptan:AtcoCode":"9100ALVCHRC"}},
{"type":"Feature","geometry":{"type":"Point","coordinates":[-1.9456089,52.3063807]},"properties":{"name":"Redditch","network":"National Rail","railway":"station","ref:crs":"RDC","wikidata":"Q2253146","wikipedia":"en:Redditch railway station","wheelchair":"yes","naptan:AtcoCode":"9100RDIT"}},
{"type":"Feature","geometry":{"type":"Point","coordinates":[-1.9348538,52.1141441]},"properties":{"railway":"station","usage":"tourism","wheelchair":"no"}},
{"type":"Feature","geometry":{"type":"Point","coordinates":[-2.2401282,52.3839758]},"properties":{"name":"Coalyard Minature Railway","public_transport":"station","railway":"station","usage":"tourism"}},
{"type":"Feature","geometry":{"type":"Point","coordinates":[-2.0499793,52.3201581]},"properties":{"name":"Bromsgrove","source":"NPE","network":"National Rail","railway":"station","ref:crs":"BMV","wikidata":"Q1978141","wikipedia":"en:Bromsgrove railway station","naptan:AtcoCode":"9100BRMSGRV"}},
{"type":"Feature","geometry":{"type":"Point","coordinates":[-2.2399754,52.3835966]},"properties":{"name":"Kidderminster Town","operator":"Severn Valley Railway","public_transport":"station","railway":"station","usage":"tourism","wikidata":"Q6404676"}},
{"type":"Feature","geometry":{"type":"Point","coordinates":[-1.8720529,52.043006]},"properties":{"name":"Broadway","operator":"Gloucestershire Warwickshire Railway","public_transport":"station","railway":"station","usage":"tourism","wikidata":"Q4972554"}},
{"type":"Feature","geometry":{"type":"Point","coordinates":[-2.2384792,52.3843587]},"properties":{"name":"Kidderminster","network":"National Rail","railway":"station","ref:crs":"KID","wikipedia":"en:Kidderminster railway station","naptan:AtcoCode":"9100KDRMNST","public_transport":"station"}},
{"type":"Feature","geometry":{"type":"Point","coordinates":[-1.9372088,52.1172969]},"properties":{"name":"Evesham Vale Light Railway","usage":"tourism","source":"Bing","railway":"station","website":"http://www.evlr.co.uk/","addr:street":"Evesham Country Park","addr:postcode":"WR11 4TP"}},
{"type":"Feature","geometry":{"type":"Point","coordinates":[-2.0723991,52.1307399]},"properties":{"name":"Pershore","source":"NPE","network":"National Rail","railway":"station","ref:crs":"PSH","wikidata":"Q2185064","wikipedia":"en:Pershore railway station","naptan:AtcoCode":"9100PERSHOR"}},
{"type":"Feature","geometry":{"type":"Point","coordinates":[-2.3181313,52.1093038]},"properties":{"name":"Great Malvern","source":"NPE","name:lt":"Didysis Molvernas","network":"National Rail","railway":"station","ref:crs":"GMV","operator":"London Midland","wikidata":"Q2959698","wikipedia":"en:Great Malvern railway station","addr:street":"Avenue Road","addr:postcode":"WR14 3AL","naptan:AtcoCode":"9100GTMLVRN"}},
{"type":"Feature","geometry":{"type":"Point","coordinates":[-2.2093282,52.1950309]},"properties":{"name":"Worcester Shrub Hill","network":"National Rail","railway":"station","ref:crs":"WOS","wikidata":"Q1974749","wikipedia":"en:Worcester Shrub Hill railway station","naptan:AtcoCode":"9100WORCSSH","public_transport":"station"}},
{"type":"Feature","geometry":{"type":"Point","coordinates":[-1.9472858,52.0984969]},"properties":{"name":"Evesham","naptan:AtcoCode":"9100EVESHAM","network":"National Rail","public_transport":"station","railway":"station","ref:crs":"EVE","source":"NPE","wikidata":"Q2416634","wikipedia":"en:Evesham railway station"}},
{"type":"Feature","geometry":{"type":"Point","coordinates":[-1.8336821,52.1016406]},"properties":{"name":"Honeybourne","naptan:AtcoCode":"9100HONYBRN","network":"National Rail","railway":"station","ref:crs":"HYB","source":"NPE","wikidata":"Q5373459","wikipedia":"en:Honeybourne railway station"}},
{"type":"Feature","geometry":{"type":"Point","coordinates":[-2.2207959,52.1953289]},"properties":{"name":"Worcester Foregate Street","network":"National Rail","railway":"station","ref:crs":"WOF","wikidata":"Q1873465","wikipedia":"en:Worcester Foregate Street railway station","naptan:AtcoCode":"9100WORCSFS","public_transport":"station"}},
{"type":"Feature","geometry":{"type":"Point","coordinates":[-2.2210855,52.3344413]},"properties":{"name":"Hartlebury","naptan:AtcoCode":"9100HBRY","network":"National Rail","railway":"station","ref:crs":"HBY","source":"NPE","wikidata":"Q3403532","wikipedia":"en:Hartlebury railway station"}},
{"type":"Feature","geometry":{"type":"Point","coordinates":[-2.1591584,52.1563877]},"properties":{"name":"Worcestershire Parkway","train":"yes","network":"National Rail","railway":"station","ref:crs":"WOP","operator":"Great Western Railway","wikipedia":"en:Worcestershire Parkway railway station","public_transport":"station"}}
]}
